{"type":"FeatureCollection","features":[{"type":"Feature","properties":{"id":"tokyo-named-ome-do","name":"青梅道","aliases":[],"type":"road","entityType":"modern-road","jurisdiction":"Tokyo","geometrySource":"n13","source":["MLIT National Land Numerical Information N13 2024"],"license":"N13 source terms apply","confidence":"medium","note":"Identity comes from the road registry and OSM reference; display geometry is stitched from selected N13 segments.","match":{"candidateCount":226,"selectedFeatureCount":36,"osmCoveragePercent":23.93},"geometryProcessing":{"source":"MLIT N13","display":"endpoint-snapped and line-merged","sourceSegmentCount":36,"displayChainCount":4,"sourceLengthMeters":1608.607,"stitchedLengthMeters":1609.922,"endpointSnapCount":2,"maximumSnappedGapMeters":0.986,"unresolvedBreakCount":5,"maximumSourceResidualMeters":3.966,"maximumDisplayResidualMeters":3.95,"parallelCarriagewaysCollapsed":false,"endpointSnapMeters":2.0},"roadId":"tokyo-named-ome-do","sourceType":"canonical-road"},"geometry":{"type":"MultiLineString","coordinates":[[[139.700807972,35.6924615],[139.701592611,35.692290471999996],[139.70182550800004,35.692227373],[139.702030791,35.692141191],[139.702542037,35.691922172000005],[139.702638121,35.691878585],[139.703071694,35.691666694],[139.70307175,35.69166666700001],[139.703381722,35.69153180600001],[139.703601583,35.69143613899999],[139.703719057,35.691383401],[139.704853667,35.690852416999995],[139.70560144400002,35.690520806],[139.705763806,35.690446806],[139.706078134,35.690303363000005],[139.70660743100004,35.690070594999995],[139.70676112600003,35.690003766],[139.707092639,35.68984797200001],[139.707636722,35.68957891699999],[139.70832044400004,35.689281861],[139.708333333,35.689275472000006],[139.708444944,35.68922008300001],[139.708724333,35.689098222],[139.709176889,35.688909611],[139.709370889,35.688865500000006],[139.709921778,35.68874474999999],[139.710700611,35.688587639],[139.710798389,35.68856791700001],[139.711826028,35.688358527999995],[139.712379333,35.68823891700001],[139.712895917,35.68812725],[139.71404550652503,35.68788567518153],[139.714166679,35.68785985500001],[139.714490112,35.687794415],[139.714929192,35.687702548],[139.71526434559408,35.687631340824574]],[[139.71588348368138,35.68759027559112],[139.715910905,35.687592984000005]],[[139.715910905,35.687592984000005],[139.715773921,35.687579454],[139.715608268,35.687577137],[139.715410944,35.687600194],[139.714929192,35.687702548],[139.714490112,35.687794415],[139.714166679,35.68785985500001],[139.71404550652503,35.68788567518153]],[[139.710798389,35.68856791700001],[139.710700611,35.688587639]]]}}]}
