{"type":"FeatureCollection","features":[{"type":"Feature","properties":{"id":"tokyo-named-inokashira-dori","name":"井の頭通り","aliases":["井ノ頭通り","井の頭通り"],"type":"road","entityType":"modern-road","jurisdiction":"Tokyo","geometrySource":"n13","source":["MLIT National Land Numerical Information N13 2024"],"license":"N13 source terms apply","confidence":"medium","note":"Identity comes from the road registry and OSM reference; display geometry is stitched from selected N13 segments.","match":{"candidateCount":1240,"selectedFeatureCount":428,"osmCoveragePercent":100.0},"geometryProcessing":{"source":"MLIT N13","display":"endpoint-snapped and line-merged","sourceSegmentCount":428,"displayChainCount":11,"sourceLengthMeters":18816.581,"stitchedLengthMeters":18818.556,"endpointSnapCount":2,"maximumSnappedGapMeters":1.976,"unresolvedBreakCount":9,"maximumSourceResidualMeters":10.427,"maximumDisplayResidualMeters":10.547,"parallelCarriagewaysCollapsed":false,"endpointSnapMeters":2.0},"roadId":"tokyo-named-inokashira-dori","sourceType":"canonical-road"},"geometry":{"type":"MultiLineString","coordinates":[[[139.64765534984647,35.674083295796386],[139.647233959,35.67430418600001],[139.646902406,35.67447762500001],[139.646843023,35.674508689],[139.646735111,35.674565139],[139.646440903,35.67473772200001],[139.646384508,35.67477275900001],[139.646049556,35.674980861],[139.646017167,35.675],[139.645917556,35.675058861],[139.645329108,35.675405693],[139.64508588900003,35.675536556],[139.644911972,35.6756325],[139.64476375,35.675703806],[139.644367,35.675912444000005],[139.644277806,35.675959332999994],[139.643849036,35.67617177100001],[139.643181489,35.676509368],[139.642760099,35.676718526],[139.64204855100002,35.677082513],[139.641666667,35.677279929],[139.641526415,35.677352433],[139.641304196,35.67746220100001],[139.640555389,35.67784016700001],[139.639985728,35.678151014],[139.639903528,35.678189943999996],[139.639575583,35.678359083],[139.639016139,35.678646556],[139.63894725,35.678680471999996],[139.638563361,35.678866083],[139.638278528,35.679011472000006],[139.637646923,35.679324681],[139.637181639,35.6795635],[139.63692125,35.679683833],[139.636504056,35.67991550000001],[139.636199472,35.680084639],[139.636111768,35.68012297599999],[139.635663972,35.6803405],[139.635050611,35.680657833],[139.634188222,35.681091056],[139.633399209,35.681501352],[139.633333333,35.681535165],[139.632881028,35.681767332],[139.63258522200002,35.681908111000006],[139.632414675,35.681989942],[139.631863667,35.68227558299999],[139.631855195,35.682279327],[139.631552702,35.682431713],[139.631514093,35.682452447],[139.631190177,35.68261500799999],[139.631145194,35.682637583],[139.630791722,35.6828115],[139.630369417,35.683019278],[139.630236361,35.683092222000006],[139.629821333,35.68330525],[139.629770484,35.683333333000014],[139.629546111,35.68345725],[139.628638533,35.683915563],[139.627869033,35.684309166999995],[139.627655155,35.684424795],[139.627388578,35.68455833],[139.627039872,35.68473671800001],[139.62668332900003,35.68487527],[139.626193603,35.685056167],[139.625731194,35.685226972],[139.625,35.68549875],[139.624761028,35.68558441],[139.624673195,35.685623011],[139.624464028,35.685689171],[139.624287976,35.685757359],[139.623358814,35.686100474],[139.622871056,35.686276917],[139.622418583,35.68645098500001],[139.621595178,35.686762884],[139.621557859,35.68677658],[139.621028037,35.686960406],[139.62043259600003,35.687173344],[139.619722153,35.687429411],[139.618868815,35.687752837],[139.618574235,35.687855222],[139.618357277,35.687939368],[139.617777537,35.68815432700001],[139.61759325,35.68821955600001],[139.617068863,35.688414507],[139.616666667,35.68855704599999],[139.616338704,35.688673269],[139.616051335,35.688779567000005],[139.615149336,35.689117004],[139.614352724,35.689415016000005],[139.614203267,35.689471374],[139.613963878,35.689561548],[139.612989639,35.68991199999999],[139.611991139,35.690280056000006],[139.611742611,35.69037205600001],[139.61151416700002,35.690458667],[139.611113049,35.690604504000014],[139.610958327,35.69066326200001],[139.610690727,35.690758047],[139.610380787,35.690873267],[139.610071342,35.69099078200001],[139.609836591,35.691071302],[139.609679201,35.691134412],[139.609234909,35.691301057],[139.60867355600004,35.691501444],[139.608333333,35.691632956],[139.608246123,35.69166666700001],[139.608181532,35.691691634],[139.607968103,35.691771185],[139.607769479,35.69184365000001],[139.607587408,35.691912514],[139.607021668,35.69211888400001],[139.606656471,35.692253962],[139.60661743,35.692269341],[139.606078576,35.69246603900001],[139.605462194,35.69269108300001],[139.605124361,35.692816916999995],[139.604729355,35.692961344],[139.604623982,35.692999427000004],[139.604338537,35.69311259100001],[139.603949052,35.693251868],[139.603751641,35.693321507],[139.603562234,35.69338461699999],[139.603208694,35.693511167000004],[139.602834689,35.693652524],[139.602263114,35.69386061400001],[139.601890369,35.693998817],[139.601555984,35.694122034],[139.601422486,35.69417067700001],[139.600913408,35.694363018],[139.600702032,35.694433329],[139.600529814,35.694496494],[139.60033,35.69456163900001],[139.6,35.69469079800001],[139.599971764,35.69470184899999],[139.599787836,35.69476444400001],[139.599741554,35.694782595],[139.599338556,35.694932528],[139.598927131,35.695092488],[139.598261011,35.695343969],[139.597550074,35.695607347000006],[139.597036432,35.695784974],[139.596536734,35.695973787],[139.596129265,35.69612024500001],[139.595942214,35.696187933],[139.59573575,35.69626072199999],[139.595660139,35.696289056],[139.59537325,35.696396500000006],[139.594999778,35.696524360999994],[139.594531194,35.69669675000001],[139.59402086200004,35.69689756],[139.59374675,35.696998556],[139.593224917,35.697192861],[139.5925255,35.697440917],[139.592034242,35.697619509999996],[139.591736806,35.697734306],[139.591666667,35.697761194],[139.591437667,35.697849028],[139.590981028,35.698013806],[139.590500833,35.6981895],[139.589838806,35.698428028],[139.5894435,35.69857508300001],[139.589158207,35.698680509],[139.58884575,35.698795972000006],[139.588647722,35.698869167000005],[139.588533889,35.698910833],[139.588474,35.698933889],[139.588079611,35.699074861],[139.587934565,35.699127926],[139.587873753,35.699151726],[139.587497797,35.699292744],[139.587304572,35.699360285],[139.587092846,35.69943870000001],[139.586928973,35.699504126000015],[139.586710121,35.69958314200001],[139.586306167,35.699733472],[139.585904888,35.69987941],[139.585578583,35.7],[139.585464694,35.70003875],[139.585122028,35.70016838899999],[139.583880472,35.700615806],[139.583333333,35.700807528000006],[139.583270972,35.700829389],[139.583184846,35.700859973],[139.582530444,35.701104556],[139.581870861,35.70135119399999],[139.581267722,35.701571083],[139.580876278,35.701713778],[139.580263361,35.701974],[139.579716556,35.702142832999996],[139.579442306,35.7022355],[139.5791195,35.702344611],[139.578727194,35.702477222],[139.5783225,35.702598361],[139.577791528,35.70275730600001],[139.577257583,35.70293661099999],[139.576732862,35.703088083000004],[139.576604917,35.703125694],[139.575793972,35.703360611],[139.57537833300003,35.703481417],[139.575,35.70359136100001],[139.574966944,35.70360097199999],[139.574723028,35.703671361],[139.574458417,35.70374772200001],[139.574160333,35.703833722000006],[139.57404675,35.7038665],[139.573750083,35.703952111],[139.573593694,35.70400158300001],[139.573186667,35.704130361000004],[139.5726685,35.704294278],[139.572088167,35.704461500000015],[139.571635667,35.704609889000004],[139.571180806,35.70473675],[139.570871306,35.704823083],[139.570657194,35.704889972000004],[139.570424083,35.704946583],[139.570221361,35.704995806],[139.569980667,35.705071638999996],[139.56967813900002,35.705168528],[139.569334028,35.705272610999984],[139.569134861,35.7053365],[139.568652083,35.70546891699999],[139.568415111,35.705541583],[139.568209667,35.705605472],[139.568007972,35.705660083],[139.567713,35.7057415],[139.567220167,35.705901250000004],[139.566746667,35.706037222000006],[139.566666667,35.70606124999999],[139.56631333300004,35.706167416999996],[139.566066417,35.70624416700001],[139.56593425,35.70628911099999],[139.565696694,35.706351083],[139.565285139,35.70647350000001],[139.565076194,35.706532833000004],[139.564454861,35.706720583],[139.56414075,35.706826333],[139.563784444,35.706901],[139.562803028,35.707072333],[139.562173444,35.707194139],[139.561941694,35.707231389],[139.56105025,35.70737855600001],[139.560408465,35.70748396],[139.560293889,35.707502778],[139.55997302800003,35.707561944],[139.55992913900002,35.707571389],[139.559841917,35.707590278],[139.559682417,35.70761144400001],[139.559276083,35.707680278],[139.558994583,35.707717361],[139.558631417,35.707765222],[139.558371361,35.70782666699999],[139.558336639,35.707831972],[139.558333333,35.707832472],[139.558212389,35.70786050000001],[139.557890222,35.707906139],[139.557206278,35.708019861],[139.556767417,35.708099889],[139.556345528,35.708176833],[139.555949972,35.708241582999996],[139.555851361,35.70825772199999],[139.5557685,35.708272444],[139.5554255,35.708333333],[139.555311111,35.708353639],[139.55446550000002,35.708508],[139.554066917,35.708587167000005],[139.553866083,35.708642222],[139.553760898,35.70868164499999],[139.553654139,35.708720833],[139.553483455,35.70876788699999],[139.553429986,35.70878460400001],[139.55330166,35.708824579],[139.553207198,35.708853651],[139.552975061,35.70893012599999],[139.552880146,35.708966309],[139.552786575,35.709001923],[139.552679915,35.709042802],[139.552518918,35.7091029],[139.552393837,35.709148281],[139.551968333,35.709336194],[139.551469889,35.709520111],[139.550497778,35.709872917000006],[139.550213667,35.709984694000006],[139.55,35.71006513900001],[139.549918861,35.710095693999996],[139.549484917,35.710251083],[139.548972917,35.71045005599999],[139.548566611,35.710604667],[139.548189417,35.710739444],[139.547795722,35.710883722],[139.547324444,35.711057333000014],[139.546733889,35.711280111],[139.546278611,35.71145375],[139.545908194,35.711590111],[139.544936556,35.711953194],[139.544385778,35.712135528],[139.543879583,35.712346417],[139.543431583,35.712492306],[139.542944806,35.712642917],[139.542300056,35.712870417],[139.542143981,35.712926700000004],[139.54182308,35.71304514599999],[139.541666667,35.713118279],[139.541452916,35.713180992]],[[139.6614122706221,35.66902764152845],[139.660884116,35.669071028999994],[139.66061428,35.669093196],[139.660490362,35.669103375999995],[139.659848083,35.669156139],[139.659325222,35.669186861],[139.659285251,35.669192167],[139.659242003,35.669206282999994],[139.659183432,35.669234182],[139.659142534,35.66926363],[139.659101528,35.669308388999994],[139.659065877,35.669385784],[139.658812278,35.66993633299999],[139.658676802,35.67021604200001],[139.658658361,35.670257472],[139.658475266,35.670641114000006],[139.658432016,35.670647584],[139.658388767,35.670649349],[139.658336472,35.67064352799999],[139.658333333,35.670642806],[139.658301583,35.670635389],[139.65769433300002,35.670429083],[139.656647056,35.670082722],[139.656438278,35.670007250000005],[139.656383944,35.66998125],[139.656310056,35.669942666999994],[139.656282361,35.669904944],[139.656281333,35.669838694],[139.656285417,35.669637417],[139.656219778,35.669528416999995],[139.656137722,35.66947725],[139.655939167,35.669430528],[139.65572630600002,35.669403667],[139.655611389,35.669418778],[139.65546775,35.669448972000005],[139.655091694,35.669594111],[139.6546805,35.669744194],[139.654595528,35.669775222],[139.654535694,35.66979705600001],[139.654281806,35.669891167],[139.654151028,35.669939639000006],[139.653835083,35.670062917],[139.653758799,35.670093038000005],[139.653243444,35.670296528],[139.653174472,35.67032375],[139.652971762,35.67052933600001],[139.652865716,35.670636887],[139.652781413,35.67074761700001],[139.652647528,35.670923472],[139.652470702,35.671154693],[139.6524165,35.671225568],[139.652349796,35.671312791],[139.652323817,35.67134676300001],[139.652280278,35.671403694],[139.651688806,35.672106528],[139.651593683,35.672201631],[139.651519584,35.672250792],[139.651453749,35.672294471000015],[139.651192667,35.672385675],[139.651004021,35.672449132],[139.650811279,35.672517502],[139.650675115,35.672567214000004],[139.650493114,35.672644671],[139.650200583,35.672788236],[139.650166855,35.672805075999996],[139.65,35.672888384],[139.649940689,35.672917997],[139.64941552,35.673180206],[139.648939181,35.673418486],[139.648872472,35.67345086100001],[139.648664522,35.673558878],[139.648444549,35.673673141],[139.647822308,35.673996356]],[[139.66144167017097,35.66910385614502],[139.66162814100002,35.66909163799999],[139.66202977,35.669066811000015],[139.66208082,35.669063656],[139.662316839,35.669049066],[139.662441016,35.66904139],[139.663105596,35.66900030800001],[139.66327082400002,35.66899009400001],[139.663354618,35.66898491399999],[139.663569995,35.668971600999996],[139.664193722,35.668927861],[139.664327147,35.668922316999996],[139.664383586,35.66891997199999],[139.664801456,35.668902609],[139.665081977,35.668887444],[139.665253083,35.668878194],[139.665586889,35.668864111],[139.666114087,35.668845084000004],[139.666666667,35.66883519700001],[139.666737639,35.668833556],[139.667064372,35.66882506000001],[139.667188333,35.668822750000004],[139.667617167,35.66879699999999],[139.66801811100004,35.66878130600001],[139.668503437,35.668745074],[139.668846587,35.668719456000005],[139.669065915,35.66870308199999],[139.66924144,35.66868997800001],[139.669478167,35.668672306],[139.669875944,35.668647056],[139.670323333,35.668623639],[139.670478722,35.668612833000005],[139.670593837,35.668606948],[139.670831333,35.668594806],[139.67145047600002,35.66856401999999],[139.671519709,35.668560575],[139.671682556,35.668552472],[139.671957833,35.668540111],[139.67215036100004,35.668531443999996],[139.672255083,35.668527306],[139.672733214,35.668513639],[139.67287658,35.668508069000005],[139.673044266,35.668503144999995],[139.673913917,35.668477611],[139.674047472,35.668472389],[139.674426068,35.66845759800001],[139.674497556,35.66845480599999],[139.674608556,35.66845102800001],[139.675,35.66843772200001],[139.675411944,35.66842152800001],[139.676351194,35.668378694],[139.676992749,35.668355798],[139.677063361,35.668353278],[139.677166749,35.66834689299999],[139.677264417,35.668340861],[139.677894583,35.668306333],[139.678058958,35.668296885000004],[139.678564778,35.66826716700001],[139.678795111,35.668251083],[139.679179053,35.66822841399999],[139.679585222,35.66821288900001],[139.679996417,35.668197167],[139.680131683,35.668192250000004],[139.680425111,35.668181583000006],[139.680812889,35.668167472],[139.681610423,35.668118545999995],[139.681935882,35.66809858],[139.682039972,35.66809219400001],[139.682228778,35.66808733300001],[139.68256475,35.66806941699999],[139.682835611,35.66805497199999],[139.682925101,35.668049833],[139.683177583,35.668035333000006],[139.683328833,35.668026639],[139.683333333,35.668026472],[139.683336583,35.668026361],[139.683610428,35.66801712899999],[139.684011772,35.667997330000006],[139.684170986,35.667989519],[139.68435769,35.66798026399999],[139.684578885,35.66796935199999],[139.685758355,35.667911486],[139.686017632,35.667898373],[139.68609277,35.667894666],[139.686245914,35.667887111000006],[139.686950167,35.66784908299999],[139.687164278,35.667838361],[139.68729725,35.667831721999995],[139.687307091,35.66783129900001],[139.687510301,35.66782257],[139.687666696,35.667815971],[139.687813308,35.667809785],[139.687913028,35.66780491699999],[139.688091197,35.667794746],[139.688452195,35.667778304],[139.688528472,35.667776731],[139.688880483,35.667754901],[139.688950238,35.667750105],[139.689138712,35.667727857],[139.689428,35.66768297200001],[139.689596801,35.667652922],[139.689615765,35.667649053],[139.689776962,35.66762326100001],[139.68987366400003,35.667604739],[139.690207124,35.667549285],[139.690314071,35.667537217],[139.690448461,35.667534985],[139.690570677,35.66754014400001],[139.690631785,35.667546162],[139.69067287500002,35.667552181],[139.690776101,35.667573856],[139.690918598,35.667607659],[139.69112775,35.667667583]],[[139.69082217331626,35.66758478525171],[139.690918598,35.667607659],[139.69112775,35.667667583],[139.691166,35.667676832999994],[139.691206139,35.66768708300001],[139.691522139,35.66777727800001],[139.691604774,35.66779989500001],[139.691666667,35.667819],[139.691823176,35.66786383400001]],[[139.69119391845837,35.667683962332234],[139.691206139,35.66768708300001],[139.691522139,35.66777727800001],[139.691604774,35.66779989500001],[139.691666667,35.667819],[139.691823176,35.66786383400001]],[[139.69187920755297,35.667786312635755],[139.691823176,35.66786383400001]],[[139.690631785,35.667546162],[139.690570677,35.66754014400001],[139.690448461,35.667534985],[139.690314071,35.667537217],[139.690207124,35.667549285],[139.68987366400003,35.667604739],[139.689776962,35.66762326100001],[139.689615765,35.667649053],[139.689596801,35.667652922],[139.689428,35.66768297200001],[139.689138712,35.667727857],[139.688950238,35.667750105],[139.688880483,35.667754901],[139.688528472,35.667776731],[139.688452195,35.667778304],[139.688091197,35.667794746],[139.687913028,35.66780491699999],[139.687813308,35.667809785],[139.687666696,35.667815971],[139.687510301,35.66782257],[139.687307091,35.66783129900001],[139.68729725,35.667831721999995],[139.687164278,35.667838361],[139.686950167,35.66784908299999],[139.686245914,35.667887111000006]],[[139.6859575301076,35.66790141271855],[139.685758355,35.667911486],[139.684578885,35.66796935199999],[139.68435769,35.66798026399999],[139.684170986,35.667989519],[139.684011772,35.667997330000006],[139.683610428,35.66801712899999],[139.683336583,35.668026361],[139.683333333,35.668026472],[139.683328833,35.668026639],[139.683177583,35.668035333000006],[139.682925101,35.668049833],[139.682835611,35.66805497199999],[139.68256475,35.66806941699999],[139.682228778,35.66808733300001],[139.682039972,35.66809219400001],[139.681935882,35.66809858],[139.681610423,35.668118545999995],[139.680812889,35.668167472],[139.680425111,35.668181583000006],[139.680131683,35.668192250000004],[139.679996417,35.668197167],[139.679585222,35.66821288900001],[139.679179053,35.66822841399999],[139.678795111,35.668251083],[139.678564778,35.66826716700001],[139.678058958,35.668296885000004],[139.677894583,35.668306333],[139.677264417,35.668340861],[139.677166749,35.66834689299999],[139.677063361,35.668353278],[139.676992749,35.668355798],[139.676351194,35.668378694],[139.675411944,35.66842152800001],[139.675,35.66843772200001],[139.674608556,35.66845102800001],[139.674497556,35.66845480599999],[139.674426068,35.66845759800001],[139.674047472,35.668472389],[139.673913917,35.668477611],[139.673044266,35.668503144999995],[139.67287658,35.668508069000005],[139.672733214,35.668513639],[139.672255083,35.668527306],[139.67215036100004,35.668531443999996],[139.671957833,35.668540111],[139.671682556,35.668552472],[139.671519709,35.668560575],[139.67145047600002,35.66856401999999],[139.670831333,35.668594806],[139.670593837,35.668606948],[139.670478722,35.668612833000005]],[[139.67029931678536,35.66862489608667],[139.669875944,35.668647056],[139.669478167,35.668672306],[139.66924144,35.66868997800001],[139.669065915,35.66870308199999],[139.668846587,35.668719456000005],[139.668503437,35.668745074],[139.66801811100004,35.66878130600001],[139.667617167,35.66879699999999],[139.667188333,35.668822750000004],[139.667064372,35.66882506000001],[139.666737639,35.668833556],[139.666666667,35.66883519700001],[139.666114087,35.668845084000004],[139.665586889,35.668864111],[139.665253083,35.668878194],[139.665081977,35.668887444],[139.664801456,35.668902609],[139.664383586,35.66891997199999],[139.664327147,35.668922316999996],[139.664193722,35.668927861],[139.663569995,35.668971600999996],[139.663354618,35.66898491399999],[139.66327082400002,35.66899009400001],[139.663105596,35.66900030800001],[139.662441016,35.66904139],[139.662316839,35.669049066],[139.66208082,35.669063656],[139.66202977,35.669066811000015],[139.66162814100002,35.66909163799999],[139.66153990069984,35.669097419813646]],[[139.66135096979397,35.669032677462795],[139.6614122706221,35.66902764152845]],[[139.700808111,35.660425917000005],[139.7,35.660551658],[139.699708739,35.660610141999996],[139.699451028,35.6606555],[139.699018722,35.660719917],[139.698885944,35.660748149999996],[139.698770334,35.66077763500001],[139.698703635,35.660798226000004],[139.698562247,35.660843775],[139.698402972,35.660901556],[139.698334641,35.660935544000004],[139.698251998,35.661021786],[139.698154194,35.66114377800001],[139.697990639,35.661370167],[139.69771965900003,35.661758516999996],[139.697605185,35.661918957],[139.697530528,35.662011363],[139.697477024,35.66206518100001],[139.69732807,35.66218252800001],[139.697277157,35.662213562000005],[139.697209135,35.662250795],[139.697106669,35.662298968],[139.696941706,35.662376317],[139.696887805,35.662405451],[139.696842531,35.662435369000015],[139.696795917,35.662469667],[139.695931444,35.663187694],[139.695579667,35.663466472],[139.695509499,35.663566815],[139.695169806,35.664038222],[139.694892778,35.664404722],[139.694299444,35.66524972199999],[139.693977607,35.665731916000006],[139.693753715,35.66603910500001],[139.693695373,35.666099244],[139.693623083,35.66616738900001],[139.693519938,35.66623993000001],[139.693415534,35.666298817],[139.693315736,35.666343921999996],[139.693185757,35.666386188],[139.693047148,35.666446079],[139.692948864,35.666505626],[139.692838315,35.666588321],[139.6927479755006,35.66667339850022],[139.692607639,35.666820667],[139.692369318,35.667117641],[139.692143611,35.6674205],[139.69205424501524,35.66754414181967]]]}}]}
