{"type":"FeatureCollection","metadata":{"source":"OpenStreetMap Route 20 and MLIT N13 2024 extracts","area":"Shinjuku, Tokyo","purpose":"ownership regression; nearby lower-class stems must not displace continuous class 1"},"features":[{"type":"Feature","properties":{"role":"osm-reference","referencePart":0},"geometry":{"type":"LineString","coordinates":[[139.6900,35.6870],[139.7000,35.6867],[139.7100,35.6864]]}},{"type":"Feature","properties":{"role":"n13-candidate","N13_003":"1","sourceFeatureIndex":0},"geometry":{"type":"LineString","coordinates":[[139.6900,35.6870],[139.7000,35.6867],[139.7100,35.6864]]}},{"type":"Feature","properties":{"role":"n13-candidate","N13_003":"2","sourceFeatureIndex":1},"geometry":{"type":"LineString","coordinates":[[139.6980,35.68676],[139.6990,35.6880]]}},{"type":"Feature","properties":{"role":"n13-candidate","N13_003":"3","sourceFeatureIndex":2},"geometry":{"type":"LineString","coordinates":[[139.7040,35.68658],[139.7060,35.6880]]}}]}
