{"type":"FeatureCollection","metadata":{"source":"compact representative Route 20 western extract","area":"western Tokyo","purpose":"lower-class fallback regression"},"features":[{"type":"Feature","properties":{"role":"osm-reference","referencePart":0},"geometry":{"type":"LineString","coordinates":[[139.2000,35.6500],[139.2100,35.6500],[139.2200,35.6500]]}},{"type":"Feature","properties":{"role":"n13-candidate","N13_003":"1","sourceFeatureIndex":0},"geometry":{"type":"LineString","coordinates":[[139.2000,35.6500],[139.2100,35.6500]]}},{"type":"Feature","properties":{"role":"n13-candidate","N13_003":"2","sourceFeatureIndex":1},"geometry":{"type":"LineString","coordinates":[[139.2100,35.6500],[139.2200,35.6500]]}}]}
