{"type":"FeatureCollection","features":[{"type":"Feature","properties":{"id":"jp-national-246","name":"国道246号","aliases":["国道246","246号","246"],"type":"road","roadClass":"national","routeNumber":"246","jurisdiction":"JP","geometrySource":"osm","source":["OpenStreetMap"],"license":"ODbL 1.0","confidence":"high","note":"OSM reference geometry used to identify and validate the canonical road."},"geometry":{"type":"MultiLineString","coordinates":[[[139.7081342,35.6616159],[139.7090112,35.662185],[139.7100115,35.662799],[139.710323,35.66299]],[[139.7383961,35.678526],[139.7380326,35.678527],[139.7373215,35.6784685],[139.7372051,35.6784551],[139.7370956,35.6784358],[139.7370024,35.6784097]],[[139.703173,35.657964],[139.7029035,35.6579072],[139.7027069,35.6578508],[139.7022006,35.6576735]],[[139.740124,35.6788891],[139.7403465,35.6787485]],[[139.6910999,35.6531457],[139.6907321,35.6530419]],[[139.6910426,35.6533122],[139.6919035,35.6535532],[139.69241,35.6537],[139.6926039,35.6537661],[139.6927971,35.6538399],[139.6929715,35.6539159],[139.6931352,35.6539982],[139.6933175,35.654108],[139.6934797,35.6542231],[139.6936525,35.6543708],[139.6937966,35.6545162],[139.6939339,35.6546746],[139.6941988,35.655014]],[[139.6969477,35.6560013],[139.69515,35.6555619],[139.69504,35.6555271],[139.6949513,35.6554882],[139.6948707,35.6554418],[139.6947894,35.6553882],[139.6947216,35.6553303],[139.6946607,35.6552622],[139.6943356,35.654853],[139.6940962,35.6545709],[139.6939755,35.6544278],[139.6938464,35.6542959],[139.6937235,35.6541831],[139.6935845,35.6540692],[139.6934361,35.6539672],[139.6932408,35.6538543],[139.6930603,35.6537698],[139.6928677,35.6536841],[139.692665,35.6536135],[139.6923612,35.6535134],[139.6910999,35.6531457]],[[139.6928254,35.6545995],[139.6930285,35.6545464],[139.6932095,35.6544989],[139.6933875,35.6544662],[139.6934762,35.6544621],[139.6935228,35.654468],[139.6936092,35.6544942],[139.6937008,35.6545495]],[[139.6910279,35.653345],[139.691535,35.6534815],[139.691903,35.6535846],[139.6923234,35.6537111],[139.6927495,35.6538581],[139.6928908,35.6539171],[139.6930215,35.6539791]],[[139.6956357,35.6559049],[139.6969488,35.6561891],[139.6973037,35.6563057]],[[139.6967278,35.6558923],[139.6956909,35.6556408]],[[139.6858723,35.6512254],[139.6858008,35.6511879],[139.6854653,35.6510129],[139.6852115,35.6508807]],[[139.6860437,35.651314],[139.6858723,35.6512254]],[[139.7442252,35.6737859],[139.7442455,35.673683],[139.7443075,35.6734116],[139.7444014,35.67312],[139.7444222,35.6730681],[139.7445625,35.6727173]],[[139.7438198,35.6750655],[139.7437829,35.6751908],[139.7435852,35.6758707],[139.7435715,35.6759181],[139.7434526,35.676327],[139.7434121,35.6764678],[139.7432676,35.6769918],[139.7432541,35.6770407],[139.7431554,35.6774192],[139.7431267,35.6775445]],[[139.7385522,35.678689],[139.7390698,35.6787351],[139.7395894,35.6788013],[139.7400368,35.6788727],[139.740124,35.6788891]],[[139.734775,35.6769637],[139.7341036,35.6765563],[139.7328286,35.675796],[139.7327437,35.6757465],[139.7326952,35.6757182],[139.7324089,35.6755307]],[[139.7358596,35.6776935],[139.7360026,35.6777805],[139.7361756,35.6779053],[139.7366323,35.6782882],[139.7367355,35.6783694],[139.7368039,35.6784167],[139.736867,35.6784505],[139.7369473,35.6784857]],[[139.6932443,35.6538143],[139.6930636,35.653728],[139.6928829,35.6536505],[139.6926896,35.6535788],[139.6923636,35.6534754],[139.6921517,35.6534133],[139.6918627,35.6533263],[139.691369,35.6531855],[139.6911282,35.6531146],[139.6907321,35.6530419]],[[139.7169267,35.6701954],[139.7169986,35.6702266],[139.7170945,35.6702602],[139.717129,35.6702724],[139.7185537,35.6707763],[139.7190802,35.6710047],[139.7196788,35.6712644]],[[139.7370024,35.6784097],[139.7369307,35.678383],[139.7368576,35.6783476],[139.7367771,35.6783024],[139.7366879,35.6782408],[139.7362272,35.6778568],[139.7360563,35.6777353],[139.7359048,35.6776438]],[[139.7455271,35.6796985],[139.7454383,35.679694],[139.7453522,35.6796861],[139.7452645,35.6796736],[139.745154,35.6796535],[139.7449746,35.679618],[139.7433846,35.6793163],[139.7433038,35.679301],[139.7431466,35.6792705]],[[139.7043182,35.658063],[139.7037233,35.6580309],[139.7034335,35.6580001],[139.7032849,35.657981]],[[139.7059808,35.6602209],[139.7060716,35.6602904],[139.7067032,35.6607086],[139.7068293,35.6607908],[139.7074261,35.6611815],[139.7076826,35.6613265]],[[139.7037935,35.6582168],[139.703953,35.658283],[139.7041202,35.6583035],[139.7042121,35.6583322],[139.7042861,35.6583742],[139.7043525,35.6584272],[139.7044077,35.6584805],[139.7045374,35.6586271]],[[139.7060675,35.6601376],[139.7051875,35.6591947],[139.7046707,35.6586193]],[[139.6907321,35.6530419],[139.69053,35.65298],[139.6898168,35.6527437]],[[139.6941988,35.655014],[139.6944432,35.6553157],[139.6945626,35.6554421],[139.6947002,35.655555],[139.6948283,35.6556388],[139.6949649,35.6557158],[139.6952443,35.6558137],[139.6956357,35.6559049]],[[139.6973037,35.6563057],[139.6985428,35.6567076],[139.6993732,35.6569702],[139.6999443,35.6571368],[139.7000922,35.6571822],[139.7001674,35.6572052]],[[139.6898168,35.6527437],[139.6894239,35.6526042]],[[139.6893563,35.6528114],[139.689794,35.6529448]],[[139.689794,35.6529448],[139.6906692,35.6532002]],[[139.6894239,35.6526042],[139.6882512,35.6522309]],[[139.6854967,35.6513272],[139.685555,35.6513591],[139.685794,35.6514693],[139.6858069,35.6514756],[139.6860733,35.6516071],[139.6869249,35.6519892],[139.6870317,35.6520308]],[[139.6906692,35.6532002],[139.6910426,35.6533122]],[[139.6948171,35.6553824],[139.6947596,35.6553261],[139.6946714,35.6552204],[139.6945129,35.6550172],[139.6942758,35.6547192],[139.6941133,35.6545099],[139.6939258,35.6543044],[139.6937491,35.6541406],[139.693608,35.6540296]],[[139.7007524,35.6574024],[139.7008462,35.6574348]],[[139.6822465,35.6495845],[139.6835971,35.6502998],[139.6838588,35.6504443],[139.6839195,35.6504778],[139.6843493,35.6507123],[139.685181,35.651166],[139.6854202,35.6512914],[139.6854967,35.6513272]],[[139.7031477,35.6581389],[139.7037935,35.6582168]],[[139.6974,35.6560881],[139.6969477,35.6560013]],[[139.7009467,35.6572339],[139.7008549,35.6572038]],[[139.6956909,35.6556408],[139.6950893,35.6555009]],[[139.6937008,35.6545495],[139.6939964,35.654886],[139.6941501,35.6550892],[139.6942551,35.6552361],[139.6944011,35.6554129],[139.6945464,35.6555712]],[[139.6881399,35.6524224],[139.6888334,35.652655]],[[139.6882512,35.6522309],[139.6876548,35.6520326],[139.6873,35.6518998],[139.6871433,35.6518389],[139.6868073,35.6516942],[139.6862436,35.6514138],[139.6860726,35.6513276],[139.6860437,35.651314]],[[139.7160217,35.6690705],[139.7158841,35.6688975],[139.7150052,35.6677923],[139.7143382,35.6670577],[139.714238,35.6669474],[139.7136612,35.6662891],[139.7135036,35.666105],[139.7132245,35.6658017],[139.7130046,35.6655707],[139.7127735,35.6653071],[139.7127504,35.6652815],[139.7126235,35.6651409],[139.7126014,35.6651167]],[[139.6852115,35.6508807],[139.6850649,35.6507994],[139.6846504,35.6505697],[139.6844582,35.6504647],[139.6841002,35.6502779],[139.6840673,35.6502608],[139.6828194,35.6495995],[139.6824198,35.6493877],[139.6817493,35.6490479],[139.6816032,35.6489711]],[[139.6888334,35.652655],[139.6893563,35.6528114]],[[139.7125087,35.665253],[139.7126085,35.665364],[139.7131879,35.6660078],[139.7138458,35.6667389],[139.7140678,35.6669856],[139.7141002,35.6670257],[139.7141829,35.6671283],[139.7145147,35.6674944],[139.71471,35.6677044],[139.7151962,35.668277],[139.7157418,35.6689746],[139.7158782,35.6691491]],[[139.7158782,35.6691491],[139.715985,35.6692746],[139.7162825,35.6696263],[139.7164498,35.669824],[139.7165259,35.6699021],[139.7166081,35.6699742],[139.7167323,35.6700665],[139.7168308,35.6701368],[139.7169267,35.6701954]],[[139.7126014,35.6651167],[139.7124543,35.6649594],[139.7123335,35.6648295],[139.7121606,35.6646415],[139.7117782,35.6642255],[139.7115637,35.6639922],[139.7111984,35.6635948],[139.7109487,35.6633525],[139.7107283,35.6631393]],[[139.7197391,35.6711174],[139.7190819,35.6708456],[139.7186498,35.6706669],[139.7183584,35.6705601],[139.7177567,35.6703396],[139.7175814,35.6702777],[139.7171955,35.6701417],[139.717157,35.670128],[139.7170559,35.6700869],[139.7169766,35.6700465],[139.7168511,35.6699644],[139.7166697,35.669837],[139.7165978,35.6697657],[139.7165234,35.6696785],[139.7161233,35.6691925],[139.7160217,35.6690705]],[[139.7196788,35.6712644],[139.7197805,35.6713079],[139.7204892,35.6716122],[139.720845,35.6717433],[139.7210187,35.6718074],[139.7212009,35.6718733],[139.7214774,35.6719596],[139.7222636,35.6722324],[139.7227437,35.6723989],[139.7237588,35.6727465],[139.7239536,35.6728122],[139.7240649,35.6728502],[139.7242513,35.6729078],[139.7254626,35.6732823],[139.7255798,35.6733185],[139.7256348,35.6733342],[139.7275632,35.6739207],[139.727696,35.6739645],[139.7291271,35.6744869],[139.7292453,35.6745241],[139.7294003,35.6745595],[139.7302167,35.6747227],[139.7305172,35.6747904],[139.7308197,35.6748742],[139.7309434,35.6749165]],[[139.7124352,35.6651701],[139.7125087,35.665253]],[[139.7309434,35.6749165],[139.7310688,35.6749638],[139.7312668,35.6750484],[139.7314469,35.6751387],[139.7322221,35.6755923],[139.7324166,35.6757126]],[[139.7324166,35.6757126],[139.7326075,35.6758312],[139.7335632,35.6764035],[139.7349103,35.677192]],[[139.7324089,35.6755307],[139.7323071,35.675468],[139.7314914,35.6749833],[139.7313349,35.6749025],[139.7311183,35.6748027],[139.730987,35.6747585],[139.7308796,35.6747266],[139.7306651,35.6746738],[139.7298938,35.6745271],[139.7296842,35.6744867],[139.729503,35.6744459],[139.7293425,35.6744028],[139.729203,35.6743576],[139.7289798,35.6742771],[139.727724,35.6738216],[139.7269615,35.6735868],[139.7257843,35.6732237],[139.7256915,35.6731951],[139.7256381,35.6731779],[139.72431,35.6727833],[139.724119,35.6727267],[139.7240058,35.6726873]],[[139.7349103,35.677192],[139.7353763,35.6774208],[139.7358596,35.6776935]],[[139.7431267,35.6775445],[139.7430075,35.6775427],[139.7426219,35.6775376],[139.7425082,35.6775317],[139.7422046,35.6775496],[139.7420023,35.677594],[139.7417942,35.6776642],[139.7416629,35.6777252],[139.7415747,35.67777],[139.7414352,35.6778567],[139.7411507,35.6780551],[139.7405629,35.6784649],[139.7405133,35.6784999],[139.7401878,35.6787175]],[[139.743238,35.677547],[139.7432701,35.6774215],[139.7433762,35.6770613],[139.7433904,35.6770131],[139.7435438,35.6764922],[139.7435855,35.6763527],[139.7436989,35.6759407],[139.7437116,35.6758947],[139.7438996,35.675212],[139.7439396,35.6750667]],[[139.7431267,35.6775445],[139.743178,35.6776395]],[[139.7107283,35.6631393],[139.7105734,35.6629935],[139.7104764,35.6629083],[139.7103068,35.662798],[139.7085896,35.661747]],[[139.7106078,35.6632222],[139.7108216,35.6634428],[139.711248,35.6638854],[139.7114579,35.6641079],[139.71173,35.6644047],[139.7122801,35.6650021],[139.7123122,35.6650369],[139.7124057,35.6651381]],[[139.7359048,35.6776438],[139.7352015,35.6772478],[139.734775,35.6769637]],[[139.7382401,35.6786607],[139.7385522,35.678689]],[[139.7401878,35.6787175],[139.7400653,35.6786957],[139.7391897,35.67859],[139.7383961,35.678526]],[[139.7369473,35.6784857],[139.7370379,35.6785132],[139.7371486,35.6785349],[139.7372515,35.6785469],[139.737889,35.6785968],[139.7382401,35.6786607]],[[139.7430418,35.6794299],[139.7432554,35.6794666],[139.7449275,35.6797559],[139.7454498,35.6798438],[139.7455177,35.6798542],[139.7455908,35.6798624],[139.745668,35.6798662],[139.7457427,35.6798653]],[[139.7431466,35.6792705],[139.7428694,35.6792209],[139.7407378,35.6788221],[139.7406565,35.6788069],[139.7403465,35.6787485]],[[139.7449422,35.6706042],[139.7448745,35.6704547]],[[139.6945464,35.6555712],[139.6946412,35.6556593],[139.6947404,35.6557189],[139.6948609,35.6557721],[139.6950672,35.6558395]],[[139.7461962,35.6796304],[139.7461117,35.6796429],[139.7460444,35.6796501]],[[139.7457427,35.6798653],[139.7458237,35.6798579],[139.7459308,35.6798416]],[[139.7457427,35.6798653],[139.7457293,35.6798255],[139.7457128,35.6797912],[139.7456877,35.6797618],[139.7456572,35.6797387],[139.745622,35.6797214],[139.7455827,35.6797102],[139.7455271,35.6796985]],[[139.7001674,35.6572052],[139.700698,35.6573847],[139.7007524,35.6574024]],[[139.7017983,35.6575279],[139.7011431,35.6573015],[139.7009467,35.6572339]],[[139.7022006,35.6576735],[139.7017983,35.6575279]],[[139.701651,35.657703],[139.7021167,35.6578523]],[[139.7021167,35.6578523],[139.7028416,35.6580876],[139.7030339,35.658119]],[[139.743238,35.677547],[139.7431267,35.6775445]],[[139.743178,35.6776395],[139.743238,35.677547]],[[139.7439396,35.6750667],[139.7439713,35.6749551],[139.744018,35.674791],[139.7442119,35.674109],[139.7442708,35.6738997],[139.7442252,35.6737859]],[[139.7442252,35.6737859],[139.744183,35.6738417],[139.7441561,35.6738774],[139.7440974,35.6740883],[139.7439038,35.6747698],[139.7438574,35.6749333],[139.7438198,35.6750655]],[[139.6956172,35.6559672],[139.6969253,35.6562498],[139.6973037,35.6563057]],[[139.7460444,35.6796501],[139.7459853,35.679657],[139.7456681,35.6796943],[139.7455989,35.6796986],[139.7455271,35.6796985]],[[139.7032849,35.657981],[139.703173,35.657964]],[[139.7045374,35.6586271],[139.7052087,35.6593931],[139.7056137,35.6598325]],[[139.704407,35.6582641],[139.7043797,35.6581164],[139.7043696,35.6580885],[139.70435,35.658072],[139.7043182,35.658063]],[[139.7076066,35.6611358],[139.7070113,35.6607415],[139.7069284,35.6606876]],[[139.7076826,35.6613265],[139.7077123,35.6613459],[139.7079473,35.6614961],[139.7079823,35.6615184],[139.7081342,35.6616159]],[[139.7085896,35.661747],[139.7083183,35.6615799],[139.7082249,35.6615224]],[[139.6951214,35.6558551],[139.6953116,35.655899]],[[139.6906692,35.6532002],[139.6910279,35.653345]],[[139.6934335,35.6542745],[139.6937008,35.6545495]],[[139.6932132,35.6540937],[139.6933478,35.6541972]],[[139.6870317,35.6520308],[139.6881399,35.6524224]],[[139.7403465,35.6787485],[139.7401878,35.6787175]],[[139.7403465,35.6787485],[139.740598,35.678576],[139.7410869,35.6782307],[139.7412016,35.6781469],[139.7412295,35.6781299],[139.74142,35.6779973],[139.7415562,35.67791],[139.741644,35.6778589],[139.7418017,35.6777851],[139.7419674,35.6777185],[139.7422032,35.6776677],[139.7425695,35.6776415],[139.7426124,35.6776414],[139.7430036,35.6776401],[139.743178,35.6776395]],[[139.7065956,35.6604745],[139.7061661,35.6602013],[139.7060675,35.6601376]],[[139.7069284,35.6606876],[139.7068092,35.6606103],[139.7065956,35.6604745]],[[139.7046707,35.6586193],[139.7044575,35.658367],[139.7044275,35.6583183],[139.704407,35.6582641]],[[139.7082249,35.6615224],[139.7080764,35.6614261],[139.7076066,35.6611358]],[[139.7459308,35.6798416],[139.7460949,35.6798045],[139.7462438,35.6797592]],[[139.6933478,35.6541972],[139.6934335,35.6542745]],[[139.6930215,35.6539791],[139.6930776,35.65401],[139.6932132,35.6540937]],[[139.693608,35.6540296],[139.6935619,35.6539966],[139.6933863,35.6538876]],[[139.6933863,35.6538876],[139.6932443,35.6538143]],[[139.6953116,35.655899],[139.6956172,35.6559672]],[[139.6950672,35.6558395],[139.6951214,35.6558551]],[[139.6950893,35.6555009],[139.6949874,35.6554639],[139.6948171,35.6553824]],[[139.6974,35.6560881],[139.6967278,35.6558923]],[[139.703173,35.657964],[139.7029383,35.6579869],[139.7027729,35.6579459],[139.7025656,35.6578808],[139.7021706,35.6577398]],[[139.7008462,35.6574348],[139.701651,35.657703]],[[139.7008549,35.6572038],[139.7005238,35.6570949],[139.7003615,35.6570402],[139.7002703,35.6570065],[139.7001406,35.6569619],[139.7000141,35.6569174],[139.6998723,35.6568706],[139.6985582,35.65644],[139.6976002,35.6561489]],[[139.7017377,35.6575927],[139.7011126,35.6573759],[139.7009102,35.657308]],[[139.7021706,35.6577398],[139.7017377,35.6575927]],[[139.7009102,35.657308],[139.7008549,35.6572038]],[[139.6976002,35.6561489],[139.6974,35.6560881]],[[139.7030339,35.658119],[139.7031477,35.6581389]],[[139.710323,35.66299],[139.7103873,35.6630294],[139.7104459,35.6630798],[139.7106078,35.6632222]],[[139.7124057,35.6651381],[139.7124352,35.6651701]],[[139.7021475,35.6577955],[139.702544,35.6579308],[139.7027067,35.6579813],[139.7028915,35.6580299],[139.7030339,35.658119]],[[139.7007524,35.6574024],[139.7008828,35.6573638]],[[139.7017016,35.6576433],[139.7021475,35.6577955]],[[139.7008828,35.6573638],[139.7017016,35.6576433]],[[139.7240058,35.6726873],[139.7238132,35.6726213],[139.7233944,35.6724734],[139.7232598,35.6724269],[139.7224626,35.672148],[139.7216685,35.671877],[139.7212641,35.6717378],[139.721084,35.6716758],[139.7209257,35.6716181],[139.720714,35.6715439],[139.7205521,35.671478],[139.7198701,35.6711754],[139.7197391,35.6711174]],[[139.7056137,35.6598325],[139.7058147,35.6600481],[139.7059156,35.6601584]],[[139.740124,35.6788891],[139.7406078,35.6789862],[139.7426709,35.6793602],[139.742789,35.6793822],[139.7430418,35.6794299]],[[139.7059476,35.6601901],[139.7059808,35.6602209]],[[139.7059156,35.6601584],[139.7059476,35.6601901]],[[139.7446195,35.6725943],[139.744823,35.6721554],[139.744854,35.6720787],[139.7449349,35.6718666],[139.7449595,35.6717825],[139.7450086,35.6715578],[139.7450245,35.6714495],[139.745043,35.6712623],[139.7450495,35.6711002],[139.7450422,35.6710076],[139.7450369,35.6709396],[139.745031,35.670886],[139.7449831,35.6707296],[139.7449755,35.6707035],[139.7449422,35.6706042]],[[139.7445625,35.6727173],[139.7446195,35.6725943]]]}}]}
