{"type":"FeatureCollection","features":[{"type":"Feature","properties":{"id":"jp-national-246","name":"国道246号","aliases":["国道246","246号","246"],"type":"road","roadClass":"national","routeNumber":"246","jurisdiction":"JP","geometrySource":"n13","source":["MLIT National Land Numerical Information N13 2024"],"license":"N13 source terms apply","confidence":"medium","note":"Identity comes from the road registry and OSM reference; display geometry is selected from N13.","match":{"candidateCount":1001,"selectedFeatureCount":139,"osmCoveragePercent":99.12}},"geometry":{"type":"MultiLineString","coordinates":[[[139.688215556,35.652299944],[139.688236111,35.652307278]],[[139.688871059,35.652526499000004],[139.689311961,35.652661759]],[[139.689311961,35.652661759],[139.689620472,35.652758639],[139.689877198,35.65284139900001]],[[139.689891516,35.652845857],[139.689877198,35.65284139900001]],[[139.687099733,35.65193682899999],[139.6874395,35.6520615],[139.687704167,35.652149693999995],[139.687969861,35.652224833000005],[139.688215556,35.652299944]],[[139.688236111,35.652307278],[139.688871059,35.652526499000004]],[[139.691382003,35.65317062900001],[139.691058403,35.65306597],[139.691000996,35.653185047]],[[139.691531279,35.653491634],[139.690948043,35.653315367000005],[139.691000996,35.653185047]],[[139.683593762,35.650292907],[139.684369863,35.65069748199999],[139.685396058,35.651223881],[139.68548096,35.651270434]],[[139.687099733,35.65193682899999],[139.68714634,35.651797778],[139.6862343,35.65140684],[139.686038929,35.651306006]],[[139.686038929,35.651306006],[139.685958672,35.651264583999996]],[[139.685852828,35.6514738],[139.686681067,35.651915156],[139.687031646,35.65205988900001]],[[139.685066405,35.65080406999999],[139.68465424,35.650591345]],[[139.685836879,35.651201725],[139.685066405,35.65080406999999]],[[139.68548096,35.651270434],[139.685818308,35.65145540500001],[139.685852828,35.6514738]],[[139.685958672,35.651264583999996],[139.685836879,35.651201725]],[[139.68465424,35.650591345],[139.684446008,35.650479644]],[[139.687031646,35.65205988900001],[139.687099733,35.65193682899999]],[[139.69942817,35.656875498999995],[139.698503194,35.656562167]],[[139.699823216,35.65700093],[139.69942817,35.656875498999995]],[[139.698503194,35.656562167],[139.697822028,35.656346583],[139.697356307,35.65620946000001]],[[139.697356307,35.65620946000001],[139.697279889,35.656359123]],[[139.694757154,35.65533490999999],[139.694721051,35.655289245],[139.69431498,35.65472520299999],[139.694131643,35.654509277],[139.693976374,35.654342693],[139.693839452,35.654214841999995],[139.69357657,35.654000433],[139.69341718,35.653893184]],[[139.69341718,35.653893184],[139.693162455,35.653764126000006],[139.692934487,35.653660759000005],[139.692738936,35.653580214],[139.692539838,35.65351096],[139.692141034,35.65339727800001]],[[139.693220495,35.654123969],[139.693056642,35.654019615],[139.692884343,35.65393492100001],[139.692708129,35.65385821600001],[139.692520575,35.65378808999999],[139.69238832,35.65374432600001],[139.692079639,35.653654615],[139.691892494,35.653602404000004]],[[139.693973724,35.654903534],[139.693726319,35.654576092],[139.693536603,35.65438147700001]],[[139.694225336,35.65525581100001],[139.694174508,35.655188071],[139.693973724,35.654903534]],[[139.692141034,35.65339727800001],[139.6918697,35.653320722]],[[139.693536603,35.65438147700001],[139.693317996,35.65419269400002],[139.693220495,35.654123969]],[[139.697356307,35.65620946000001],[139.697423466,35.65606190100001]],[[139.697423466,35.65606190100001],[139.697032522,35.655953924],[139.696730787,35.655881746]],[[139.697279889,35.656359123],[139.696880965,35.65625817899999],[139.695721259,35.655975383],[139.695624398,35.655951623]],[[139.69482733,35.65542247700001],[139.694784465,35.655369454],[139.694757154,35.65533490999999]],[[139.696730787,35.655881746],[139.69557758400003,35.655605885]],[[139.695624398,35.655951623],[139.695168728,35.655848549]],[[139.695168728,35.655848549],[139.694877168,35.65576832899999],[139.694675106,35.65569724499999],[139.694556656,35.65561621],[139.694464176,35.65552276399999],[139.694301597,35.655340789],[139.694225336,35.65525581100001]],[[139.69557758400003,35.655605885],[139.695349283,35.65555127199998],[139.69482733,35.65542247700001]],[[139.70416609,35.658170935],[139.703850611,35.658146306],[139.703449111,35.658100583],[139.703095556,35.65805647199999]],[[139.701749194,35.657644917],[139.7013105,35.657496667]],[[139.7013105,35.657496667],[139.700923079,35.65735729199999]],[[139.707746673,35.66130584399999],[139.707447339,35.661118976999994]],[[139.705255111,35.659365722000004],[139.705143031,35.659249781]],[[139.710801513,35.66330897999999],[139.71065621,35.663168243]],[[139.711311389,35.663837277999995],[139.711135715,35.66364627200001]],[[139.712138937,35.664724557],[139.711797194,35.664354556]],[[139.713425944,35.666165583],[139.713254817,35.66597585000001]],[[139.71382925,35.66663025],[139.713620306,35.666389972]],[[139.71065621,35.663168243],[139.710540623,35.663065746],[139.710449944,35.66298691699999]],[[139.712270989,35.664872462999995],[139.712138937,35.664724557]],[[139.713254817,35.66597585000001],[139.712925861,35.66561275000001]],[[139.711797194,35.664354556],[139.711708064,35.66425808699999]],[[139.711502583,35.664036806],[139.711383361,35.663913278],[139.711311389,35.663837277999995]],[[139.710449944,35.66298691699999],[139.710218972,35.662834889],[139.710081472,35.66274961100001]],[[139.710081472,35.66274961100001],[139.709463389,35.66236627800001],[139.709079444,35.662132194]],[[139.709079444,35.662132194],[139.708729873,35.661924442]],[[139.713861147,35.666666666999994],[139.71382925,35.66663025]],[[139.682561851,35.649758476],[139.683029232,35.65],[139.68318146,35.650078666]],[[139.68318146,35.650078666],[139.683333333,35.650157148],[139.683593762,35.650292907]],[[139.682834625,35.649600482],[139.683333333,35.649888608],[139.683544592,35.64999999999999],[139.683870855,35.65017203200001],[139.684446008,35.650479644]],[[139.691000996,35.653185047],[139.6901055,35.652915528],[139.689891516,35.652845857]],[[139.691892494,35.653602404000004],[139.691666667,35.653533152],[139.691531279,35.653491634]],[[139.6918697,35.653320722],[139.691666667,35.653256318000004],[139.691382003,35.65317062900001]],[[139.704479361,35.658510639],[139.704309293,35.65833333300001],[139.704282284,35.658305176],[139.70416609,35.658170935]],[[139.700128488,35.657098884],[139.700026444,35.657066833],[139.7,35.65705838899999],[139.699823216,35.65700093]],[[139.700923079,35.65735729199999],[139.700510902,35.657218996],[139.700128488,35.657098884]],[[139.703095556,35.65805647199999],[139.702833861,35.65800583299998],[139.702480306,35.657891528],[139.702084056,35.657757861],[139.701749194,35.657644917]],[[139.705143031,35.659249781],[139.704926306,35.65901075],[139.704682167,35.65873713900001],[139.70459391700004,35.658644417000005],[139.704479361,35.658510639]],[[139.7060765,35.66020247200001],[139.706023917,35.66015230599999],[139.705922271,35.660055461000006],[139.705663361,35.65980877799999],[139.705255111,35.659365722000004]],[[139.706811,35.660696167],[139.706125358,35.660255164],[139.7060765,35.66020247200001]],[[139.708144642,35.66156896700001],[139.708102428,35.661539213999994],[139.707746673,35.66130584399999]],[[139.707447339,35.661118976999994],[139.706900236,35.660753395],[139.70684156,35.66071576600001],[139.706811,35.660696167]],[[139.711708064,35.66425808699999],[139.711607317,35.664147242],[139.711577306,35.664114221999995]],[[139.712529667,35.66516588900001],[139.712371917,35.66498500000001],[139.712346689,35.66495687],[139.712270989,35.664872462999995]],[[139.711577306,35.664114221999995],[139.711555184,35.664091303000006],[139.711502583,35.664036806]],[[139.711135715,35.66364627200001],[139.710889451,35.663397731],[139.710801513,35.66330897999999]],[[139.708729873,35.661924442],[139.708511131,35.661792905],[139.708346114,35.661691107],[139.708333333,35.661682972],[139.708250175,35.661630037],[139.708144642,35.66156896700001]],[[139.712925861,35.66561275000001],[139.712599812,35.665243969],[139.712529667,35.66516588900001]],[[139.713620306,35.666389972],[139.713564435,35.666325470000004],[139.713425944,35.666165583]],[[139.714927846,35.667849264],[139.714580566,35.667471124]],[[139.716335524,35.669600901],[139.71619137,35.669431375]],[[139.714108806,35.66694941699999],[139.713861147,35.666666666999994]],[[139.72068300600003,35.671618736],[139.720572316,35.671582419]],[[139.721646683,35.671944137],[139.721492003,35.671892426]],[[139.722428535,35.672215168],[139.722307255,35.672172121]],[[139.723241329,35.67249049],[139.722428535,35.672215168]],[[139.720572316,35.671582419],[139.720017211,35.671338924]],[[139.722307255,35.672172121],[139.721646683,35.671944137]],[[139.718324715,35.67063381100001],[139.717726756,35.67043420099999]],[[139.727682589,35.673888909000006],[139.726923991,35.673652780000005]],[[139.729511278,35.674532778],[139.729274278,35.67446441700001]],[[139.729274278,35.67446441700001],[139.728923799,35.674338705000004]],[[139.733935556,35.676555667],[139.733610611,35.676361778]],[[139.734918194,35.677125472],[139.733935556,35.676555667]],[[139.735189952,35.67728110899999],[139.734918194,35.677125472]],[[139.735318452,35.677357541],[139.735189952,35.67728110899999]],[[139.740134058,35.678818455999995],[139.739606743,35.67874025199999],[139.73917417,35.678684684],[139.73857013,35.67862679500001]],[[139.736402114,35.678196568000004],[139.736273455,35.678094822],[139.736076384,35.677939137],[139.735722243,35.677726438],[139.735230879,35.677455194000004],[139.735318452,35.677357541]],[[139.736631296,35.67807816700001],[139.736240041,35.677777518]],[[139.737701977,35.678562446],[139.737167549,35.678506922],[139.73704374777478,35.678478801839105]],[[139.73704374777478,35.678478801839105],[139.737007414,35.678470549],[139.736877235,35.678414493],[139.736750404,35.67833951000001],[139.736706286,35.678305574999996],[139.736571149,35.67819506200001],[139.736488147,35.67812303099999],[139.736365336,35.678025594999994],[139.73621204,35.677888659],[139.73602758,35.67776364800001]],[[139.735837203,35.67752034600001],[139.735406024,35.677265843],[139.735318452,35.677357541]],[[139.736240041,35.677777518],[139.736020444,35.677628176999995],[139.735842338,35.677523095],[139.735837203,35.67752034600001]],[[139.735401309,35.67740144],[139.735318452,35.677357541]],[[139.73602758,35.67776364800001],[139.735724049,35.67758446700002],[139.735401309,35.67740144]],[[139.740169459,35.678824342999995],[139.740134058,35.678818455999995]],[[139.745041552,35.670980426],[139.745018314,35.670844493000004],[139.744986389,35.670731778],[139.744894489,35.670518914000006]],[[139.7450415,35.67116383300001],[139.745048621,35.671077253],[139.745041552,35.670980426]],[[139.744870504,35.671985894],[139.744956603,35.671727552],[139.744984526,35.671551660000006]],[[139.746068032,35.67976223400001],[139.745793583,35.67986472199999]],[[139.714580566,35.667471124],[139.714390194,35.66726514900001],[139.714242056,35.667101472]],[[139.715929463,35.66911306600001],[139.715829986,35.66897890100001],[139.715610184,35.668683154],[139.715182664,35.668136016],[139.714927846,35.667849264]],[[139.71619137,35.669431375],[139.715992418,35.66919123600001],[139.715929463,35.66911306600001]],[[139.714242056,35.667101472],[139.714134934,35.666979233],[139.714108806,35.66694941699999]],[[139.716683688,35.669957745999994],[139.716666667,35.66994428499999],[139.716574556,35.66986674299999],[139.716524474,35.669814602],[139.716335524,35.669600901]],[[139.716953696,35.670149318],[139.716871152,35.670096867],[139.716770126,35.67002182700001],[139.716683688,35.669957745999994]],[[139.717726756,35.67043420099999],[139.717177333,35.670244096],[139.717045083,35.670194361],[139.716953696,35.670149318]],[[139.719691902,35.671192194],[139.719621238,35.671160128000004],[139.718927306,35.670856694],[139.718623503,35.670738399],[139.718324715,35.67063381100001]],[[139.721046681,35.67174292100001],[139.72094879200003,35.67170810100001],[139.72068300600003,35.671618736]],[[139.721492003,35.671892426],[139.72126826,35.67181757200001],[139.721046681,35.67174292100001]],[[139.724042031,35.67277190799999],[139.723879978,35.672713199],[139.723685568,35.67264104000001],[139.723241329,35.67249049]],[[139.720017211,35.671338924],[139.71975528,35.671220731],[139.719691902,35.671192194]],[[139.728923799,35.674338705000004],[139.728370726,35.67414505799999],[139.728253007,35.67410120699999]],[[139.725626711,35.67326548100001],[139.725503117,35.673230403],[139.725,35.673078],[139.724420389,35.67289499999999],[139.724179121,35.672818437000004],[139.724042031,35.67277190799999]],[[139.726923991,35.673652780000005],[139.72643592600002,35.673509161],[139.725707317,35.673287405],[139.725626711,35.67326548100001]],[[139.731026542,35.67489522900001],[139.73084466,35.67483776],[139.729844889,35.674611944000006],[139.729511278,35.674532778]],[[139.728253007,35.67410120699999],[139.728226136,35.674091811000004],[139.728068752,35.674030211],[139.727682589,35.673888909000006]],[[139.732394034,35.67564206499999],[139.732260824,35.675551041000006],[139.731661278,35.6752075],[139.731372111,35.6750375],[139.731277083,35.675000000000004],[139.731026542,35.67489522900001]],[[139.732721057,35.67583129100001],[139.732596573,35.675756724],[139.732394034,35.67564206499999]],[[139.733610611,35.676361778],[139.733333333,35.676196417],[139.732721057,35.67583129100001]],[[139.737701977,35.678562446],[139.737086766,35.678499458999994],[139.73704374777478,35.678478801839105]],[[139.73704374777478,35.678478801839105],[139.736895319,35.67840752699999],[139.736781997,35.678339586],[139.736668133,35.67825984],[139.736637662,35.678234979],[139.736539402,35.678153157]],[[139.73857013,35.67862679500001],[139.738046885,35.67858831000001],[139.73788969,35.67857491],[139.737701977,35.678562446]],[[139.74419866800002,35.673840947],[139.744319417,35.67335333300001],[139.744345941,35.673269068],[139.744419236,35.673072441],[139.744575831,35.67271539200001],[139.74466475000003,35.672521833000005],[139.744870504,35.671985894]],[[139.744984526,35.671551660000006],[139.745005862,35.671417254],[139.7450415,35.67116383300001]],[[139.74308898,35.679379731000004],[139.742293677,35.67923511400001],[139.741820481,35.67915686999999],[139.741666667,35.679126599],[139.74155788,35.679105189000005],[139.740557736,35.678899611999995],[139.740169459,35.678824342999995]],[[139.745793583,35.67986472199999],[139.745485649,35.679806043],[139.744922069,35.67969855199999]],[[139.744922069,35.67969855199999],[139.744853973,35.679685676],[139.744692341,35.679655116],[139.74308898,35.679379731000004]],[[139.740169459,35.678824342999995],[139.740513188,35.678576337],[139.740540397,35.678555208000006],[139.74057567,35.678528243],[139.740628944,35.678492833],[139.741111502,35.678141792],[139.741197833,35.67807899],[139.741359417,35.677961444],[139.741603714,35.677829676],[139.741641944,35.67781142500001],[139.741666667,35.67780114000001],[139.741804465,35.67774380899999],[139.741881218,35.677712471]],[[139.74419866800002,35.673840947],[139.74412827900002,35.674142456],[139.743943806,35.674803111],[139.743891694,35.675000000000004],[139.743890844,35.675002585999984],[139.743866328,35.67507717000001]],[[139.743866328,35.67507717000001],[139.743827609,35.675216473],[139.74381775,35.675262472],[139.743643491,35.675868636],[139.743617714,35.67596136],[139.743511906,35.676340915000004],[139.743479246,35.67645453299999],[139.743463486,35.67650853800001],[139.74332649,35.676987608000005],[139.743301198,35.677081062000006],[139.743193069,35.677453338],[139.74316257100003,35.677606409]],[[139.741881218,35.677712471],[139.742042471,35.677672045],[139.742258143,35.677632943000006],[139.742316594,35.677624785000006],[139.742375814,35.677617255],[139.742462722,35.677609096999994],[139.742570128,35.677606304],[139.742657722,35.677605781000004],[139.742746611,35.677605250000006],[139.74304364900001,35.677605066],[139.74316257100003,35.677606409]]]}}]}
