{"type":"FeatureCollection","features":[{"type":"Feature","properties":{"id":"tokyo-prefectural-318","name":"東京都道318号環状七号線","aliases":["都道318号","東京都道318号","環状七号線","環七通り","環七","環7"],"type":"road","roadClass":"prefectural","routeNumber":"318","jurisdiction":"Tokyo","geometrySource":"osm","source":["OpenStreetMap"],"license":"ODbL 1.0","confidence":"high","note":"OSM reference geometry used to identify and validate the canonical road.","provenance":{"provider":"cache","path":"data/cache/osm/references/tokyo-prefectural-318-osm.geojson"}},"geometry":{"type":"MultiLineString","coordinates":[[[139.6814986,35.6189415],[139.6816086,35.6187452],[139.6817275,35.6185826],[139.6817944,35.6184718],[139.6822455,35.6176548]],[[139.7547173,35.5843281],[139.7544108,35.5842649],[139.7541027,35.5841903],[139.753808,35.5841106],[139.753517,35.5840211],[139.7531938,35.583913],[139.7528826,35.583806],[139.7522503,35.5835837],[139.7521166,35.5835157]],[[139.7547017,35.5844035],[139.7550496,35.5844732],[139.7554005,35.5845377]],[[139.7422675,35.5801553],[139.7407894,35.5796484],[139.7403355,35.5794927],[139.74016,35.5794296],[139.7400163,35.5793673],[139.739879,35.5793063],[139.7397278,35.5792333],[139.7395483,35.5791363]],[[139.6607249,35.6425111],[139.6607135,35.6426343],[139.6606989,35.6430059],[139.6606898,35.6432262],[139.660671,35.6437431],[139.6606522,35.644079],[139.6606454,35.644226],[139.6606361,35.6445066],[139.660679,35.6447442]],[[139.6607762,35.6447406],[139.6608462,35.6445127],[139.6608582,35.6443394],[139.6608845,35.6438955],[139.6608956,35.6436573],[139.6609368,35.6427731],[139.6609396,35.6427141],[139.6609438,35.6425977]],[[139.6609438,35.6425977],[139.6609573,35.6424849],[139.6609709,35.6423827],[139.6609969,35.6422538],[139.6610275,35.6421153],[139.6610843,35.6418628],[139.6611618,35.6414882],[139.6612434,35.6410671],[139.6613484,35.6405486],[139.661456,35.6400773],[139.6614624,35.6400492],[139.6615517,35.6398101]],[[139.6608104,35.6439169],[139.6608537,35.6426924],[139.6608817,35.6424239],[139.6609273,35.6421884],[139.6611638,35.6411441]],[[139.6607372,35.6438945],[139.660679,35.6447442]],[[139.6748961,35.6283647],[139.6739007,35.6288917]],[[139.6760745,35.6277442],[139.6750916,35.6282973],[139.6748961,35.6283647]],[[139.6778866,35.6258762],[139.6772633,35.6268051],[139.677104,35.6270168],[139.6769032,35.627213]],[[139.6769032,35.627213],[139.6766842,35.6273886],[139.6765158,35.6274903],[139.6762088,35.6276665],[139.6760745,35.6277442]],[[139.6749559,35.6284603],[139.6751262,35.6283476],[139.6761449,35.6277796]],[[139.6779642,35.6259076],[139.678276,35.6254271],[139.6783551,35.6252954],[139.6785128,35.6250103],[139.6786116,35.6248236],[139.6787522,35.6245643],[139.6791055,35.6238999],[139.679184,35.6237553],[139.6792389,35.6236228],[139.6794478,35.6231411],[139.6795396,35.6229496],[139.6797397,35.6224401],[139.6798182,35.6222522]],[[139.6761449,35.6277796],[139.6762485,35.6277198],[139.6765775,35.6275296],[139.6767343,35.627428],[139.6769629,35.6272544]],[[139.6769629,35.6272544],[139.6771648,35.6270558],[139.6779293,35.6259589],[139.6779642,35.6259076]],[[139.6798182,35.6222522],[139.6800008,35.6217998]],[[139.680354,35.6208971],[139.6804917,35.6205575],[139.6805761,35.620362],[139.6806288,35.6202578],[139.6808753,35.6198666]],[[139.6808753,35.6198666],[139.6814986,35.6189415]],[[139.6814433,35.6188541],[139.6810394,35.6194718],[139.6808065,35.6198337]],[[139.680289,35.620877],[139.6801071,35.6213237]],[[139.6808065,35.6198337],[139.680567,35.6202236],[139.6805104,35.6203358],[139.6804375,35.6205025],[139.680289,35.620877]],[[139.6618617,35.6390565],[139.6624735,35.6379099]],[[139.6613186,35.6403344],[139.6613977,35.640009],[139.6614867,35.6397404],[139.6615776,35.6395496],[139.6618617,35.6390565]],[[139.6617935,35.6390307],[139.6615233,35.6395052],[139.6614368,35.6397095],[139.6613414,35.6399513],[139.6612616,35.6403222]],[[139.6612616,35.6403222],[139.6610864,35.6411286]],[[139.6644989,35.6356361],[139.6648248,35.6353647]],[[139.6656221,35.6347312],[139.666348,35.6341962]],[[139.6565943,35.6852366],[139.6566526,35.6851463],[139.6566859,35.6850789],[139.6567146,35.6849828],[139.6567383,35.6848961],[139.6567554,35.6848101],[139.6567703,35.6847119],[139.6568106,35.6843566],[139.6568842,35.6836296],[139.6568975,35.6835349],[139.6569018,35.6834808]],[[139.6801071,35.6213237],[139.6799341,35.6217713]],[[139.6799341,35.6217713],[139.6797358,35.6222302]],[[139.6800008,35.6217998],[139.680174,35.6213557]],[[139.680174,35.6213557],[139.680354,35.6208971]],[[139.6644514,35.6355955],[139.6637607,35.6361189],[139.6633123,35.636483]],[[139.6633123,35.636483],[139.6630732,35.6367297],[139.6628498,35.636999]],[[139.6623365,35.6379664],[139.6622087,35.6380929],[139.6620659,35.6383534],[139.6619595,35.6385691],[139.6617152,35.6390185],[139.6616493,35.6391314],[139.661456,35.6394745],[139.661405,35.6395714],[139.6614016,35.6395793],[139.6613591,35.6396792]],[[139.6611638,35.6411441],[139.6613186,35.6403344]],[[139.6610864,35.6411286],[139.6608433,35.642198],[139.6608103,35.6423909],[139.6607799,35.6426721],[139.6607372,35.6438945]],[[139.6604956,35.6482945],[139.660431,35.6484894],[139.66042,35.6487045],[139.6603942,35.6491107],[139.6603701,35.6494282],[139.6603335,35.649949],[139.6603302,35.6499953],[139.6603268,35.6500519]],[[139.6602839,35.6507197],[139.6602602,35.6510719],[139.6602576,35.6513414],[139.6602876,35.6514545]],[[139.660447,35.6492653],[139.660338,35.6509487]],[[139.6602876,35.6514545],[139.66028,35.6515379],[139.6601922,35.652791],[139.6601735,35.6529965],[139.6601547,35.6532493],[139.6601052,35.6538151],[139.6600484,35.654361],[139.6600434,35.6544119],[139.6600188,35.6546427]],[[139.6604204,35.6509536],[139.6605116,35.6493827]],[[139.6605116,35.6493827],[139.6605748,35.6483937]],[[139.6599008,35.6568818],[139.659961,35.659115]],[[139.6599705,35.6597855],[139.6599769,35.6598586],[139.6599979,35.6600977],[139.6600295,35.6603821],[139.6600318,35.6604029],[139.6600527,35.6605904],[139.6601113,35.661117],[139.6601264,35.6612798]],[[139.6600669,35.6590748],[139.660015,35.6569828],[139.6600133,35.6568161]],[[139.6600133,35.6568161],[139.6600109,35.6559461],[139.6600204,35.6557675],[139.6600346,35.6556309],[139.660071,35.6551728],[139.6600824,35.6550601],[139.6601149,35.6547625],[139.6601368,35.6545857]],[[139.6601525,35.6615482],[139.6601867,35.6618991],[139.6602394,35.6623733]],[[139.6602805,35.6616376],[139.6602467,35.6613466],[139.6602041,35.6609268],[139.6601693,35.6605994],[139.6601214,35.6601624],[139.6600873,35.6598509],[139.6600808,35.6597911]],[[139.6606308,35.6726242],[139.6607003,35.6724828]],[[139.654899,35.7038404],[139.6548924,35.7030348],[139.6548857,35.7027596],[139.6548764,35.7025397],[139.6548731,35.7024602],[139.6548713,35.7023278],[139.6548673,35.7020349],[139.6548557,35.7017374],[139.654849,35.7013477],[139.6548497,35.7012581],[139.654851,35.7010652],[139.6548447,35.7008564],[139.6548358,35.7007137],[139.6548247,35.7006211]],[[139.6588411,35.7316158],[139.6589205,35.7316835],[139.6592635,35.7319858],[139.6593459,35.7320584],[139.6601159,35.7327439],[139.6607679,35.7333272]],[[139.6551681,35.7282778],[139.6550074,35.7281278],[139.6549586,35.7280858],[139.6545751,35.7277104],[139.6544245,35.7275231],[139.654309,35.7273549],[139.6542409,35.7272419],[139.6541939,35.7271497],[139.6541584,35.7270802],[139.654107,35.7269642],[139.6540266,35.7267704],[139.6540001,35.7266258],[139.6539676,35.7263744],[139.6539458,35.7261914],[139.6539097,35.7255856],[139.6539058,35.7255243]],[[139.7269093,35.7674825],[139.7274862,35.7676453],[139.7275672,35.7676681]],[[139.657163,35.6803184],[139.6571721,35.6802332]],[[139.6571721,35.6802332],[139.6571775,35.6801795],[139.6572349,35.6795845],[139.6572535,35.679472],[139.6572828,35.6793425],[139.6573243,35.6791939],[139.6573902,35.6790394],[139.6574222,35.678977],[139.6574719,35.6788821],[139.6576618,35.6785208],[139.6579617,35.6779392],[139.6580094,35.677848],[139.6582469,35.6773719],[139.658632,35.6766126],[139.6587016,35.6764736],[139.6588047,35.6762671],[139.6589997,35.6758751],[139.6590253,35.6758237],[139.6590524,35.6757692]],[[139.6613548,35.6712065],[139.6614682,35.670983],[139.6615128,35.6708868],[139.6615868,35.6706893],[139.6616157,35.6705355],[139.6616276,35.6703893],[139.6616404,35.6702209],[139.661639,35.6700658],[139.6616145,35.6698043],[139.661562,35.6695157],[139.6615083,35.6692203],[139.6614865,35.6690989]],[[139.6606007,35.6724577],[139.6605284,35.6725964]],[[139.6561718,35.6863436],[139.6562146,35.6862319]],[[139.6562146,35.6862319],[139.6562342,35.686181],[139.6565375,35.6853939],[139.6565634,35.6853209],[139.6565943,35.6852366]],[[139.7488294,35.5825478],[139.7490064,35.5826132],[139.749026,35.5826195],[139.7498326,35.5828741],[139.750063,35.5829492]],[[139.7456413,35.5813225],[139.7448353,35.5810423]],[[139.7446176,35.5809666],[139.7441521,35.5808053]],[[139.7445707,35.581058],[139.7453022,35.5813118]],[[139.7441044,35.5808981],[139.7445707,35.581058]],[[139.7352884,35.5776532],[139.7354232,35.5776316],[139.7355901,35.5776064],[139.735746,35.5775998],[139.7357894,35.5775998],[139.7358678,35.5775997],[139.7359917,35.5776071],[139.736073,35.5776157],[139.7362058,35.5776341],[139.7363358,35.577652],[139.7365518,35.5776983],[139.73686,35.5777832],[139.7370746,35.5778664],[139.7372978,35.5779628],[139.7373273,35.5779801],[139.7375221,35.5780942],[139.7375806,35.5781292],[139.7378703,35.5783017],[139.7379247,35.5783351],[139.7379582,35.5783536],[139.7383015,35.5785432],[139.7387279,35.5787786],[139.7388064,35.5788251],[139.7389179,35.5788862],[139.7392552,35.579082],[139.7395005,35.5792312]],[[139.7324906,35.7690559],[139.7330939,35.7692133],[139.7336031,35.7693592],[139.7339702,35.7694623],[139.7341174,35.7695088],[139.7342971,35.7695845],[139.7344466,35.7696594],[139.7346143,35.7697631],[139.7354463,35.7703155],[139.7356232,35.7704374]],[[139.737921,35.7719957],[139.7380848,35.7721124],[139.7384144,35.7723472],[139.7386751,35.7725256],[139.7387501,35.7725772],[139.739441,35.7730528],[139.7404552,35.7737437],[139.7405759,35.7738264]],[[139.7343768,35.7694523],[139.734267,35.7694072]],[[139.731764,35.7688501],[139.7319745,35.768969],[139.7326294,35.7691577],[139.7327879,35.7692039],[139.7331873,35.7693178],[139.7332785,35.7693424],[139.7333752,35.7693676],[139.733499,35.7693999],[139.7335793,35.769423],[139.7337464,35.769471],[139.7340551,35.7695596],[139.734189,35.7696068]],[[139.750063,35.5829492],[139.7520511,35.5836534]],[[139.7495738,35.5826688],[139.7491194,35.5825135],[139.7490691,35.5824942],[139.7488798,35.5824252]],[[139.7525082,35.583845],[139.7533528,35.5841541],[139.753677,35.5842892]],[[139.7520511,35.5836534],[139.752596,35.5837998],[139.753159,35.5839883],[139.7534767,35.5840914],[139.7537756,35.5841782],[139.7540623,35.5842574],[139.7543813,35.5843364],[139.7547017,35.5844035]],[[139.8772863,35.6745436],[139.877408,35.674802],[139.8776205,35.6751975],[139.8777559,35.6754473],[139.877815,35.6755578],[139.8782634,35.6763836],[139.8784511,35.676724],[139.8787638,35.6773079],[139.8788474,35.6774526],[139.8791085,35.6779923],[139.8795077,35.6788935],[139.8797835,35.6795047],[139.8799989,35.6799913],[139.8802889,35.6806451],[139.8806795,35.6815909],[139.8808954,35.6820824],[139.8811006,35.6825495],[139.8811448,35.6826507],[139.8812714,35.6829755],[139.8813149,35.683088],[139.8813442,35.6831719]],[[139.8741592,35.6690844],[139.8744986,35.6696731]],[[139.8731748,35.6663649],[139.873208,35.6670295],[139.8732331,35.6674001],[139.8732489,35.66751],[139.8732626,35.6675766],[139.8732872,35.6676664]],[[139.8696836,35.6456532],[139.8697417,35.6457071],[139.8705549,35.6464658],[139.8707575,35.6466625],[139.870988,35.6469061],[139.8711303,35.6470658],[139.8712905,35.6472622],[139.8713981,35.647409]],[[139.8742453,35.6690553],[139.8737761,35.6682773],[139.8736309,35.6680444],[139.873563,35.6679188],[139.8735081,35.6678022],[139.8734625,35.6676798],[139.873426,35.667555],[139.8734004,35.6673861],[139.8733817,35.6671725],[139.8733118,35.6659232]],[[139.7379469,35.7719263],[139.7356781,35.7703884]],[[139.7467951,35.7781285],[139.7468968,35.7781987],[139.7470245,35.7782892],[139.7471845,35.778391],[139.7474037,35.7785202],[139.7475479,35.7785903],[139.747721,35.7786628],[139.7478267,35.7786984],[139.7480103,35.7787515],[139.7481662,35.7787881],[139.7483097,35.7788047],[139.7486049,35.778814],[139.7487258,35.7788009],[139.749122,35.7787196]],[[139.8793403,35.7109433],[139.879064,35.7121669]],[[139.6606066,35.6461461],[139.6606051,35.6461674],[139.6605864,35.6465511],[139.6605715,35.6468791],[139.6605611,35.6470882],[139.660525,35.6478571],[139.6605054,35.6482229],[139.6604956,35.6482945]],[[139.6623365,35.6379664],[139.6622862,35.6380914],[139.6619664,35.6386975],[139.6617935,35.6390307]],[[139.6662917,35.6341436],[139.6655673,35.6346899]],[[139.6628498,35.636999],[139.662839,35.6370208],[139.6627022,35.6372883],[139.6623899,35.6378661],[139.6623365,35.6379664]],[[139.8827516,35.6906831],[139.8827361,35.6908225],[139.8826916,35.6912152],[139.8826368,35.6917465],[139.8826021,35.6920666],[139.8825856,35.6922787],[139.882578,35.692376],[139.8825464,35.692816],[139.8824983,35.6932564],[139.8824851,35.6933636],[139.8824026,35.6941953],[139.8822633,35.695408],[139.8821754,35.6960017],[139.8820981,35.6966106],[139.8820164,35.6972496],[139.8820041,35.6973459],[139.8819759,35.6975406],[139.8819658,35.6976105],[139.8819529,35.6976991],[139.8818697,35.6982801],[139.8818479,35.6984158],[139.8817926,35.698874],[139.8817172,35.6996495]],[[139.8807447,35.7051973],[139.8806411,35.7055839],[139.8804579,35.7062733],[139.8804238,35.7064018],[139.8804018,35.7064873],[139.8801711,35.7073821],[139.8801405,35.7075119],[139.8800141,35.7080199],[139.8799966,35.7080938],[139.8798498,35.7087328],[139.8797701,35.7090647],[139.8796498,35.7096317],[139.8796254,35.7097464],[139.8796074,35.7098257],[139.8795235,35.7101958],[139.8794517,35.7104867],[139.8793403,35.7109433]],[[139.8817172,35.6996495],[139.8816779,35.699839],[139.8816558,35.6999659],[139.881592,35.7005305],[139.8815088,35.7012901],[139.881485,35.7015031]],[[139.881761,35.7005679],[139.8818828,35.6997759]],[[139.8830213,35.6895541],[139.8830712,35.6890673],[139.8830831,35.688927],[139.8830842,35.6887943],[139.8830776,35.6886621],[139.8830628,35.6885317],[139.8830347,35.6883839],[139.882998,35.688247],[139.882188,35.6854967]],[[139.8815398,35.6831026],[139.881492,35.6829784],[139.8814509,35.6828739],[139.8811233,35.6821152],[139.8808989,35.681638],[139.8806919,35.6812092],[139.8804472,35.6807159],[139.8803103,35.680398],[139.8801673,35.680072],[139.879917,35.6794937],[139.8794834,35.6785356],[139.8792226,35.6779593],[139.8790022,35.6774881],[139.8789138,35.6773058],[139.878425,35.6763424],[139.878237,35.6759874],[139.8781258,35.6757536],[139.8779034,35.6753399],[139.8775813,35.6747436],[139.8774918,35.6745868]],[[139.881781,35.6845744],[139.8819674,35.6850747],[139.882098,35.6855053]],[[139.879064,35.7121669],[139.8779996,35.7166943],[139.8775599,35.7185344],[139.877486,35.7187968],[139.8774214,35.7189642],[139.8773369,35.7191532],[139.8772471,35.7193115],[139.8771653,35.7194202],[139.8770687,35.71955],[139.8769787,35.7196606],[139.8767605,35.7198993]],[[139.882098,35.6855053],[139.8829125,35.6882582],[139.8829487,35.6883961],[139.882979,35.6885383],[139.8829933,35.6886718],[139.8829987,35.6887923],[139.882997,35.6889256],[139.8829847,35.6890677],[139.8829291,35.68955]],[[139.6539348,35.7115523],[139.6539305,35.7115829],[139.6538906,35.7119549],[139.6537648,35.7130329],[139.653731,35.7134081],[139.6537154,35.7135659],[139.6537027,35.7142182],[139.6537125,35.7145692],[139.6537236,35.7157747],[139.6537176,35.7159796],[139.6537101,35.7162388],[139.6536983,35.7166434],[139.6536993,35.7167489],[139.653696,35.7171102]],[[139.6543168,35.7096954],[139.6543269,35.7095988],[139.6543298,35.7095745],[139.654385,35.7091016],[139.6544442,35.7085918],[139.654476,35.7082062],[139.6544875,35.7080914],[139.6544772,35.7078285]],[[139.6543746,35.7076747],[139.6543079,35.707834],[139.654302,35.707848],[139.6542528,35.7082004],[139.6541974,35.7086214],[139.6541668,35.7088597],[139.6541368,35.7091595],[139.6540866,35.7095563],[139.6540732,35.7096883]],[[139.8770237,35.6737625],[139.8767132,35.6732191]],[[139.8767132,35.6732191],[139.8764208,35.6727139],[139.8760488,35.6720853],[139.8759763,35.6719634],[139.8757551,35.671587],[139.8757089,35.6715084],[139.875381,35.6709548],[139.8750768,35.6704344],[139.8748158,35.6699932],[139.8747677,35.6699164],[139.8747148,35.6698292],[139.8745953,35.6696207]],[[139.8765895,35.6732363],[139.8769119,35.6737961]],[[139.8516727,35.7629892],[139.8516626,35.7630135],[139.8516267,35.7631001],[139.8515947,35.7631786],[139.8515784,35.7632166],[139.8515712,35.7632334],[139.8512773,35.7638653],[139.8508933,35.7647499],[139.8507416,35.7650929],[139.8506992,35.7651869],[139.8506415,35.7652978],[139.850293,35.7660201],[139.8501309,35.766356],[139.850099,35.766423],[139.8500727,35.7664754],[139.8500267,35.7665668]],[[139.855114,35.7555804],[139.8547165,35.756755],[139.854579,35.7571565],[139.8544435,35.7574894],[139.8543024,35.7577944],[139.8536545,35.7590533]],[[139.8213513,35.7780804],[139.8225115,35.7780116],[139.8229511,35.7779861],[139.8230337,35.7779813],[139.8233883,35.7779583],[139.8241327,35.7779107],[139.8241828,35.7779077]],[[139.8241828,35.7779077],[139.8246541,35.7778738]],[[139.8157053,35.7785472],[139.8155553,35.778552],[139.8142059,35.7785676],[139.8141436,35.7785699],[139.8140158,35.778573],[139.8125488,35.7785762],[139.811251,35.7785879],[139.8111212,35.7785894]],[[139.8246054,35.7777775],[139.8241548,35.7778124]],[[139.8389995,35.7768395],[139.8391278,35.7768268],[139.8403476,35.7767],[139.8408022,35.7766494]],[[139.8413607,35.7765861],[139.8416215,35.7765467],[139.8418792,35.7764996],[139.8422211,35.7764193],[139.8425129,35.7763386],[139.8426855,35.7762774],[139.8428535,35.7762111],[139.8431374,35.7760928],[139.8433118,35.7760072],[139.8435153,35.7759002],[139.8437516,35.7757675],[139.8439113,35.7756653],[139.8440685,35.7755591],[139.8443335,35.7753597],[139.8444942,35.7752242],[139.8446274,35.7751037],[139.8448416,35.7748914],[139.8449922,35.7747254],[139.8451183,35.7745718],[139.8452519,35.7744032]],[[139.8456153,35.7739304],[139.8458027,35.7736634],[139.8471115,35.7719093],[139.8477343,35.7710889],[139.8480903,35.7706121],[139.848213,35.7704504],[139.8483073,35.7703262]],[[139.8338129,35.777298],[139.8337323,35.7773032],[139.8329179,35.7773449],[139.8323674,35.777374],[139.8321014,35.7773828],[139.8319706,35.7773903]],[[139.6544367,35.6961105],[139.6544142,35.6959039],[139.6543821,35.6955323]],[[139.6547629,35.6998992],[139.654719,35.698282],[139.6547134,35.6979952],[139.6547065,35.6978371],[139.6546955,35.6977011],[139.6546765,35.6975323],[139.6546439,35.6973405]],[[139.6541347,35.7104544],[139.6543781,35.7084023]],[[139.6544772,35.7078285],[139.6545146,35.7076083],[139.6545817,35.7071141],[139.6546695,35.7063346]],[[139.654319,35.7083966],[139.6541855,35.7094487],[139.6540623,35.7104522]],[[139.6893179,35.755989],[139.6898071,35.7563114],[139.6899616,35.756411],[139.6902955,35.7566264],[139.6904057,35.7566947]],[[139.6874051,35.7547063],[139.6877783,35.7549729],[139.6881942,35.7552673],[139.6886614,35.7555685],[139.6893179,35.755989]],[[139.6874236,35.7546368],[139.6869268,35.7542666]],[[139.6893582,35.7559369],[139.6887071,35.7555209],[139.6882439,35.7552249],[139.6878166,35.7549233],[139.6874236,35.7546368]],[[139.6539845,35.7118526],[139.6540809,35.7116322],[139.6541079,35.7113974],[139.6541368,35.7111188],[139.6541738,35.7107795],[139.6542598,35.7100431],[139.6542915,35.7098425],[139.6543168,35.7096954]],[[139.6537981,35.7173412],[139.6538024,35.7172371]],[[139.6538024,35.7172371],[139.653809,35.7171074],[139.6538037,35.7168151],[139.6538283,35.7157701],[139.6538031,35.7145604],[139.6537925,35.7141967],[139.6537963,35.7138952],[139.653803,35.7135581],[139.653853,35.713033],[139.6539476,35.7120992],[139.6539845,35.7118526]],[[139.6537109,35.7172349],[139.6537115,35.7173439]],[[139.6537115,35.7173439],[139.6537116,35.7173619],[139.653722,35.7177885]],[[139.6537383,35.7222991],[139.6537516,35.7235853]],[[139.6538355,35.7235825],[139.6538164,35.7223088]],[[139.6538164,35.7223088],[139.6538231,35.7216056],[139.6538249,35.7211628]],[[139.6539014,35.7267824],[139.6540153,35.7270863],[139.6540613,35.7271863],[139.6541221,35.7273009],[139.6541832,35.7273996],[139.6543435,35.7276173],[139.6544625,35.7277481],[139.6548806,35.7281466],[139.6550027,35.7282511],[139.6551504,35.7283848],[139.6557894,35.7289499],[139.6564593,35.7295421],[139.6569308,35.7299538],[139.6570095,35.7300231],[139.657889,35.7307934],[139.6587495,35.7315369],[139.6588411,35.7316158]],[[139.6603916,35.6514656],[139.6604595,35.6512935],[139.6604919,35.65103],[139.6605144,35.6506832],[139.6605483,35.6501633],[139.6605518,35.6501134]],[[139.7605463,35.7782205],[139.7604375,35.7782231],[139.7596388,35.7782457],[139.7583049,35.7783013],[139.7580716,35.7783104],[139.7576874,35.7783226],[139.7569375,35.7783542],[139.7562526,35.7783803],[139.756085,35.7783895],[139.755896,35.7783906],[139.7555251,35.7783978],[139.7549655,35.7784253],[139.7545101,35.7784456],[139.7534211,35.7784813],[139.7530456,35.778496],[139.752161,35.7785281],[139.7518555,35.7785432],[139.7517771,35.7785472],[139.7517729,35.7785474],[139.7511866,35.7785793],[139.751063,35.7785839],[139.7509392,35.7785872],[139.7508323,35.7785913],[139.7502826,35.7786075],[139.7491202,35.7786566],[139.7490105,35.7786586],[139.7489366,35.7786578]],[[139.7489366,35.7786578],[139.7487142,35.7786636],[139.7484836,35.778663],[139.7483003,35.7786551]],[[139.7911639,35.7783358],[139.7897711,35.7782999],[139.7886416,35.7782626],[139.7874126,35.7782079]],[[139.7874126,35.7782079],[139.7862664,35.7781402],[139.7860082,35.7781262],[139.7851696,35.7780811],[139.7849654,35.7780674],[139.7847964,35.7780561]],[[139.6979359,35.6031549],[139.6972539,35.6040095]],[[139.6960178,35.6057276],[139.6957622,35.6061445],[139.6955735,35.6064182],[139.6955,35.606533],[139.6949663,35.60729],[139.6948944,35.6073862],[139.6946281,35.6077464],[139.6944248,35.6080246],[139.694324,35.6081484],[139.6941687,35.6083322],[139.6939203,35.6085614],[139.6935286,35.6088182],[139.6931897,35.6090404],[139.6931191,35.6090867],[139.6929644,35.6091932]],[[139.6973316,35.6040318],[139.6980018,35.6031937]],[[139.6980018,35.6031937],[139.6981729,35.6030207],[139.6983479,35.6028734],[139.6989491,35.6024401]],[[139.7238487,35.7666263],[139.7243337,35.7667546],[139.7245469,35.766815]],[[139.7190729,35.7651953],[139.7192274,35.765264],[139.7195052,35.765402],[139.7200377,35.7656887],[139.7201765,35.7657612],[139.7206512,35.7660092],[139.7207323,35.7660516],[139.7208221,35.7660985],[139.7210669,35.7662264],[139.7211375,35.7662604],[139.721263,35.7663209],[139.7212799,35.7663268],[139.7213007,35.7663347],[139.7214712,35.7663931],[139.7217124,35.7664585],[139.7218122,35.7664763],[139.721944,35.7664998],[139.7220445,35.7665077],[139.7221835,35.7665214]],[[139.7279603,35.5793391],[139.7281425,35.5792966],[139.7293342,35.5789905],[139.729701,35.5788888],[139.729822,35.5788641],[139.7303447,35.5787614],[139.7310082,35.578633],[139.731066,35.5786218],[139.7316943,35.5785044],[139.7320953,35.5784187],[139.7321672,35.5784053]],[[139.725144,35.5800704],[139.7255998,35.5799473],[139.7262514,35.5797891],[139.7263595,35.5797629]],[[139.7237449,35.5804379],[139.7241024,35.5803413],[139.725144,35.5800704]],[[139.8745953,35.6696207],[139.8745443,35.6694316],[139.8745367,35.6694125],[139.8741959,35.6688259],[139.874071,35.668611],[139.8738529,35.6682483],[139.8737387,35.6680582],[139.8736663,35.6679275],[139.8736143,35.6678227],[139.8735879,35.6677597],[139.8735629,35.6676912]],[[139.7406598,35.7737636],[139.7405288,35.7736708],[139.7395376,35.7729918],[139.7388227,35.7725104],[139.7387462,35.7724589],[139.7381057,35.7720286],[139.7379469,35.7719263]],[[139.8162424,35.7785761],[139.8173599,35.7784488],[139.8179015,35.7783842],[139.8184903,35.778314],[139.8192281,35.7782267],[139.8194861,35.7781989],[139.8197309,35.77818],[139.8206532,35.7781263],[139.8211015,35.7780961]],[[139.7919454,35.7784216],[139.7926101,35.7784439],[139.7930926,35.7784591],[139.7935995,35.7784777],[139.794232,35.7784946],[139.7943082,35.7784966],[139.7944875,35.7785017],[139.7949762,35.7785141],[139.7953145,35.7785223],[139.796097,35.7785398],[139.7967607,35.778561],[139.7974282,35.7785803],[139.7975063,35.7785826],[139.7976482,35.7785867]],[[139.8049343,35.7786477],[139.8037416,35.7786612],[139.8029543,35.7786575],[139.8023483,35.7786467],[139.8014501,35.7786208]],[[139.801449,35.7786875],[139.8023386,35.7787063],[139.8029552,35.7787185],[139.8037407,35.7787212],[139.804938,35.7787099]],[[139.797647,35.7785069],[139.797507,35.7785028],[139.7967345,35.7784797],[139.7960891,35.7784727],[139.7955802,35.7784563],[139.79497,35.7784376],[139.7944899,35.7784206],[139.7943133,35.7784158],[139.7942354,35.778414],[139.793614,35.7783998],[139.7930883,35.7783842],[139.791947,35.7783525]],[[139.8058672,35.7786343],[139.8057434,35.7786021],[139.8056387,35.7785913],[139.8055247,35.7785891],[139.8051183,35.7785869],[139.8045253,35.77859],[139.803918,35.7785952],[139.8033257,35.7785968],[139.8031803,35.778597]],[[139.8768254,35.7199402],[139.8770522,35.719698],[139.8771545,35.7195696],[139.8772381,35.7194589],[139.8773235,35.7193464],[139.8774229,35.7191626],[139.8775059,35.7189881],[139.8775665,35.7188141],[139.8776446,35.7185483],[139.8780801,35.7167027],[139.8791527,35.7121766]],[[139.8794412,35.7109663],[139.8795182,35.7106542],[139.8796209,35.7102097],[139.8797151,35.7098309],[139.8797324,35.709761],[139.8797596,35.7096494],[139.8797976,35.7094939],[139.8798963,35.709089],[139.8799914,35.7087236],[139.8801375,35.7081163],[139.8801613,35.7080229],[139.8802917,35.7074952],[139.8803213,35.7073754],[139.8804429,35.70685],[139.8805302,35.7065098],[139.8805544,35.7064156],[139.8805865,35.7062964],[139.880777,35.7055887],[139.8808746,35.7052406]],[[139.8537338,35.7590841],[139.8543735,35.7578254],[139.8545199,35.7575192],[139.8546607,35.7571719],[139.8548064,35.7567605],[139.8552078,35.7556006]],[[139.8582592,35.7478179],[139.8584286,35.7475385],[139.8589776,35.7466176],[139.860694,35.7437909],[139.8615716,35.742338]],[[139.8517538,35.7632884],[139.8517716,35.7632477],[139.8517793,35.7632293],[139.8517944,35.7631933],[139.8518201,35.7631134],[139.851849,35.7630304],[139.8518588,35.7630063],[139.851871,35.7629779],[139.8520411,35.762608],[139.8522456,35.7621754],[139.8525318,35.7615245],[139.8526509,35.7612618],[139.8529676,35.7605891],[139.8531643,35.7602043],[139.8532192,35.7600993],[139.8532666,35.7600086],[139.8534637,35.7596183],[139.8537338,35.7590841]],[[139.7861938,35.7782305],[139.7874109,35.7782741]],[[139.8808746,35.7052406],[139.881015,35.7047662],[139.8812377,35.7039541],[139.8814351,35.7031948],[139.8815699,35.7026672],[139.8816011,35.7025451],[139.8816133,35.702457]],[[139.663952,35.7360165],[139.6630144,35.7351903],[139.6614255,35.7337788]],[[139.6638714,35.7360458],[139.6640686,35.73622],[139.6644243,35.7365554],[139.6647643,35.7368574],[139.665012,35.7370791],[139.6651236,35.7371836]],[[139.6608326,35.7332444],[139.6602839,35.7327709],[139.6599034,35.7324434],[139.6594074,35.7320051],[139.6593289,35.7319363]],[[139.6607679,35.7333272],[139.6609512,35.7334737],[139.6613675,35.7338273]],[[139.6651932,35.7371315],[139.6648082,35.7367921],[139.664493,35.7365061],[139.6640984,35.7361476],[139.663952,35.7360165]],[[139.6651236,35.7371836],[139.6654758,35.7374793]],[[139.6679547,35.7403733],[139.6681842,35.7406958],[139.6682562,35.7407941],[139.6683224,35.7408674],[139.6684049,35.7409431],[139.6685239,35.7410475],[139.6687731,35.7412255],[139.6691404,35.7414881],[139.6696114,35.741839],[139.6696825,35.7418892],[139.6699054,35.7420464],[139.6704365,35.742421],[139.6705749,35.7425229],[139.6710082,35.742842],[139.6716713,35.7433054],[139.6722657,35.7437508],[139.6723962,35.7438486],[139.6724733,35.7439043],[139.6730452,35.7443179],[139.6735195,35.7446609],[139.6736979,35.7447946],[139.6745835,35.7454296],[139.6746315,35.745464],[139.6747224,35.7455314]],[[139.6680237,35.7403466],[139.6674354,35.7395364],[139.6667375,35.7385787],[139.6666285,35.7384492],[139.6664976,35.738319],[139.6655267,35.7374345]],[[139.8733118,35.6659232],[139.8733043,35.6655638],[139.8733092,35.6654545]],[[139.8732245,35.6659245],[139.8732868,35.6671766],[139.8733027,35.667398],[139.8733268,35.6675556],[139.8733697,35.6676952],[139.8734137,35.6678217],[139.8734696,35.6679481],[139.8735441,35.6680741],[139.8736821,35.668298],[139.8739399,35.6687181],[139.8741592,35.6690844]],[[139.8581863,35.7477848],[139.8578604,35.7483113],[139.8577748,35.7484459],[139.8577326,35.748512],[139.8576515,35.7486385],[139.8571708,35.749432],[139.8571301,35.7495017],[139.8570818,35.7495842],[139.8569973,35.7497777],[139.8569288,35.7499567],[139.8567234,35.7506222],[139.8565219,35.7512399],[139.8564251,35.7515671],[139.8561949,35.7522992],[139.8560301,35.7528355],[139.8559967,35.7529408],[139.8559606,35.7530506],[139.8557114,35.7537845],[139.8556256,35.7540506],[139.8553787,35.7547784],[139.855341,35.7548863],[139.8552933,35.7550234],[139.855114,35.7555804]],[[139.8615013,35.7423128],[139.8606325,35.7437497],[139.8589046,35.7465817],[139.8583556,35.747505],[139.8581863,35.7477848]],[[139.8552078,35.7556006],[139.8554026,35.7550765],[139.8554548,35.754908],[139.8554759,35.7548401],[139.855844,35.7538022],[139.8558998,35.7536001],[139.8560744,35.7530756],[139.8561002,35.7529863],[139.856142,35.7528557],[139.8562521,35.752467],[139.8563115,35.7522665],[139.8565272,35.751567],[139.8568224,35.7506174],[139.8570213,35.7499719],[139.8570836,35.7498022],[139.8571894,35.749599],[139.8572237,35.7495355],[139.8572981,35.7494097],[139.8577499,35.7486537],[139.8578136,35.7485451],[139.8578536,35.748479]],[[139.8615716,35.742338],[139.8616714,35.7421862],[139.8617308,35.7420976],[139.8619699,35.7417191],[139.8623268,35.741124],[139.862965,35.7400746],[139.8630663,35.7399044],[139.8635102,35.7391576],[139.8638238,35.7386414]],[[139.7874109,35.7782741],[139.7886361,35.7783235],[139.7897655,35.7783616],[139.7911608,35.7784026]],[[139.7325264,35.7689928],[139.7317132,35.7687594]],[[139.8031654,35.7787885],[139.8033216,35.7787888],[139.8036398,35.7787857],[139.8040355,35.7787851],[139.8045268,35.7787812],[139.8051119,35.7787779],[139.8055556,35.7787668],[139.8056589,35.7787577],[139.8057461,35.7787435],[139.8058496,35.7787082]],[[139.653789,35.7184621],[139.6537868,35.7177868]],[[139.6537452,35.7196958],[139.6537405,35.7203796],[139.653741,35.7209037]],[[139.6537224,35.7184608],[139.6537452,35.7196958]],[[139.6538209,35.7196789],[139.653789,35.7184621]],[[139.6538282,35.7208951],[139.6538233,35.720769],[139.6538209,35.7196789]],[[139.653736,35.7211606],[139.6537341,35.7216],[139.6537383,35.7222991]],[[139.7042865,35.7609744],[139.70351,35.7607603],[139.7033301,35.7607155],[139.7031379,35.7606674],[139.7027914,35.7605813],[139.7025677,35.7605257]],[[139.7077256,35.7618422],[139.7083034,35.7620236],[139.7086023,35.7621203],[139.7090751,35.7622696],[139.7092639,35.7623258],[139.709348,35.762351],[139.7098143,35.7624939],[139.710457,35.7626786],[139.7108613,35.7627966]],[[139.7077416,35.7617796],[139.7072736,35.7616425],[139.7067973,35.7615102],[139.7056483,35.7613148],[139.7048082,35.7611092],[139.7042865,35.7609744]],[[139.7042634,35.7610302],[139.7055646,35.7613647],[139.7066725,35.7615536],[139.7076216,35.7618118],[139.7077256,35.7618422]],[[139.7221924,35.7664443],[139.72207,35.7664367],[139.7218916,35.766413],[139.7218554,35.7664064],[139.7217152,35.7663805],[139.7215332,35.7663328],[139.7213553,35.7662702],[139.7212359,35.7662163],[139.7211402,35.766173],[139.7209272,35.7660654],[139.7208594,35.7660268],[139.7207692,35.7659755],[139.7207047,35.7659412],[139.7202005,35.7656777],[139.7195613,35.7653468]],[[139.7221835,35.7665214],[139.722335,35.7665291]],[[139.7223355,35.7664514],[139.7221924,35.7664443]],[[139.722335,35.7665291],[139.7229347,35.766566],[139.723312,35.7665875],[139.7237204,35.7666108],[139.7238487,35.7666263]],[[139.7145576,35.7638142],[139.7139668,35.7636512],[139.712086,35.7630962]],[[139.7120574,35.7631591],[139.7139176,35.7637094],[139.714538,35.7638789]],[[139.714538,35.7638789],[139.7153682,35.7640897],[139.7157153,35.7641782]],[[139.712086,35.7630962],[139.7114025,35.7628861],[139.7108171,35.7627103]],[[139.7269338,35.7674277],[139.7255082,35.7670249]],[[139.7245469,35.766815],[139.7254807,35.7670778]],[[139.7245789,35.7667624],[139.7243618,35.7666958],[139.7238835,35.7665527],[139.7237967,35.7665357],[139.7233852,35.766512],[139.7230924,35.7664946],[139.723017,35.7664888],[139.7223355,35.7664514]],[[139.7343026,35.7696552],[139.7344163,35.7697187],[139.7351215,35.7701672]],[[139.7352623,35.7700279],[139.7348069,35.76972],[139.7346516,35.76962],[139.7345539,35.7695564],[139.7345139,35.7695312],[139.7343768,35.7694523]],[[139.6604672,35.6637702],[139.6604799,35.6638444],[139.6605495,35.6642309],[139.6606608,35.6648699],[139.6607376,35.6653258],[139.6608201,35.6658302],[139.6608855,35.6661791],[139.6609994,35.6668588],[139.6611362,35.6676488],[139.6611375,35.667656],[139.6611591,35.6677726],[139.66124,35.6683166],[139.661308,35.6686568],[139.6613592,35.6689163],[139.6613789,35.6690341]],[[139.6604059,35.6627003],[139.6603727,35.6625103]],[[139.660273,35.6626091],[139.6602903,35.6627067]],[[139.6603727,35.6625103],[139.6603653,35.6624523]],[[139.7203903,35.5828517],[139.7203386,35.5830801]],[[139.7208959,35.5820688],[139.7209824,35.58199],[139.7210843,35.5818992],[139.7211889,35.5818144],[139.7212965,35.5817331],[139.7222392,35.5810828]],[[139.7783733,35.7780425],[139.7782169,35.7780466],[139.7776359,35.7780584],[139.7771927,35.7780633],[139.7757713,35.7780956],[139.7755697,35.7781028],[139.7753575,35.7781059],[139.7745392,35.7781224],[139.774219,35.7781266],[139.7740755,35.7781285],[139.7739506,35.7781299],[139.7732476,35.7781378],[139.7730891,35.7781413]],[[139.7821468,35.7779703],[139.7820336,35.7779733],[139.7816171,35.7779841],[139.7811744,35.7779881],[139.77988,35.7780138],[139.779705,35.7780162],[139.7786875,35.7780366],[139.7783733,35.7780425]],[[139.7730784,35.7782226],[139.7739143,35.7782211],[139.774036,35.7782209],[139.7741875,35.7782195],[139.7745561,35.7782162],[139.7751236,35.7782058],[139.7757498,35.7781974],[139.7771942,35.778163],[139.7776442,35.7781553],[139.7782744,35.7781412],[139.7785961,35.7781336]],[[139.782211,35.778057],[139.7823646,35.7780649],[139.7835815,35.7781333],[139.7841583,35.7781646],[139.7846144,35.7781856],[139.7847963,35.778194]],[[139.8733061,35.6677345],[139.8733331,35.6678082],[139.8733575,35.6678691],[139.8734099,35.6679784],[139.873465,35.6680776],[139.8735942,35.6682937],[139.8739437,35.6688554],[139.8740456,35.6690308],[139.8741315,35.6691805],[139.8742854,35.6694324],[139.8743151,35.6694809],[139.8744986,35.6696731]],[[139.8733092,35.6654545],[139.8733088,35.6653461],[139.8732702,35.6646352],[139.8732236,35.6639554]],[[139.8731726,35.66548],[139.8731898,35.6655868],[139.8732245,35.6659245]],[[139.8735629,35.6676912],[139.8735391,35.667623],[139.8735022,35.6674875],[139.8734866,35.6673719],[139.8734658,35.6670547],[139.8734597,35.6669689],[139.873417,35.6663665],[139.8734159,35.6663139],[139.8733607,35.665549],[139.8733092,35.6654545]],[[139.8731873,35.6633072],[139.8731728,35.6630478]],[[139.660103,35.6737158],[139.6602933,35.6733163],[139.6603996,35.6730876],[139.6605399,35.6728029]],[[139.6606048,35.6726778],[139.6606308,35.6726242]],[[139.8662659,35.7343168],[139.8662031,35.7344198],[139.8661988,35.7344269],[139.8658952,35.7349229],[139.8656203,35.7354021],[139.8652877,35.7359219],[139.8651884,35.7361187],[139.865188,35.7362141]],[[139.8637258,35.7386054],[139.8634286,35.7391039],[139.8629787,35.7398543],[139.8628653,35.7400407],[139.8622293,35.741085],[139.8618492,35.7417058],[139.8616368,35.7420628],[139.8615743,35.7421826],[139.8615013,35.7423128]],[[139.8652655,35.7362517],[139.865388,35.7361746],[139.8654869,35.7360303],[139.8658124,35.7354857],[139.8662557,35.7347511],[139.8664583,35.7344255],[139.8665413,35.734292]],[[139.8689151,35.7301394],[139.868774,35.7303583],[139.8683279,35.7310792],[139.8681414,35.7313864],[139.867984,35.7316435],[139.8679223,35.731745],[139.8678583,35.7318463],[139.8675484,35.732344]],[[139.8676439,35.7323922],[139.8677625,35.7322047],[139.8679578,35.7318867],[139.868032,35.7317717],[139.8680859,35.7316848],[139.868247,35.7314249],[139.8683028,35.7313322],[139.8684631,35.7310691],[139.868888,35.7303789],[139.8690059,35.7301797]],[[139.6749114,35.7455517],[139.6748162,35.7454924]],[[139.6932947,35.7581548],[139.6929846,35.7580758],[139.692661,35.7579803],[139.6923318,35.7578293],[139.6919759,35.7576106],[139.6910802,35.7570408],[139.6907689,35.7568201]],[[139.6904057,35.7566947],[139.6911016,35.7571306],[139.6913766,35.7573092],[139.6922486,35.7578541],[139.6926283,35.7580392],[139.6930422,35.7581788]],[[139.6907689,35.7568201],[139.6905957,35.7567097],[139.6900301,35.756348],[139.6898877,35.7562569],[139.6898538,35.7562387],[139.689687,35.7561534],[139.6893582,35.7559369]],[[139.6930422,35.7581788],[139.6943529,35.7585146],[139.6949037,35.7586554],[139.6959976,35.7589286],[139.6965395,35.7590665],[139.6969831,35.7591824],[139.6971193,35.759218],[139.6972473,35.7592508],[139.7003801,35.7600541],[139.7008444,35.7601726],[139.7015236,35.760346],[139.7023865,35.760563],[139.7026264,35.7606233]],[[139.8728962,35.6591468],[139.8728919,35.6590413],[139.8728855,35.658938],[139.8728634,35.6586152],[139.8727627,35.6572925],[139.8727584,35.6572357],[139.8727488,35.6570956],[139.8726791,35.656185],[139.8726661,35.6559913],[139.872658,35.655861],[139.872654,35.6557731],[139.8726353,35.6554238],[139.8725713,35.6544738],[139.8725661,35.6543714],[139.8725602,35.6542807],[139.8724914,35.6533318],[139.8724177,35.6523787],[139.8724105,35.6522538]],[[139.6544826,35.6927184],[139.6545151,35.692559],[139.6546378,35.6919204],[139.6546678,35.6917641],[139.654765,35.6912126],[139.6548592,35.6906697],[139.6549867,35.6899095],[139.6550534,35.6895425],[139.6550637,35.6894755],[139.6551027,35.6892746],[139.6551367,35.6891644],[139.6551778,35.68905],[139.6552835,35.6887781],[139.6553326,35.6886435],[139.6554889,35.6882105],[139.655654,35.6877559],[139.6557294,35.6875504],[139.6557693,35.6874416]],[[139.6568467,35.6832442],[139.6568968,35.6827556],[139.6569427,35.6822507],[139.6569689,35.681975]],[[139.6605019,35.6726496],[139.660451,35.6727552],[139.6602013,35.6732511],[139.6599789,35.6736758]],[[139.6570285,35.681649],[139.6570618,35.6813135],[139.657106,35.6808685],[139.6571618,35.6803326],[139.657163,35.6803184]],[[139.6624735,35.6379099],[139.6628725,35.637167],[139.6629188,35.6370744]],[[139.6629188,35.6370744],[139.6631601,35.6367341],[139.6634345,35.6364727]],[[139.8455055,35.7739276],[139.8453422,35.7740824],[139.845234,35.7741903],[139.8451477,35.7742923],[139.8449873,35.7745057],[139.8448248,35.7747007],[139.8447078,35.7748299],[139.8445643,35.7749768],[139.8443859,35.7751398],[139.8441113,35.7753581],[139.8438393,35.7755524],[139.843692,35.7756491],[139.8435285,35.7757436],[139.843422,35.7758053]],[[139.8451776,35.7743714],[139.8450486,35.7745381],[139.8449191,35.7746926],[139.8447765,35.7748521],[139.8445665,35.7750628],[139.844434,35.7751842],[139.8442971,35.775298],[139.844011,35.7755121],[139.8438463,35.7756239],[139.8437084,35.7757108],[139.84346,35.7758522],[139.8432627,35.7759543],[139.8430857,35.7760387],[139.8428175,35.7761555],[139.8426475,35.7762197],[139.8424776,35.7762801],[139.8420699,35.7763879],[139.8418707,35.7764348],[139.8416694,35.776473],[139.8413459,35.7765233]],[[139.8452519,35.7744032],[139.8456153,35.7739304]],[[139.8444956,35.7753288],[139.8446676,35.7751715],[139.8448299,35.7750159],[139.8449446,35.7748921],[139.8450537,35.7747684],[139.8454342,35.7742824],[139.8455098,35.7741607],[139.8455508,35.7740831],[139.8456153,35.7739304]],[[139.8407929,35.7765793],[139.840318,35.7766284],[139.8391173,35.7767603],[139.8389892,35.7767718]],[[139.8263015,35.7777728],[139.8264422,35.7777657],[139.8276007,35.7777065],[139.8290062,35.7776287],[139.8300153,35.7775783],[139.8301359,35.7775719]],[[139.8319747,35.7774703],[139.8321036,35.7774632],[139.8323547,35.7774535],[139.8329153,35.7774232],[139.8337375,35.7773763],[139.8338166,35.7773715]],[[139.8301305,35.7774974],[139.8300076,35.7775041],[139.8297791,35.7775144],[139.8289932,35.7775453],[139.8279593,35.7776053],[139.8272039,35.7776473],[139.8264393,35.7776842],[139.8262959,35.7776911]],[[139.7723805,35.778157],[139.7707524,35.7781809],[139.768217,35.7782135]],[[139.7682183,35.7782806],[139.7707538,35.778248],[139.772382,35.7782241]],[[139.7730891,35.7781413],[139.7730049,35.7781294],[139.7727744,35.7780967],[139.7721149,35.7780872],[139.7709373,35.7781056],[139.770379,35.7781132],[139.7702564,35.7781162],[139.7701024,35.7781179]],[[139.7675021,35.7782947],[139.7676707,35.778324],[139.7677761,35.7783423],[139.7686558,35.7783322],[139.7690803,35.7783271]],[[139.7483016,35.7787237],[139.7484809,35.7787348],[139.7487082,35.7787344],[139.749122,35.7787196]],[[139.749122,35.7787196],[139.7502725,35.7786885],[139.7508266,35.7786731],[139.7510057,35.7786696],[139.7511846,35.7786603],[139.7518563,35.7786309],[139.7521659,35.7786205],[139.7533232,35.7785674],[139.7544964,35.7785307],[139.7555452,35.7784873],[139.7558959,35.778479],[139.7560659,35.7784729]],[[139.7483003,35.7786551],[139.7481392,35.7786341],[139.7480359,35.7786101],[139.7479063,35.778575],[139.7477666,35.7785292],[139.7476443,35.77848],[139.747531,35.7784219],[139.7473973,35.7783497],[139.7472529,35.7782558]],[[139.7489366,35.7786578],[139.7488096,35.7786188],[139.7487243,35.7786079],[139.7485131,35.7786021],[139.7483106,35.7785804],[139.7481523,35.778551],[139.7480271,35.7785225],[139.7479753,35.7785107],[139.7477258,35.7784248],[139.7475622,35.778353],[139.7474348,35.7782757],[139.747063,35.7780362],[139.7469552,35.7779711]],[[139.7410903,35.7741651],[139.7413381,35.7743285],[139.7417069,35.7745724]],[[139.8672993,35.7327692],[139.865384,35.7359037]],[[139.8654553,35.735922],[139.8673764,35.732799]],[[139.7293956,35.7681143],[139.7293123,35.7680944],[139.7288811,35.7679725],[139.7284915,35.7678656],[139.7275974,35.7676077]],[[139.660624,35.6724115],[139.6606007,35.6724577]],[[139.7785961,35.7781336],[139.7787399,35.7781295],[139.7791332,35.7781155],[139.7796986,35.7781057],[139.779876,35.7781015],[139.7810118,35.7780795]],[[139.666348,35.6341962],[139.6664689,35.634119],[139.6666148,35.6340144],[139.6667023,35.6339557],[139.6675841,35.6333398],[139.6676575,35.6332859],[139.66775,35.6332226],[139.6677879,35.633195],[139.6678776,35.6331298],[139.6681009,35.6329784],[139.6684647,35.6327538],[139.6688092,35.6325359],[139.6692582,35.6322432],[139.6697387,35.6319347],[139.6701406,35.6316676],[139.6702473,35.6315896],[139.6703673,35.6315011],[139.6710364,35.6309475],[139.6712492,35.6307444],[139.6717122,35.6303187],[139.6719009,35.6301578],[139.6721171,35.6299942],[139.6723575,35.6298171],[139.6724566,35.6297439]],[[139.7025677,35.7605257],[139.7024147,35.7604844],[139.7019154,35.7603498],[139.7017823,35.760316],[139.7015372,35.7602541],[139.7010237,35.7601244],[139.6998196,35.7598114],[139.6992622,35.7596762],[139.6988756,35.7595811],[139.6986584,35.7595277],[139.6980921,35.7593732],[139.6972784,35.7591747],[139.6971171,35.7591354],[139.6970098,35.759108],[139.6959998,35.7588496],[139.6955113,35.7587261],[139.6949085,35.7585737],[139.6944811,35.7584624],[139.6935498,35.7582198],[139.6932947,35.7581548]],[[139.7026264,35.7606233],[139.7027716,35.7606614],[139.7030291,35.760729],[139.7033493,35.7608056],[139.7042634,35.7610302]],[[139.709585,35.5967153],[139.7091074,35.5969811],[139.7090586,35.5970067],[139.7086859,35.597172],[139.7082922,35.5973465],[139.7075076,35.597692],[139.7064422,35.598155],[139.7063706,35.5981828],[139.7062696,35.5982277],[139.7060922,35.5983061],[139.705238,35.598683]],[[139.7037106,35.5993562],[139.7035243,35.5994395],[139.7029177,35.5997105],[139.7024939,35.599909],[139.7016582,35.6002771],[139.7013145,35.6004595],[139.7012023,35.6005476],[139.7005437,35.601041],[139.7003086,35.6012172],[139.6997904,35.6016075],[139.6997407,35.601645],[139.6996775,35.6016928],[139.6996015,35.6017557],[139.6990542,35.6021966],[139.6987238,35.6024628]],[[139.8744986,35.6696731],[139.8746095,35.6698731],[139.8746568,35.6699518],[139.8747063,35.6700354],[139.8749495,35.6704438],[139.8752521,35.6709568],[139.8755903,35.6715205],[139.8756495,35.6716282],[139.87587,35.6719981],[139.8759295,35.6720994],[139.8762966,35.6727383],[139.8765895,35.6732363]],[[139.882188,35.6854967],[139.8821501,35.6853615],[139.8820785,35.6849538]],[[139.8745953,35.6696207],[139.8742453,35.6690553]],[[139.7317132,35.7687594],[139.7316061,35.7687309],[139.7312698,35.768639],[139.7310742,35.7685861],[139.7309685,35.7685569],[139.7305146,35.7684356],[139.7301703,35.7683357],[139.7296698,35.7681935],[139.7294684,35.7681356],[139.7293956,35.7681143]],[[139.7157639,35.7641135],[139.7145576,35.7638142]],[[139.731764,35.7688501],[139.7324906,35.7690559]],[[139.7108613,35.7627966],[139.711212,35.762904],[139.7120574,35.7631591]],[[139.7108171,35.7627103],[139.7098376,35.7624123],[139.7094877,35.7623039],[139.7093851,35.7622691],[139.7093026,35.7622445],[139.7086088,35.7620372],[139.7083173,35.7619488],[139.7080027,35.7618501],[139.7077416,35.7617796]],[[139.734267,35.7694072],[139.7341428,35.7693709],[139.7335954,35.7692148],[139.7334574,35.7691784],[139.7330154,35.7690617],[139.7326348,35.7689557],[139.7318366,35.7687449],[139.7317132,35.7687594]],[[139.7275672,35.7676681],[139.728276,35.767878],[139.7289094,35.7680579],[139.7292979,35.7681642],[139.7293814,35.768187],[139.7294407,35.768205],[139.7295659,35.7682399],[139.7296683,35.7682685],[139.729799,35.768305],[139.7300738,35.7683836],[139.7309155,35.7686183],[139.7314434,35.7687611],[139.731764,35.7688501]],[[139.7275974,35.7676077],[139.7275154,35.7675855],[139.7269338,35.7674277]],[[139.7183118,35.5916641],[139.7182193,35.5917626],[139.7181542,35.5918223],[139.7180229,35.5919322],[139.7178838,35.5920367],[139.7177332,35.5921403],[139.7175078,35.5922725],[139.7169955,35.5925606],[139.7164025,35.592883],[139.71633,35.592925],[139.7162514,35.5929692],[139.7160031,35.5931048],[139.7159133,35.5931558],[139.7156308,35.5933118],[139.7151191,35.5935946],[139.7145659,35.5938997],[139.7141875,35.5941091],[139.7132568,35.5946124],[139.7125393,35.5950291],[139.7121811,35.5952242],[139.7121266,35.5952553],[139.7120579,35.5952943]],[[139.7037253,35.5994457],[139.7038997,35.59937],[139.704471,35.599122],[139.7052586,35.5987686],[139.7063021,35.5983063],[139.706382,35.5982699],[139.7064735,35.5982328],[139.7075322,35.5977592],[139.7087072,35.5972427],[139.7090662,35.5970836],[139.7091643,35.5970349],[139.7103216,35.5963956]],[[139.6607762,35.6447406],[139.6608104,35.6439169]],[[139.7184253,35.5916744],[139.7185171,35.5915676],[139.7185887,35.5914549],[139.7186402,35.5913538],[139.7187071,35.5911914],[139.7187763,35.5909817],[139.7188087,35.5908442],[139.7188814,35.5905266],[139.7189048,35.5904378],[139.7189211,35.590375],[139.7190444,35.5897292],[139.7190858,35.5895459],[139.7191895,35.5890442],[139.7192731,35.5886429],[139.7193369,35.5883241],[139.7193985,35.5880152],[139.7194342,35.5878364],[139.7194627,35.5876937],[139.7194755,35.5876338],[139.7195829,35.587119],[139.7196785,35.5866732],[139.7196907,35.5866163]],[[139.6960634,35.6058282],[139.6963919,35.6052976],[139.6973316,35.6040318]],[[139.6605372,35.6635562],[139.6604893,35.6632437],[139.6604745,35.6631475],[139.6604355,35.6628931]],[[139.8729855,35.6630018],[139.8729941,35.6631387]],[[139.8829291,35.68955],[139.8827734,35.6905417],[139.8827516,35.6906831]],[[139.8791527,35.7121766],[139.8794412,35.7109663]],[[139.8730115,35.7238764],[139.8726624,35.7242351],[139.8725476,35.7243638],[139.8724328,35.7245003],[139.8723188,35.7246424],[139.8721871,35.7248339],[139.8720551,35.7250394],[139.8714346,35.7260695],[139.8713317,35.7262351],[139.8708124,35.7270779],[139.8701985,35.7280701],[139.8697767,35.7287573],[139.8693726,35.7294141],[139.8691692,35.7297374]],[[139.6546439,35.6973405],[139.6544367,35.6961105]],[[139.682784,35.751358],[139.6829078,35.7514487],[139.6835065,35.7518871],[139.6837976,35.7520942],[139.68472,35.7527525],[139.6847462,35.7527712],[139.6848569,35.7528521],[139.6850312,35.7529803],[139.6850594,35.753001],[139.6855215,35.753341],[139.6856292,35.7534202],[139.6856605,35.7534433],[139.6867153,35.7542059]],[[139.6829199,35.7513529],[139.6828199,35.7512792],[139.6820723,35.7507504],[139.6813636,35.7502344],[139.6807389,35.7497595],[139.6806425,35.7496865],[139.6805682,35.7496335],[139.6798215,35.7491022],[139.6788344,35.7484071],[139.6780895,35.7478614],[139.6779693,35.7477733],[139.677731,35.7476015],[139.676451,35.7466786],[139.6751022,35.7456966],[139.6750421,35.7456505],[139.6749114,35.7455517]],[[139.6869268,35.7542666],[139.686611,35.7540324],[139.6864767,35.7539352],[139.6862893,35.7538003],[139.6860402,35.7536189],[139.6856923,35.7533628],[139.6856389,35.7533256],[139.6851452,35.7529507],[139.6851105,35.7529266],[139.6850007,35.7528506],[139.6848182,35.7527335],[139.6847878,35.7527109],[139.6846048,35.7525752],[139.683907,35.7520671],[139.6836842,35.7519027],[139.6834206,35.7517084],[139.6830371,35.7514361],[139.6829199,35.7513529]],[[139.6867153,35.7542059],[139.6871457,35.7545166],[139.6874051,35.7547063]],[[139.6603268,35.6500519],[139.6603222,35.6501036],[139.6602939,35.6505403],[139.6602839,35.6507197]],[[139.6605555,35.6500637],[139.6605589,35.6500086],[139.6605719,35.6494527],[139.6606063,35.6488739],[139.6606154,35.6487217],[139.6606198,35.6486591],[139.6605748,35.6483937]],[[139.6613591,35.6396792],[139.6612771,35.6399043],[139.661247,35.6400361],[139.6611899,35.640286],[139.6611007,35.6406677],[139.66093,35.6414587],[139.6608578,35.641817],[139.6607556,35.642305],[139.6607362,35.64241],[139.6607249,35.6425111]],[[139.6605748,35.6483937],[139.6605809,35.6482555],[139.6606431,35.6471936],[139.6606607,35.6468939],[139.660682,35.6465772],[139.660694,35.6463307],[139.6606954,35.6462866],[139.6606973,35.6461767],[139.6606974,35.6461618]],[[139.6604956,35.6482945],[139.660447,35.6492653]],[[139.7203386,35.5830801],[139.7203082,35.5832199],[139.7200466,35.5844458],[139.7199504,35.5849136],[139.7198803,35.5852437],[139.7198717,35.5852855],[139.7196077,35.5865626],[139.7195989,35.5866052]],[[139.6834499,35.6158083],[139.6835173,35.6157386],[139.6835893,35.6156642],[139.6837613,35.6155296],[139.684373,35.615074],[139.6846466,35.6148718],[139.6852176,35.6144456],[139.6853074,35.6143791],[139.68588,35.6139539],[139.6866522,35.613392],[139.6867314,35.6133362]],[[139.6822455,35.6176548],[139.6822955,35.6175683],[139.6825561,35.6171376],[139.6827322,35.6168547],[139.6830518,35.6163161],[139.6831675,35.6161268],[139.6832983,35.6159594],[139.6834499,35.6158083]],[[139.6701431,35.6315075],[139.6700427,35.6315727],[139.6697521,35.6317865],[139.6694656,35.6319697],[139.6686488,35.6324988],[139.6681557,35.6328119],[139.6678521,35.633021],[139.6677098,35.6331224],[139.6676701,35.6331507],[139.6675788,35.6332137],[139.6675328,35.6332488],[139.6673544,35.6333804],[139.6670391,35.6336129],[139.6668044,35.6337847],[139.6666415,35.6338987],[139.6664541,35.6340207],[139.6662917,35.6341436]],[[139.6724566,35.6297439],[139.6726285,35.6296556],[139.6739079,35.6289983],[139.6743467,35.6287799],[139.6749559,35.6284603]],[[139.6723591,35.6296802],[139.672275,35.6297376],[139.6720295,35.6299104],[139.6718053,35.6300857],[139.6716294,35.6302305],[139.6709107,35.6308682],[139.67027,35.6314202],[139.6701431,35.6315075]],[[139.4103338,35.4615677],[139.4105012,35.4618675],[139.4106166,35.4620744],[139.4107321,35.4622812],[139.4107716,35.4623004]],[[139.6739007,35.6288917],[139.6733902,35.6291473],[139.6727857,35.6294399],[139.6725344,35.6295693],[139.6723591,35.6296802]],[[139.8578536,35.748479],[139.8579562,35.7483204],[139.8579899,35.748267],[139.8582592,35.7478179]],[[139.6548247,35.7006211],[139.6548026,35.7004362],[139.6547872,35.7001884],[139.6547629,35.6998992]],[[139.6546088,35.7055729],[139.6545641,35.7059449],[139.6545217,35.7063557],[139.6544865,35.7066152],[139.6544235,35.7070789],[139.6543805,35.7074144],[139.6543746,35.7076747]],[[139.6547604,35.7056006],[139.6547782,35.7054534],[139.6547913,35.7053512],[139.6548486,35.7048559],[139.6548731,35.7045405],[139.6548891,35.7043101],[139.6548981,35.704096],[139.654899,35.7038404]],[[139.6569132,35.681634],[139.6568637,35.6817384],[139.6568398,35.6818124],[139.6568228,35.6819137],[139.6567854,35.6822911],[139.6567041,35.6831826],[139.6566888,35.6832411]],[[139.7356232,35.7704374],[139.7368123,35.7712525],[139.73736,35.7716252],[139.737921,35.7719957]],[[139.7356781,35.7703884],[139.734813,35.7698122],[139.7346505,35.7697048],[139.7344758,35.7696026],[139.7343315,35.7695291],[139.7341472,35.7694557],[139.7339939,35.7694067],[139.7338171,35.7693546],[139.7334847,35.76926],[139.7331384,35.7691622],[139.7327161,35.7690458],[139.7325264,35.7689928]],[[139.7349565,35.577636],[139.7348044,35.577671],[139.73462,35.5777075],[139.7345,35.577733],[139.7343597,35.5777685],[139.7340202,35.5778544],[139.7338678,35.5778934],[139.7335398,35.5779708],[139.7329069,35.578134],[139.7326472,35.5781965],[139.7321742,35.5783292],[139.7320724,35.5783509],[139.7317018,35.5784263],[139.7316206,35.5784428],[139.7310508,35.5785525],[139.7309869,35.5785651],[139.7306783,35.578626],[139.7301257,35.5787373],[139.7297394,35.5788151]],[[139.7188099,35.5904183],[139.7187825,35.590512],[139.7187089,35.5908477],[139.7186589,35.5910283],[139.7185971,35.591196],[139.7185775,35.5912407]],[[139.7196907,35.5866163],[139.7196998,35.5865726],[139.7197719,35.5862256],[139.7198528,35.5858396],[139.7199668,35.5852865],[139.7199789,35.585228],[139.720028,35.5849763],[139.7202163,35.5840336],[139.7202239,35.5839956],[139.7203173,35.583585],[139.7203288,35.5835275],[139.7204253,35.5830853]],[[139.6972539,35.6040095],[139.6962162,35.6054013],[139.6960178,35.6057276]],[[139.6542821,35.6955725],[139.654391,35.6963017],[139.6544603,35.6967088],[139.6545715,35.6973427]],[[139.8483073,35.7703262],[139.8483486,35.7702446],[139.8486324,35.7696842],[139.8487925,35.7693664],[139.8488545,35.7692431],[139.848874,35.7692025],[139.8492948,35.7683273],[139.849311,35.7682941],[139.8494965,35.7679078],[139.8496827,35.7675233],[139.8497115,35.7674639],[139.8497468,35.767391]],[[139.8482043,35.7703073],[139.8481284,35.7704087],[139.8476442,35.7710554],[139.8470398,35.7718699],[139.8457146,35.7736365],[139.8455055,35.7739276]],[[139.6546962,35.7007714],[139.6547009,35.7011315],[139.6547069,35.7012918],[139.6547098,35.7013696],[139.6547246,35.7017872],[139.6547259,35.7020307],[139.6547337,35.7023234],[139.6547369,35.7024444],[139.6547397,35.7025406],[139.654746,35.702758],[139.6547525,35.7033061],[139.6547637,35.7037604],[139.6547663,35.7038639],[139.6547658,35.7040411],[139.6547585,35.7041623],[139.6547353,35.7044821],[139.6546932,35.7048424],[139.6546636,35.7051082]],[[139.8692488,35.7297722],[139.8694505,35.729447],[139.8698539,35.7287914],[139.8702827,35.7280979],[139.8708876,35.7271095],[139.8714957,35.7261585],[139.8716356,35.7259455],[139.8721597,35.7250793],[139.8722863,35.7248752],[139.8724262,35.7246842],[139.8725357,35.7245427],[139.8726431,35.7244201],[139.8727745,35.7242808],[139.8731032,35.7239366]],[[139.8691692,35.7297374],[139.8689151,35.7301394]],[[139.8757948,35.7209206],[139.8757201,35.720996],[139.8753208,35.7213992],[139.8748943,35.7218605],[139.8744907,35.7223119],[139.8741072,35.7227157],[139.8740533,35.7227724],[139.8737804,35.7230755],[139.8734063,35.7234666]],[[139.8734579,35.7235547],[139.8738386,35.7231447],[139.8741667,35.7227914],[139.8745959,35.7223292],[139.875027,35.7218689],[139.8758906,35.720935]],[[139.6545715,35.6973427],[139.6546022,35.6975299],[139.6546256,35.6976965],[139.6546374,35.6978402],[139.6546595,35.6985877],[139.654688,35.6998992]],[[139.654688,35.6998992],[139.6547018,35.7001834],[139.6546962,35.7007714]],[[139.7221884,35.5810342],[139.7212473,35.5816845],[139.7211684,35.5817423],[139.7210929,35.5818012],[139.7210164,35.5818636],[139.7209472,35.581928],[139.720879,35.5819913],[139.7208356,35.5820345]],[[139.7237162,35.5803675],[139.7233734,35.5804541]],[[139.6569132,35.681634],[139.6569027,35.6818201],[139.6568888,35.681976]],[[139.6564648,35.6852664],[139.6564248,35.6853776],[139.6563716,35.6855208],[139.6562242,35.6859067],[139.6561284,35.686154]],[[139.8816748,35.7005692],[139.8815443,35.7017223],[139.8814802,35.7022049],[139.8814526,35.702443],[139.8814115,35.7026585],[139.8813476,35.7029135],[139.8811499,35.7036776],[139.8809404,35.7045116]],[[139.8810289,35.7045273],[139.8814707,35.7028],[139.8815092,35.7026149],[139.8815428,35.7024089],[139.8816213,35.7017109],[139.8816824,35.7011131],[139.881761,35.7005679]],[[139.8818828,35.6997759],[139.8819275,35.6994407],[139.8820193,35.6987129],[139.8821591,35.6976512],[139.8821652,35.6976052],[139.8821745,35.6975354],[139.8822007,35.6973491],[139.8822125,35.6972608],[139.882274,35.6968014],[139.8823435,35.6961535],[139.882358,35.6960182],[139.8824028,35.6954497],[139.8825169,35.6943063],[139.882526,35.694226],[139.8826088,35.6934946],[139.8826214,35.6933861],[139.8826299,35.6933198],[139.8826883,35.6927879],[139.8827577,35.6923716],[139.8827966,35.6920797],[139.8828403,35.6917072],[139.8828894,35.6912013],[139.8829302,35.6907958],[139.882944,35.690659]],[[139.882944,35.690659],[139.8829536,35.6905169],[139.8830213,35.6895541]],[[139.7465821,35.7779048],[139.7466674,35.7779605]],[[139.7458084,35.5814837],[139.7471653,35.5819397],[139.7474267,35.5820276],[139.7477631,35.5821783]],[[139.7487288,35.5823709],[139.7485251,35.5823037],[139.748191,35.5821881],[139.7458532,35.5813962]],[[139.6648248,35.6353647],[139.6656221,35.6347312]],[[139.6634345,35.6364727],[139.6644989,35.6356361]],[[139.6647712,35.6353178],[139.6644514,35.6355955]],[[139.6655673,35.6346899],[139.6647712,35.6353178]],[[139.8730082,35.6633635],[139.8730363,35.6637769],[139.873041,35.6638451],[139.8730513,35.6639952]],[[139.6655267,35.7374345],[139.6651932,35.7371315]],[[139.6654758,35.7374793],[139.6664253,35.7383409],[139.6665588,35.7384741],[139.6666703,35.7386079],[139.6672416,35.7393853],[139.6678586,35.7402406],[139.6679547,35.7403733]],[[139.6614255,35.7337788],[139.6608326,35.7332444]],[[139.6613675,35.7338273],[139.6638714,35.7360458]],[[139.6537868,35.7177868],[139.6537972,35.7173633],[139.6537981,35.7173412]],[[139.653722,35.7177885],[139.6537224,35.7184608]],[[139.6556314,35.6874131],[139.6555167,35.6877317],[139.6551998,35.6885778],[139.655138,35.6887382],[139.655038,35.6890234],[139.6550012,35.6891443],[139.6549736,35.689259],[139.6549224,35.6895457],[139.6548682,35.6898912],[139.6548253,35.6901912],[139.6547577,35.6905967],[139.6546942,35.6909828],[139.6546583,35.691201],[139.6545859,35.6916217],[139.6545637,35.6917509]],[[139.6561284,35.686154],[139.6560712,35.6862976]],[[139.657053,35.6802],[139.6570445,35.6802829]],[[139.6570445,35.6802829],[139.657041,35.6803189],[139.6570134,35.6806786],[139.6569132,35.681634]],[[139.7810118,35.7780795],[139.7820752,35.7780598],[139.782211,35.778057]],[[139.7467165,35.777907],[139.7466406,35.7778548],[139.7466015,35.7778285]],[[139.7549867,35.5842586],[139.7547783,35.5842245],[139.7543703,35.5841387],[139.7538885,35.5840166],[139.7535549,35.5839152],[139.7532444,35.5838128],[139.7530435,35.5837553],[139.7525701,35.5836297],[139.7524759,35.5836061],[139.7521166,35.5835157]],[[139.7554129,35.584451],[139.7550645,35.5843956],[139.7547173,35.5843281]],[[139.6797358,35.6222302],[139.6796222,35.6225064],[139.6794485,35.6229287],[139.6791567,35.6236076],[139.6790889,35.6237596],[139.6790336,35.6238656],[139.6788291,35.6242437],[139.6786194,35.6246369],[139.67837,35.6250973],[139.6783017,35.6252233],[139.6782039,35.6253957],[139.6778866,35.6258762]],[[139.7521166,35.5835157],[139.7501138,35.5828347]],[[139.8673558,35.6433114],[139.8667652,35.6427334]],[[139.8732872,35.6676664],[139.8733061,35.6677345]],[[139.6600808,35.6597911],[139.6600778,35.6596174],[139.6600669,35.6590748]],[[139.659961,35.659115],[139.6599651,35.6594757],[139.6599705,35.6597855]],[[139.6543821,35.6955323],[139.6543482,35.6945906]],[[139.6543482,35.6945906],[139.6543401,35.694399],[139.6543307,35.6942129],[139.6543321,35.6939292],[139.6543353,35.6937512],[139.6543381,35.6935931],[139.6543396,35.6935111],[139.6544111,35.6931211],[139.654458,35.6928568],[139.6544826,35.6927184]],[[139.6545637,35.6917509],[139.6544932,35.6921232],[139.654409,35.6925215],[139.6543991,35.6925667],[139.6543745,35.6927062],[139.6543124,35.6930507],[139.6542428,35.6934424],[139.6542363,35.6935039],[139.6542316,35.6935853],[139.6542221,35.6939358],[139.6542258,35.6942637],[139.6542314,35.6944007],[139.6542333,35.6945097],[139.654264,35.6954037],[139.6542821,35.6955725]],[[139.7395005,35.5792312],[139.7396761,35.5793237],[139.7398174,35.5793898],[139.7399617,35.579455],[139.7402619,35.5795767],[139.7405103,35.5796629],[139.742225,35.580252],[139.7441044,35.5808981]],[[139.8722384,35.6522754],[139.8722437,35.6523902],[139.8723088,35.6533524],[139.8723893,35.6542993],[139.8723946,35.6543892],[139.8724006,35.6544916],[139.8724485,35.6552234],[139.8724916,35.6557582],[139.872495,35.6558271],[139.8725045,35.6559952],[139.8725131,35.6561478],[139.8725822,35.6571159],[139.8725975,35.6572976],[139.8726004,35.6573321],[139.8726882,35.6585887],[139.8727111,35.6588926],[139.8727225,35.6590423],[139.8727256,35.6590959],[139.8727387,35.6592514]],[[139.8715427,35.6473334],[139.871439,35.6471854],[139.8712764,35.6469888],[139.8711303,35.6468216],[139.8708818,35.646556],[139.8698756,35.645624],[139.8698421,35.6455944]],[[139.7466674,35.7779605],[139.7471898,35.7783135]],[[139.7466015,35.7778285],[139.7427522,35.7752059]],[[139.7465474,35.777881],[139.7465821,35.7779048]],[[139.7472529,35.7782558],[139.7467165,35.777907]],[[139.7471898,35.7783135],[139.747349,35.7784128],[139.7474816,35.7784866],[139.7476027,35.7785412],[139.7477463,35.7785962],[139.7478089,35.778615],[139.747947,35.7786569],[139.7480517,35.7786832],[139.7481338,35.7787016],[139.7483016,35.7787237]],[[139.7427522,35.7752059],[139.7426957,35.7751692]],[[139.7426957,35.7751692],[139.7417641,35.7745197]],[[139.7426441,35.7752148],[139.742699,35.7752508]],[[139.742699,35.7752508],[139.7465474,35.777881]],[[139.7417069,35.7745724],[139.7426441,35.7752148]],[[139.7417641,35.7745197],[139.741393,35.7742687],[139.7411581,35.7741083]],[[139.6748162,35.7454924],[139.6746906,35.7454066],[139.6737662,35.7447454],[139.6730963,35.7442622],[139.6730109,35.7442],[139.6725687,35.7438826],[139.672501,35.7438311],[139.6724093,35.7437614],[139.6722937,35.7436781],[139.6714633,35.7430792],[139.6709772,35.7427262],[139.670708,35.7425307],[139.6700846,35.742078],[139.6700632,35.7420611],[139.6698263,35.7418902],[139.6696881,35.7417907],[139.6693406,35.7415405],[139.6688901,35.7412078],[139.6685872,35.7409927],[139.6684754,35.7408961],[139.6684643,35.7408852],[139.6683844,35.7408115],[139.6683211,35.7407426],[139.668262,35.7406667],[139.6680237,35.7403466]],[[139.6752571,35.7459274],[139.6758082,35.7463266],[139.6763979,35.7467435],[139.6764033,35.7467475],[139.6768333,35.747053],[139.6776781,35.7476487],[139.6778586,35.747776],[139.6780346,35.7479069],[139.6788006,35.7484764],[139.6792197,35.748777],[139.6797731,35.749174],[139.6800177,35.7493472],[139.6805098,35.7496957],[139.680592,35.7497539],[139.6806809,35.7498203],[139.6813041,35.7502856],[139.6826909,35.7512906],[139.682784,35.751358]],[[139.6568245,35.6834893],[139.6568467,35.6832442]],[[139.6567749,35.6832337],[139.6567493,35.6834775]],[[139.6565943,35.6852366],[139.6566114,35.685174],[139.6566365,35.6850794],[139.656659,35.6849667],[139.6566777,35.6848653],[139.6566961,35.6847382]],[[139.6567493,35.6834775],[139.6566067,35.6847965],[139.6565961,35.6848543],[139.6565774,35.6849342]],[[139.6568888,35.681976],[139.6568203,35.682751],[139.6567749,35.6832337]],[[139.6569689,35.681975],[139.6569854,35.6818183],[139.6570285,35.681649]],[[139.6566961,35.6847382],[139.6568245,35.6834893]],[[139.6565774,35.6849342],[139.6565637,35.6849865],[139.6565403,35.6850547],[139.6564648,35.6852664]],[[139.7379128,35.5782047],[139.7376034,35.5780195],[139.7373541,35.5778747],[139.7371397,35.577781],[139.7370757,35.5777578],[139.7369335,35.5777061],[139.7366986,35.5776308],[139.7363392,35.5775582],[139.7361984,35.5775446],[139.7361557,35.5775407]],[[139.7321672,35.5784053],[139.7324253,35.5783381],[139.7325331,35.5783082],[139.7335571,35.5780425],[139.733902,35.5779635],[139.7339572,35.5779508],[139.734488,35.5778251],[139.7346001,35.5777986],[139.7348306,35.5777513],[139.734981,35.5777209]],[[139.7226606,35.5808084],[139.7227449,35.5807638],[139.7228331,35.5807215],[139.7229256,35.5806817],[139.7230198,35.5806446],[139.7231124,35.5806116],[139.7232084,35.5805816],[139.7232938,35.5805573],[139.7234024,35.5805255]],[[139.7234024,35.5805255],[139.7237449,35.5804379]],[[139.7233734,35.5804541],[139.7232643,35.5804855],[139.7231667,35.5805171],[139.7230688,35.5805516],[139.7229742,35.5805884],[139.7228818,35.5806262],[139.7227904,35.580667],[139.7227019,35.5807107],[139.722617,35.5807557]],[[139.7204774,35.5825992],[139.7204435,35.5826829],[139.7204138,35.5827671],[139.7203903,35.5828517]],[[139.8666,35.6427923],[139.8671999,35.6433689]],[[139.6566654,35.6834448],[139.6566255,35.6838712],[139.6565805,35.6843236],[139.656562,35.6844863],[139.6565293,35.6847703],[139.6565133,35.6848711],[139.6564879,35.6849909],[139.656471,35.6850943],[139.6564666,35.6851802],[139.6564648,35.6852664]],[[139.6566766,35.6833445],[139.6566698,35.6834066]],[[139.6569222,35.6832804],[139.6569686,35.6827355],[139.6570104,35.6823118],[139.6570438,35.6819283],[139.6570565,35.6818205],[139.6570285,35.681649]],[[139.6569062,35.683444],[139.6569132,35.6833848]],[[139.6569018,35.6834808],[139.6569062,35.683444]],[[139.6566698,35.6834066],[139.6566654,35.6834448]],[[139.6566888,35.6832411],[139.6566766,35.6833445]],[[139.6569132,35.6833848],[139.6569222,35.6832804]],[[139.6602458,35.6624255],[139.6602605,35.6625227]],[[139.6603563,35.6623689],[139.6603024,35.6618502],[139.6602805,35.6616376]],[[139.6602605,35.6625227],[139.660273,35.6626091]],[[139.6603653,35.6624523],[139.6603563,35.6623689]],[[139.6602394,35.6623733],[139.6602458,35.6624255]],[[139.8006198,35.7785933],[139.8000413,35.7785816],[139.7992828,35.778556],[139.7986637,35.7785401],[139.7978719,35.7785142],[139.7977974,35.7785118],[139.797647,35.7785069]],[[139.7976482,35.7785867],[139.7977952,35.7785914],[139.7986754,35.7786195],[139.7995246,35.7786439],[139.8000822,35.7786558],[139.800566,35.7786775]],[[139.791947,35.7783525],[139.7911639,35.7783358]],[[139.7911608,35.7784026],[139.7919454,35.7784216]],[[139.6605284,35.6725964],[139.6605019,35.6726496]],[[139.7847964,35.7780561],[139.7846211,35.7780484],[139.7843785,35.7780379],[139.783517,35.7780004],[139.7830297,35.7779906],[139.7823005,35.7779739],[139.7821468,35.7779703]],[[139.7847963,35.778194],[139.7849585,35.7781982],[139.7860481,35.7782268],[139.7861938,35.7782305]],[[139.6599313,35.6737654],[139.6598588,35.6739075]],[[139.6598588,35.6739075],[139.6594766,35.6747115],[139.6590288,35.6755867],[139.6589622,35.6757168]],[[139.6599956,35.6739305],[139.6600581,35.6738125]],[[139.6600581,35.6738125],[139.660103,35.6737158]],[[139.6599789,35.6736758],[139.6599313,35.6737654]],[[139.8455055,35.7739276],[139.8451776,35.7743714]],[[139.8500267,35.7665668],[139.8499772,35.7666674],[139.8497519,35.7671245],[139.8496797,35.7672701],[139.8496556,35.7673188],[139.8496205,35.7673931],[139.8496001,35.7674353],[139.8492957,35.7680658],[139.8491943,35.7682758],[139.849179,35.7683074],[139.8487557,35.7691834],[139.8487246,35.7692479]],[[139.8499303,35.7670067],[139.8500485,35.7667576],[139.8500769,35.7666971],[139.8501234,35.7665981]],[[139.8212424,35.778007],[139.8210848,35.7780185],[139.8207538,35.7780428],[139.8203285,35.7780685],[139.819721,35.7781096],[139.819388,35.7781389]],[[139.8241548,35.7778124],[139.8241132,35.7778127],[139.8224319,35.7779276],[139.8213411,35.7779993]],[[139.8111212,35.7785894],[139.8100404,35.7785988],[139.8094534,35.7786045],[139.8082629,35.7786236],[139.8072272,35.7786273],[139.8058672,35.7786343]],[[139.8058496,35.7787082],[139.8072588,35.7786977],[139.8082628,35.7786947],[139.8094099,35.7786831],[139.8096487,35.7786798],[139.8100486,35.7786847],[139.8111218,35.7786665]],[[139.8262959,35.7776911],[139.8259199,35.7777078],[139.8255671,35.7777257],[139.8246054,35.7777775]],[[139.8246541,35.7778738],[139.8249912,35.7778527],[139.825625,35.7778108],[139.8263015,35.7777728]],[[139.734189,35.7696068],[139.7343026,35.7696552]],[[139.7730891,35.7781413],[139.7723805,35.778157]],[[139.772382,35.7782241],[139.7730784,35.7782226]],[[139.768217,35.7782135],[139.7675223,35.7782163]],[[139.7675021,35.7782947],[139.7682183,35.7782806]],[[139.800566,35.7786775],[139.8009789,35.7787212],[139.8012534,35.7787403],[139.8016032,35.7787547],[139.8029476,35.7787873],[139.8030715,35.7787886]],[[139.8030811,35.7785957],[139.8029488,35.7785932],[139.8019642,35.778563],[139.8015958,35.7785516],[139.8013674,35.7785477],[139.8011931,35.7785513],[139.8010507,35.7785575],[139.8006198,35.7785933]],[[139.804938,35.7787099],[139.8058496,35.7787082]],[[139.8058672,35.7786343],[139.8049343,35.7786477]],[[139.8014501,35.7786208],[139.801039,35.7786093],[139.8006198,35.7785933]],[[139.800566,35.7786775],[139.8010331,35.7786775],[139.801449,35.7786875]],[[139.8031803,35.778597],[139.8030811,35.7785957]],[[139.8030715,35.7787886],[139.8031654,35.7787885]],[[139.8111218,35.7786665],[139.8112529,35.7786635],[139.812548,35.7786599],[139.8140524,35.7786509],[139.8141444,35.7786483],[139.814374,35.7786453],[139.8155582,35.7786255],[139.8156904,35.7786202]],[[139.819388,35.7781389],[139.8192107,35.7781588],[139.8186619,35.7782212],[139.8172774,35.7783787],[139.8162502,35.7785074]],[[139.6605518,35.6501134],[139.6605555,35.6500637]],[[139.7701024,35.7781179],[139.770022,35.7781191],[139.7678191,35.778153],[139.7675223,35.7782163]],[[139.7702508,35.7783182],[139.7703671,35.7783167],[139.7709293,35.7783086],[139.7721208,35.7782905],[139.7727648,35.7782792],[139.7730072,35.7782355],[139.7730784,35.7782226]],[[139.8816133,35.702457],[139.881626,35.7023501],[139.8816772,35.7019181],[139.8817217,35.7015424],[139.8817842,35.701015],[139.8818365,35.7005778]],[[139.8813575,35.7025597],[139.8813251,35.7026867],[139.8811716,35.7032887],[139.8810106,35.7039216],[139.8808215,35.7047443],[139.8807447,35.7051973]],[[139.6540732,35.7096883],[139.6540544,35.7098316],[139.6540243,35.7101042],[139.6539577,35.710731],[139.6539314,35.7110183],[139.6538922,35.7114466],[139.6539348,35.7115523]],[[139.8675484,35.732344],[139.8674016,35.7324766],[139.8672224,35.7327439],[139.8667695,35.7334929],[139.8664441,35.7340269],[139.8663716,35.7341448],[139.8662659,35.7343168]],[[139.8665413,35.734292],[139.8666181,35.7341691],[139.8669874,35.7335779],[139.8674481,35.7328229],[139.8676069,35.7325557],[139.8676439,35.7323922]],[[139.7411581,35.7741083],[139.741033,35.7740219],[139.7407693,35.7738406],[139.7406598,35.7737636]],[[139.7405759,35.7738264],[139.7407006,35.7739081],[139.740932,35.7740607],[139.7410903,35.7741651]],[[139.7649417,35.7782249],[139.7648403,35.7782253],[139.7638648,35.7782279],[139.7635806,35.7782287],[139.7625799,35.7782288],[139.7620194,35.7782212],[139.7613962,35.7782188],[139.7609392,35.7782195],[139.7606695,35.7782188],[139.7605463,35.7782205]],[[139.7605518,35.7783151],[139.7606682,35.7783126],[139.7611936,35.7783142],[139.7620121,35.778319],[139.7635771,35.7783264],[139.764845,35.7783322],[139.7649374,35.7783328]],[[139.7560659,35.7784729],[139.7562447,35.7784683],[139.7569231,35.7784434],[139.7574545,35.7784233],[139.75807,35.7784001],[139.7596564,35.7783448],[139.7604429,35.7783164],[139.7605518,35.7783151]],[[139.7520511,35.5836534],[139.7525082,35.583845]],[[139.7204253,35.5830853],[139.7204739,35.5828618],[139.7204888,35.582804],[139.7205051,35.582747],[139.7205249,35.5826895],[139.7205471,35.5826322]],[[139.6987238,35.6024628],[139.6984396,35.6027048],[139.6981242,35.6029665],[139.6979359,35.6031549]],[[139.7103963,35.5962246],[139.7101985,35.5963603],[139.7097493,35.5966202],[139.709585,35.5967153]],[[139.7107294,35.5960315],[139.7103963,35.5962246]],[[139.7112438,35.5958588],[139.7118491,35.5955145],[139.7120674,35.5953863],[139.7121249,35.5953526]],[[139.7103216,35.5963956],[139.7107439,35.5961466]],[[139.7107439,35.5961466],[139.7108526,35.5960851],[139.7110129,35.5959918],[139.7110576,35.5959658],[139.7112438,35.5958588]],[[139.6614712,35.6689982],[139.6614586,35.6689106],[139.6614079,35.6686452],[139.6612611,35.6678269],[139.6612314,35.6676486],[139.6611659,35.6672457],[139.6610317,35.6665372],[139.6609059,35.6658247],[139.6608728,35.6656519],[139.6608124,35.6653069],[139.6607469,35.6648888],[139.6606574,35.664345],[139.6605756,35.6638068],[139.6605372,35.6635562]],[[139.6613789,35.6690341],[139.6614143,35.6692253],[139.661469,35.6695205],[139.6615177,35.6698101],[139.6615449,35.6700575],[139.6615478,35.6702187],[139.6615364,35.6703736],[139.6615241,35.6704993],[139.661481,35.6706867],[139.661412,35.6708632],[139.661369,35.6709521],[139.6611537,35.6713547],[139.6610722,35.6715111],[139.6609471,35.671752],[139.6606798,35.6723017]],[[139.6614865,35.6690989],[139.6614712,35.6689982]],[[139.6600188,35.6546427],[139.6600061,35.6547663],[139.6599594,35.6552061],[139.6599343,35.6554938],[139.6599023,35.6557565],[139.659888,35.6559795],[139.6598873,35.6562518],[139.6598991,35.6567594],[139.6599008,35.6568818]],[[139.6601368,35.6545857],[139.6601617,35.6544158],[139.6602168,35.653905],[139.6602476,35.6535537],[139.6602705,35.6533452],[139.6602994,35.6530062],[139.6603275,35.6525229],[139.6603834,35.6516012],[139.6603916,35.6514656]],[[139.8302918,35.7774861],[139.8301305,35.7774974]],[[139.8389892,35.7767718],[139.8388729,35.7767839],[139.8382008,35.7768466],[139.8368716,35.776989],[139.8363043,35.7770458],[139.8362133,35.7770562]],[[139.8362237,35.7771252],[139.8363184,35.7771138],[139.8382111,35.7769267],[139.8388846,35.7768514],[139.8389995,35.7768395]],[[139.8162502,35.7785074],[139.8158228,35.7785412],[139.8157053,35.7785472]],[[139.8156904,35.7786202],[139.8158305,35.7786099],[139.8162424,35.7785761]],[[139.8438168,35.7758102],[139.8439782,35.7757084],[139.8441459,35.7755948],[139.8442213,35.775538],[139.8443623,35.7754317],[139.8444956,35.7753288]],[[139.8487246,35.7692479],[139.8486843,35.7693319],[139.848515,35.7696851],[139.848251,35.7702138],[139.8482043,35.7703073]],[[139.7651395,35.7783326],[139.7652474,35.7783317],[139.7663831,35.77831],[139.7675021,35.7782947]],[[139.7675223,35.7782163],[139.7672344,35.7782158],[139.7666951,35.7782188],[139.7656917,35.7782224],[139.7652458,35.778223],[139.7651395,35.778223]],[[139.7651395,35.778223],[139.7649417,35.7782249]],[[139.7649374,35.7783328],[139.7651395,35.7783326]],[[139.7690803,35.7783271],[139.7693034,35.7783245],[139.7696961,35.7783206],[139.7700199,35.7783196],[139.7700989,35.7783194],[139.7702508,35.7783182]],[[139.7255082,35.7670249],[139.7245789,35.7667624]],[[139.7254807,35.7670778],[139.7269093,35.7674825]],[[139.660679,35.6447442],[139.6606708,35.6449112],[139.6606356,35.6455113],[139.6606168,35.6459677]],[[139.8731032,35.7239366],[139.8734579,35.7235547]],[[139.8734063,35.7234666],[139.8730115,35.7238764]],[[139.8817172,35.6996495],[139.8816748,35.7005692]],[[139.8809404,35.7045116],[139.880881,35.704751],[139.8807447,35.7051973]],[[139.8808746,35.7052406],[139.8809672,35.7047616],[139.8810289,35.7045273]],[[139.8767605,35.7198993],[139.8757948,35.7209206]],[[139.8758906,35.720935],[139.8768254,35.7199402]],[[139.8731251,35.6623782],[139.8731148,35.6622442],[139.8731032,35.6621008],[139.8730962,35.6619929],[139.8730122,35.660665],[139.8730036,35.6605172],[139.8729923,35.6603702]],[[139.8728141,35.6603937],[139.8728229,35.6605262],[139.8728476,35.6609667],[139.872917,35.6620284],[139.8729265,35.6621408]],[[139.8713981,35.647409],[139.8714861,35.6475474],[139.8716399,35.6478418],[139.8718705,35.6484514],[139.8718918,35.64852],[139.8719145,35.64859],[139.871951,35.6487571],[139.8719788,35.6489121],[139.8720873,35.6502329],[139.872094,35.6503181],[139.8720997,35.6503903],[139.8721466,35.6510113],[139.8722233,35.65204],[139.872233,35.6521757]],[[139.872405,35.6521528],[139.872395,35.6520254],[139.8723254,35.6509959],[139.8722865,35.6503768],[139.8722781,35.6503007],[139.8722738,35.6502205],[139.8721842,35.6491765],[139.8721528,35.6489223],[139.8721254,35.648743],[139.872091,35.648577],[139.87207,35.6485054],[139.8720497,35.6484365],[139.8718759,35.6479825],[139.8716379,35.6474944],[139.8715646,35.6473668]],[[139.8729941,35.6631387],[139.8730042,35.6633]],[[139.8731694,35.6629922],[139.8731607,35.6628667],[139.8731251,35.6623782]],[[139.8697765,35.6455363],[139.8696003,35.6453763],[139.8683295,35.6442072],[139.8679391,35.6438481],[139.8673558,35.6433114]],[[139.8671999,35.6433689],[139.8694797,35.6454652],[139.8696208,35.645595]],[[139.8731728,35.6630478],[139.8731694,35.6629922]],[[139.8724105,35.6522538],[139.872405,35.6521528]],[[139.872233,35.6521757],[139.8722384,35.6522754]],[[139.8727387,35.6592514],[139.8727489,35.6593988],[139.8727932,35.6600947],[139.8728024,35.6602415]],[[139.872983,35.660221],[139.8729748,35.6600872],[139.8729269,35.6594684],[139.8729094,35.6592869],[139.8728962,35.6591468]],[[139.7121249,35.5953526],[139.7121815,35.5953201],[139.7124361,35.5951727],[139.7129917,35.5948491],[139.7132514,35.5947068],[139.7143465,35.594119],[139.7146813,35.5939229],[139.7147668,35.5938732],[139.7162339,35.5930686],[139.7163023,35.5930262],[139.7163792,35.5929831],[139.7164722,35.5929351],[139.7166745,35.5928231],[139.7169418,35.5926797],[139.7173499,35.5924536],[139.7175605,35.5923341],[139.7176896,35.5922629],[139.7178018,35.5921963],[139.7178908,35.5921396],[139.7179791,35.5920783],[139.7180658,35.592013],[139.718203,35.5919],[139.7182917,35.5918173]],[[139.7120579,35.5952943],[139.7114276,35.5956534]],[[139.7112186,35.5957649],[139.7111599,35.5958005]],[[139.7110293,35.5958791],[139.7109951,35.5958998],[139.7107294,35.5960315]],[[139.7114276,35.5956534],[139.7112937,35.5957248],[139.7112186,35.5957649]],[[139.7111599,35.5958005],[139.7110293,35.5958791]],[[139.8731726,35.66548],[139.8731336,35.6655981],[139.8731748,35.6663649]],[[139.7477631,35.5821783],[139.7483859,35.5823896],[139.7484656,35.5824166],[139.7486752,35.5824929]],[[139.7486752,35.5824929],[139.7488294,35.5825478]],[[139.7488798,35.5824252],[139.7487288,35.5823709]],[[139.7501138,35.5828347],[139.7495738,35.5826688]],[[139.753677,35.5842892],[139.7543473,35.5844576],[139.7546369,35.5845232],[139.7547071,35.5845382],[139.7549217,35.584584]],[[139.7351215,35.7701672],[139.7352484,35.7702521],[139.7353941,35.7703365],[139.7356232,35.7704374]],[[139.7356781,35.7703884],[139.7354785,35.7701907],[139.7352623,35.7700279]],[[139.6606798,35.6723017],[139.6606684,35.6723234],[139.660624,35.6724115]],[[139.6607251,35.6724351],[139.6607678,35.6723515]],[[139.6605399,35.6728029],[139.6605525,35.6727813],[139.6606048,35.6726778]],[[139.7558834,35.5844014],[139.755435,35.5843413],[139.7549867,35.5842586]],[[139.7448353,35.5810423],[139.7446176,35.5809666]],[[139.7458532,35.5813962],[139.7456413,35.5813225]],[[139.6929644,35.6091932],[139.6927552,35.6093329],[139.6927121,35.6093628]],[[139.6930693,35.6092446],[139.6931968,35.6091562],[139.6935658,35.6089003],[139.6938677,35.6086988],[139.6939747,35.6086205],[139.6940529,35.6085568],[139.6942492,35.6083691],[139.6944095,35.6081923],[139.6949016,35.6075248],[139.6949728,35.6074214],[139.6950501,35.6073254],[139.6950631,35.6073043],[139.6956977,35.6063984],[139.6958378,35.6061889],[139.6960634,35.6058282]],[[139.6927121,35.6093628],[139.6918031,35.6099528],[139.6917323,35.6099993],[139.6912495,35.6103006],[139.6909628,35.6105018],[139.6905778,35.6107436],[139.6902486,35.6109651],[139.6900666,35.6110733],[139.6896946,35.6113206],[139.6890278,35.6117629],[139.6884166,35.6121868],[139.687826,35.6125658],[139.6877625,35.6126024],[139.6869578,35.6130623]],[[139.6607003,35.6724828],[139.6607251,35.6724351]],[[139.6989491,35.6024401],[139.6991219,35.6022945],[139.6994939,35.6019813],[139.6996477,35.6018595],[139.699706,35.6018134],[139.6997463,35.6017815],[139.6998213,35.6017221],[139.6999822,35.6016012],[139.7004158,35.6012451],[139.7007043,35.6010247],[139.7009123,35.6008498],[139.7012242,35.60061],[139.7013916,35.600496],[139.7017653,35.6003083],[139.7018345,35.6002779],[139.702491,35.5999901],[139.7028049,35.5998524]],[[139.7028049,35.5998524],[139.7031187,35.5997146],[139.7034863,35.5995517],[139.7035756,35.5995121],[139.7037253,35.5994457]],[[139.8497468,35.767391],[139.8497681,35.7673466],[139.8499303,35.7670067]],[[139.8729265,35.6621408],[139.8729367,35.6622857],[139.872979,35.6628735],[139.8729855,35.6630018]],[[139.8729923,35.6603702],[139.872983,35.660221]],[[139.8715646,35.6473668],[139.8715427,35.6473334]],[[139.8696208,35.645595],[139.8696836,35.6456532]],[[139.8698421,35.6455944],[139.8697765,35.6455363]],[[139.8732236,35.6639554],[139.8732144,35.6638376],[139.8732107,35.6637305],[139.8731873,35.6633072]],[[139.8730513,35.6639952],[139.8731052,35.6647831],[139.8731627,35.665374],[139.8731726,35.66548]],[[139.8774918,35.6745868],[139.8773141,35.6742955],[139.8770237,35.6737625]],[[139.8769119,35.6737961],[139.8771921,35.6743271],[139.8772863,35.6745436]],[[139.8730042,35.6633],[139.8730082,35.6633635]],[[139.8813442,35.6831719],[139.8813851,35.683283],[139.8814518,35.6834929],[139.881781,35.6845744]],[[139.8820785,35.6849538],[139.8819192,35.6843698],[139.8817417,35.6837405],[139.8816032,35.6832901],[139.8815697,35.683184],[139.8815398,35.6831026]],[[139.881485,35.7015031],[139.88147,35.7016375],[139.881384,35.7023626],[139.8813712,35.7024703],[139.8813575,35.7025597]],[[139.8818365,35.7005778],[139.8818749,35.7002422],[139.8818819,35.7000348],[139.8818828,35.6997759]],[[139.8673764,35.732799],[139.8676439,35.7323922]],[[139.8675484,35.732344],[139.8674335,35.7325369],[139.8672993,35.7327692]],[[139.6607678,35.6723515],[139.660941,35.672012],[139.6612552,35.6714071],[139.6613548,35.6712065]],[[139.660338,35.6509487],[139.6603106,35.6512957],[139.6602876,35.6514545]],[[139.6603916,35.6514656],[139.6604204,35.6509536]],[[139.705238,35.598683],[139.7044493,35.5990311],[139.7042949,35.599099]],[[139.7042949,35.599099],[139.7039376,35.5992563],[139.7038535,35.5992933],[139.7037106,35.5993562]],[[139.7185775,35.5912407],[139.7185329,35.5913422],[139.7184363,35.5915088],[139.7183118,35.5916641]],[[139.7188625,35.5901557],[139.7188234,35.5903631],[139.7188099,35.5904183]],[[139.7190987,35.5890268],[139.7189569,35.5897167],[139.7188785,35.590071],[139.7188625,35.5901557]],[[139.7195989,35.5866052],[139.7195873,35.5866595],[139.7193819,35.5876219],[139.7193688,35.5876813],[139.7192497,35.5883101],[139.7191769,35.588656],[139.7190987,35.5890268]],[[139.7297394,35.5788151],[139.7290402,35.5789871],[139.7281958,35.5792044],[139.7281177,35.5792242],[139.7280242,35.5792486]],[[139.7279231,35.5792712],[139.7277635,35.5793178],[139.7267637,35.5795701],[139.7265374,35.5796337],[139.7264456,35.5796598],[139.7263018,35.5797],[139.7260295,35.5797624],[139.7259181,35.5797879],[139.725733,35.5798378],[139.7254103,35.5799247],[139.7251326,35.5799995],[139.7237162,35.5803675]],[[139.7361557,35.5775407],[139.7360547,35.5775346],[139.7360017,35.5775314],[139.7357639,35.5775184],[139.7356592,35.5775222],[139.7355108,35.5775277],[139.7354019,35.5775423],[139.735261,35.5775625]],[[139.7395483,35.5791363],[139.7392843,35.5789879],[139.7389807,35.5787987],[139.7388358,35.5787127],[139.7387977,35.5786924],[139.7386007,35.5785839],[139.7380077,35.578257],[139.7379128,35.5782047]],[[139.8690059,35.7301797],[139.8692488,35.7297722]],[[139.6560712,35.6862976],[139.6560597,35.6863279],[139.6558469,35.6868597],[139.6557021,35.6872216],[139.6556914,35.6872483],[139.6556314,35.6874131]],[[139.6557693,35.6874416],[139.655832,35.6872766],[139.6559674,35.6868762],[139.6561508,35.686401],[139.6561718,35.6863436]],[[139.6546695,35.7063346],[139.6547604,35.7056006]],[[139.6546636,35.7051082],[139.6546482,35.70524],[139.6546309,35.7053704],[139.6546232,35.7054471],[139.6546088,35.7055729]],[[139.6589622,35.6757168],[139.6589256,35.6757917],[139.6588357,35.6759759],[139.6586085,35.6763991],[139.6583168,35.6769717],[139.6581986,35.677193],[139.6581287,35.6773377],[139.6580508,35.6774901],[139.657741,35.6781075],[139.6575278,35.6785274],[139.657363,35.6788441],[139.657285,35.6790066],[139.6572021,35.6791676],[139.6571277,35.6794713],[139.6571086,35.6796592],[139.6570804,35.6799364],[139.657053,35.6802]],[[139.6590524,35.6757692],[139.6593452,35.6752025],[139.6595683,35.6747743],[139.6598112,35.6742797],[139.6599956,35.6739305]],[[139.722617,35.5807557],[139.7225014,35.5808243],[139.7223896,35.5808951],[139.7221884,35.5810342]],[[139.7222392,35.5810828],[139.7224385,35.5809453],[139.7225479,35.5808749],[139.7226606,35.5808084]],[[139.7208356,35.5820345],[139.7208133,35.5820567],[139.7207541,35.5821284],[139.7206987,35.5822031],[139.7206477,35.5822782],[139.7205999,35.5823558],[139.7205554,35.5824346],[139.7205156,35.5825159],[139.7204774,35.5825992]],[[139.7205471,35.5826322],[139.7206047,35.5825109],[139.7206615,35.5823971],[139.720729,35.5822888],[139.7208038,35.5821835],[139.7208959,35.5820688]],[[139.735261,35.5775625],[139.7351316,35.577598]],[[139.734981,35.5777209],[139.7351181,35.5776909]],[[139.7453022,35.5813118],[139.7458084,35.5814837]],[[139.7441521,35.5808053],[139.7422675,35.5801553]],[[139.6747224,35.7455314],[139.6749412,35.7456905],[139.6752571,35.7459274]],[[139.7280242,35.5792486],[139.7279231,35.5792712]],[[139.7263595,35.5797629],[139.7264724,35.5797323],[139.7271325,35.5795474],[139.7277305,35.5793956],[139.7277906,35.5793805],[139.7279603,35.5793391]],[[139.4114366,35.4636511],[139.4114207,35.4636115],[139.4114178,35.4636042],[139.4113881,35.4635229],[139.411261,35.4632374],[139.4111186,35.4629511],[139.4110985,35.4629143],[139.4110818,35.4628838],[139.4109235,35.4625904],[139.4107837,35.4623549],[139.41077,35.4623238],[139.4107716,35.4623004]],[[139.6868063,35.6131599],[139.6867016,35.6132349]],[[139.6867016,35.6132349],[139.6866073,35.6133027],[139.6862291,35.6135971],[139.6858639,35.6138667],[139.6854058,35.6142082],[139.6852138,35.6143493],[139.6850786,35.6144507],[139.6844612,35.6149116],[139.6840247,35.6152414],[139.683677,35.6155017],[139.683546,35.6155957],[139.6834425,35.6156965],[139.6833639,35.6157729],[139.6832655,35.6158979],[139.683017,35.616217],[139.6828492,35.6164958],[139.6826448,35.6168319],[139.6825095,35.6170537],[139.6822096,35.6175395],[139.6821616,35.6176225],[139.68172,35.6184323],[139.6815345,35.618725],[139.6814433,35.6188541]],[[139.6867314,35.6133362],[139.6868564,35.6132591],[139.6870317,35.6131502]],[[139.6870317,35.6131502],[139.6877315,35.6127207],[139.6878234,35.6126623],[139.6884776,35.6122469],[139.6887941,35.6120255],[139.6890805,35.6118344],[139.6895656,35.6115107],[139.6899338,35.6112645],[139.6902001,35.6110865],[139.6906635,35.6107793],[139.6908584,35.6106503],[139.6912055,35.6104241],[139.6917921,35.6100417],[139.6918498,35.6100066],[139.6924928,35.6096149],[139.6927951,35.6094228],[139.6928614,35.6093807],[139.6930693,35.6092446]],[[139.6869578,35.6130623],[139.6868584,35.613122],[139.6868063,35.6131599]],[[139.6604355,35.6628931],[139.6604059,35.6627003]],[[139.6601264,35.6612798],[139.6601337,35.6613541],[139.6601525,35.6615482]],[[139.6602903,35.6627067],[139.6603181,35.6628643],[139.6603666,35.6631303],[139.660388,35.663254],[139.6604228,35.6634743],[139.6604672,35.6637702]],[[139.6606168,35.6459677],[139.6606153,35.6459921],[139.6606142,35.6460085],[139.6606107,35.6460638],[139.6606093,35.6460906],[139.6606066,35.6461461]],[[139.6607132,35.6458996],[139.6607356,35.6455838],[139.6607559,35.6452655],[139.6607762,35.6447406]],[[139.6606974,35.6461618],[139.6607009,35.6461064],[139.6607026,35.646079],[139.6607064,35.64601],[139.6607076,35.645995],[139.6607132,35.6458996]],[[139.7182917,35.5918173],[139.7183649,35.5917453],[139.7184253,35.5916744]],[[139.8317927,35.7774799],[139.8319311,35.7774726],[139.8319747,35.7774703]],[[139.8338166,35.7773715],[139.8338955,35.7773654],[139.8350662,35.7772446],[139.8362237,35.7771252]],[[139.8362133,35.7770562],[139.8351596,35.7771598],[139.8338866,35.7772903],[139.8338129,35.777298]],[[139.8319253,35.7773928],[139.8312188,35.777431],[139.8304264,35.7774783],[139.8302918,35.7774861]],[[139.8301359,35.7775719],[139.8302976,35.777563],[139.8304338,35.7775532],[139.8312179,35.7775104],[139.8317927,35.7774799]],[[139.8211015,35.7780961],[139.8212548,35.7780853],[139.8213513,35.7780804]],[[139.8213411,35.7779993],[139.8212424,35.778007]],[[139.8319706,35.7773903],[139.8319253,35.7773928]],[[139.8413459,35.7765233],[139.8412411,35.7765366],[139.8407929,35.7765793]],[[139.8408022,35.7766494],[139.8411524,35.7766159],[139.8413607,35.7765861]],[[139.865188,35.7362141],[139.8648107,35.7368326],[139.8642957,35.7376536],[139.8637258,35.7386054]],[[139.8638238,35.7386414],[139.8643845,35.7376932],[139.8648884,35.7368631],[139.8652655,35.7362517]],[[139.8652655,35.7362517],[139.8654553,35.735922]],[[139.865384,35.7359037],[139.865188,35.7362141]],[[139.6540623,35.7104522],[139.6539348,35.7115523]],[[139.6539845,35.7118526],[139.6541347,35.7104544]],[[139.653696,35.7171102],[139.6537109,35.7172349]],[[139.6537516,35.7235853],[139.6538122,35.7257911]],[[139.6538122,35.7257911],[139.6538343,35.7262053],[139.6538765,35.7266355],[139.6539014,35.7267824]],[[139.6590018,35.7316512],[139.6589446,35.7316018],[139.6588704,35.7315354],[139.6587866,35.7314595],[139.6577535,35.7305638],[139.6573004,35.7301671],[139.6570199,35.7299216],[139.6569488,35.72986],[139.6552616,35.7283696],[139.6551681,35.7282778]],[[139.6539058,35.7255243],[139.6538355,35.7235825]],[[139.6538249,35.7211628],[139.6538263,35.720982],[139.6538259,35.7209477],[139.6538282,35.7208951]],[[139.6593289,35.7319363],[139.6590018,35.7316512]],[[139.6543746,35.7076747],[139.6543642,35.7079899],[139.654319,35.7083966]],[[139.6543781,35.7084023],[139.6544772,35.7078285]],[[139.653741,35.7209037],[139.6537411,35.7209563],[139.6537405,35.7209879],[139.653736,35.7211606]],[[139.6615517,35.6398101],[139.6616389,35.639649],[139.6616426,35.6396421],[139.66169,35.6395546],[139.6619565,35.6390353],[139.6623293,35.6383226],[139.6624435,35.6380945],[139.6624735,35.6379099]],[[139.8728024,35.6602415],[139.8728141,35.6603937]],[[139.8501234,35.7665981],[139.8501699,35.7665057],[139.850337,35.7661735],[139.8504645,35.7659093],[139.8507623,35.7652947],[139.8508249,35.7651721],[139.8508723,35.765077],[139.8509018,35.7650201],[139.8511116,35.7646109],[139.8513908,35.7640238],[139.8514712,35.7638439],[139.8514983,35.7637901]],[[139.8514983,35.7637901],[139.8516223,35.7635338]],[[139.8516223,35.7635338],[139.8516564,35.7634613]],[[139.8516564,35.7634613],[139.8517538,35.7632884]],[[139.8536545,35.7590533],[139.8533707,35.7595968],[139.8531624,35.7599988],[139.8531259,35.7600697],[139.8530566,35.7602038],[139.8528813,35.7605413],[139.8528593,35.7605814],[139.8527426,35.7608156],[139.8524998,35.7612359],[139.8523209,35.7616052],[139.8522998,35.7616511],[139.8521667,35.7619363]],[[139.8521667,35.7619363],[139.8520818,35.7621392],[139.8520653,35.7621755]],[[139.8520653,35.7621755],[139.8519403,35.7624493],[139.8518343,35.7626793]],[[139.8518343,35.7626793],[139.8517764,35.7627623]],[[139.8517764,35.7627623],[139.8516991,35.7629285],[139.8516727,35.7629892]],[[139.7350914,35.5776067],[139.7349565,35.577636]],[[139.7351181,35.5776909],[139.735156,35.5776825]],[[139.7351316,35.577598],[139.7350914,35.5776067]],[[139.735156,35.5776825],[139.7352884,35.5776532]],[[139.7157153,35.7641782],[139.7158293,35.7642073],[139.7163319,35.764333],[139.7166901,35.7644232],[139.7168787,35.7644702]],[[139.7168787,35.7644702],[139.7169981,35.7644999],[139.7172321,35.7645677],[139.7176378,35.764704],[139.7185058,35.7649933],[139.7190184,35.765171],[139.7190729,35.7651953]],[[139.7195613,35.7653468],[139.7192853,35.7652012],[139.719254,35.7651888],[139.7190103,35.7650927],[139.7189507,35.7650689],[139.7186109,35.7649503]],[[139.7186109,35.7649503],[139.718399,35.7648764],[139.7179948,35.764749],[139.7178475,35.7646992],[139.7176757,35.7646413],[139.7174555,35.7645669],[139.7171456,35.7644654],[139.7169091,35.7643994],[139.7161909,35.7642194],[139.7157639,35.7641135]]]}}]}
