{"type":"FeatureCollection","features":[{"type":"Feature","properties":{"id":"tokyo-prefectural-311","name":"東京都道311号環状八号線","aliases":["都道311号","東京都道311号","環状八号線","環八通り","環八","環8"],"type":"road","roadClass":"prefectural","routeNumber":"311","jurisdiction":"Tokyo","geometrySource":"osm","source":["OpenStreetMap"],"license":"ODbL 1.0","confidence":"high","note":"OSM reference geometry used to identify and validate the canonical road.","provenance":{"provider":"cache","path":"data/cache/osm/references/tokyo-prefectural-311-osm.geojson"}},"geometry":{"type":"MultiLineString","coordinates":[[[139.7911533,35.5417615],[139.7913193,35.5418251],[139.791782,35.5420478],[139.7920985,35.5421977],[139.7921917,35.5422107]],[[139.6493052,35.7561634],[139.6492212,35.7561139],[139.648536,35.7557501],[139.6483289,35.7556487],[139.6479316,35.7554406],[139.6476763,35.7553012],[139.647608,35.7552649],[139.6472684,35.7550768],[139.6472105,35.7550448]],[[139.6779394,35.5891316],[139.6779869,35.5890528],[139.6780629,35.5889407],[139.6784369,35.5883297],[139.6791586,35.5871613],[139.6793222,35.5868521],[139.6793967,35.5866605]],[[139.7886997,35.5406142],[139.7889081,35.5407116],[139.7894521,35.5409964],[139.7897445,35.5410826],[139.7901974,35.5412941],[139.7907517,35.5415734]],[[139.6696555,35.5996222],[139.6697447,35.5996073],[139.6698686,35.5996073],[139.6705389,35.5996071],[139.6708126,35.5995977],[139.6710638,35.5995917],[139.67159,35.599562],[139.6716582,35.5995558],[139.6719935,35.5995308],[139.6723416,35.5995128],[139.6730617,35.5994711],[139.6731373,35.5994659]],[[139.7887453,35.5405474],[139.787847,35.5401694],[139.7876789,35.5401049],[139.787498,35.5400436],[139.7872641,35.5399741],[139.7871037,35.5399349],[139.7869056,35.5398885],[139.786696,35.5398535],[139.7864549,35.5398174],[139.786234,35.5397901],[139.7860001,35.539771],[139.7857544,35.5397613],[139.7855177,35.5397589],[139.7845501,35.5397925],[139.7842296,35.5397884],[139.7839774,35.5397718],[139.7837283,35.5397469],[139.7835248,35.5397208],[139.7833598,35.5396915],[139.7831662,35.5396453],[139.7829912,35.5396001],[139.7828068,35.539537],[139.7826135,35.539465],[139.7824175,35.5393829],[139.7822145,35.5392723],[139.7816124,35.5389241]],[[139.7696071,35.541348],[139.7694611,35.5414054],[139.769369,35.541446],[139.7689588,35.5416267],[139.7686049,35.5417786],[139.7680203,35.5420304],[139.767487,35.5422673],[139.7670582,35.5424507],[139.7666137,35.5426448]],[[139.7666137,35.5426448],[139.7659995,35.5429431],[139.7653884,35.5432651],[139.7651472,35.5433837],[139.7649283,35.5434817],[139.7646236,35.5436127],[139.7643152,35.5437336],[139.7633992,35.5441158]],[[139.7527097,35.5505496],[139.7526441,35.5505624],[139.7525875,35.5505704],[139.7521552,35.5506453],[139.7519034,35.5506889],[139.7512948,35.5508011],[139.7509765,35.5508584],[139.7508559,35.5508782],[139.75039,35.5509645],[139.7502024,35.5509983]],[[139.6473004,35.6050181],[139.6464689,35.6052461],[139.6459668,35.6053867]],[[139.620775,35.6375829],[139.6216677,35.6363992]],[[139.6225745,35.6352611],[139.6230651,35.6346155],[139.6235432,35.633982],[139.6238271,35.6336102],[139.6245275,35.6326987],[139.6245787,35.6326306],[139.6246314,35.6325569],[139.6248058,35.6322933],[139.6248687,35.6321919],[139.6249617,35.6320295],[139.6250738,35.6317996],[139.6251652,35.6315716],[139.6253596,35.6309881],[139.6255384,35.6303944],[139.6258597,35.6294005],[139.6258971,35.6292865]],[[139.6216677,35.6363992],[139.6220523,35.6358985],[139.6225745,35.6352611]],[[139.6207081,35.6375507],[139.6201459,35.6382898],[139.6200339,35.6384555],[139.6198152,35.6389772]],[[139.6175767,35.6950694],[139.617407,35.6945129],[139.6173164,35.6941818],[139.6172958,35.6941079],[139.617235,35.6939086],[139.6172003,35.6937966],[139.616987,35.6931035],[139.6169163,35.6928784],[139.6168866,35.6927619],[139.6168695,35.692695],[139.6167955,35.6923439],[139.6167342,35.6919318],[139.6167301,35.6918927]],[[139.6216005,35.6363656],[139.6207081,35.6375507]],[[139.6174586,35.695046],[139.6174887,35.6951427],[139.6177245,35.6959321]],[[139.6140622,35.7187727],[139.6140748,35.7198603],[139.6141703,35.7218377],[139.6142425,35.723324],[139.61425037762942,35.723503948493594]],[[139.61425037762942,35.723503948493594],[139.6143393,35.7255352],[139.614363074029,35.72612944750913]],[[139.614363074029,35.72612944750913],[139.6144775,35.7289896],[139.6144999,35.7309199],[139.614552,35.7323295],[139.6145555,35.7331415]],[[139.6394482,35.7509372],[139.6395677,35.7510017],[139.6396939,35.751074],[139.6401834,35.7513432],[139.6403219,35.7514194],[139.6405943,35.7515678]],[[139.6388685,35.7505642],[139.6384577,35.7503402]],[[139.6141502,35.7187765],[139.6142797,35.7173252]],[[139.6143109,35.716997],[139.6143351,35.7167704],[139.6143758,35.7164166],[139.6144034,35.7160681],[139.6144776,35.7152357],[139.6144831,35.7151793],[139.6144937,35.7150703]],[[139.6139926,35.7190839],[139.6139913,35.7192094],[139.6139905,35.7192919],[139.6139928,35.7196776],[139.6140352,35.7203741],[139.6140465,35.7206297],[139.6141041,35.7210333],[139.6141243,35.7213359],[139.6141349,35.721709],[139.6141379,35.7218158],[139.6141414,35.7218995],[139.6141458,35.7220068],[139.6141528,35.7221773],[139.6141952,35.7229588],[139.6142165,35.7233028],[139.6142211,35.7233916]],[[139.6472105,35.7550448],[139.6470869,35.7549635],[139.6469204,35.754854],[139.6468545,35.7548107],[139.6466555,35.7546854],[139.6458512,35.7542522],[139.645545,35.7540895],[139.6450757,35.7538348],[139.6443292,35.7534479],[139.644232,35.7533956],[139.6435164,35.7530031],[139.6422886,35.7523371],[139.6419211,35.7521412],[139.6418395,35.7520972],[139.6413908,35.7518554],[139.6409446,35.7516149],[139.6406163,35.7514372],[139.6404566,35.7513612]],[[139.6634362,35.7633649],[139.6642373,35.7637534],[139.6643757,35.7638244],[139.6644943,35.7638904],[139.6646082,35.7639577],[139.6647111,35.7640206],[139.6648123,35.7640859],[139.6649009,35.7641433],[139.6649849,35.7642032],[139.6656187,35.764663]],[[139.6656187,35.764663],[139.6657746,35.7647772],[139.6660199,35.7649534],[139.6662636,35.765132],[139.6665012,35.7653056],[139.6666151,35.7653953],[139.6667273,35.7654921],[139.6668915,35.7656556]],[[139.6656748,35.7646127],[139.6650449,35.7641533],[139.6648729,35.764035],[139.664691,35.7639209],[139.664564,35.7638452],[139.664417,35.7637645],[139.6642802,35.7636925],[139.6638431,35.7634813],[139.6634807,35.7633057]],[[139.6634807,35.7633057],[139.6623102,35.7627395],[139.6621596,35.7626699]],[[139.6668915,35.7656556],[139.6672627,35.7660687],[139.6696852,35.7692835]],[[139.6696852,35.7692835],[139.6705302,35.7703882]],[[139.6697767,35.7692464],[139.6669738,35.7656082]],[[139.6765914,35.7760549],[139.6767976,35.7762188],[139.6769637,35.776335],[139.6771505,35.7764497],[139.6772774,35.7765146],[139.6773932,35.7765677],[139.6775181,35.7766197],[139.6777209,35.7766915],[139.6778921,35.7767402]],[[139.6778921,35.7767402],[139.6780734,35.776789],[139.6781567,35.7768115],[139.6792879,35.7771098],[139.6797225,35.7772275]],[[139.6779218,35.7766638],[139.6777551,35.7766167],[139.677561,35.776549],[139.6773762,35.7764692],[139.6771991,35.7763734],[139.6770286,35.7762695],[139.6768703,35.7761581],[139.6766628,35.7759969]],[[139.6755341,35.7750545],[139.6749263,35.7745442],[139.6735824,35.7734081],[139.6725548,35.7725069],[139.6724487,35.7724124],[139.6721029,35.772114],[139.6719884,35.7720126],[139.6718783,35.7719099],[139.6717743,35.7718139],[139.6712072,35.7711234],[139.6708482,35.7706534],[139.6703122,35.7699614]],[[139.6165609,35.6909252],[139.6161392,35.6880747]],[[139.6164858,35.690934],[139.6165649,35.6914585]],[[139.676528,35.5910457],[139.6766643,35.5909348],[139.6768603,35.5906775],[139.677251,35.5900995],[139.6774771,35.5897795],[139.677558,35.589665],[139.6775849,35.5896133],[139.6777332,35.5894414],[139.6777407,35.5894305],[139.6778374,35.5892885],[139.6778753,35.589233],[139.6779394,35.5891316]],[[139.676528,35.5910457],[139.6769105,35.5904759]],[[139.6772224,35.590015],[139.677956,35.5889414],[139.6789421,35.5873496]],[[139.6789421,35.5873496],[139.6791098,35.5870766]],[[139.6769105,35.5904759],[139.6772224,35.590015]],[[139.6791098,35.5870766],[139.6792659,35.5868344],[139.6793967,35.5866605]],[[139.6793967,35.5866605],[139.6795229,35.58645],[139.6797695,35.5860388],[139.6800112,35.5856637],[139.6800527,35.5855993],[139.6800938,35.5855304],[139.6804324,35.5849631],[139.6804736,35.5848938],[139.6805922,35.5847104],[139.6806956,35.5845466]],[[139.6788724,35.5873079],[139.6778686,35.5889106],[139.6771446,35.5899838]],[[139.6771446,35.5899838],[139.6768639,35.5903829]],[[139.645255,35.6057291],[139.6459793,35.6055262]],[[139.6452295,35.605654],[139.6448778,35.6057365]],[[139.6501445,35.6042933],[139.6497389,35.6044187],[139.6488133,35.6046722]],[[139.667343,35.6000663],[139.667266,35.6000847]],[[139.6675541,35.6000191],[139.667343,35.6000663]],[[139.6675629,35.6001114],[139.6676836,35.600084],[139.6682894,35.5999542],[139.6686745,35.5998687],[139.6687814,35.5998447],[139.6688637,35.5998228],[139.6690513,35.5997451],[139.6692147,35.5996784]],[[139.6692147,35.5996784],[139.6693646,35.5996],[139.6695323,35.5995077],[139.6696669,35.5994165],[139.6697837,35.5993343],[139.6699093,35.5992306]],[[139.6673526,35.6001589],[139.6675629,35.6001114]],[[139.6789571,35.5871843],[139.6788724,35.5873079]],[[139.6768639,35.5903829],[139.6764549,35.5909918]],[[139.6764549,35.5909918],[139.676011,35.5915852],[139.675984,35.5916213],[139.6759209,35.5917057],[139.6758663,35.5917831],[139.675276,35.5926468],[139.67495,35.5931236],[139.6747253,35.5934412],[139.6746727,35.5935155],[139.6746192,35.5936003],[139.6744738,35.5937942],[139.6741167,35.5942704],[139.6740762,35.5943283],[139.6735492,35.5949358],[139.6734679,35.5950295],[139.6732077,35.5953247],[139.6730501,35.5955034],[139.6729807,35.5955851],[139.672902,35.5956739],[139.6722991,35.5963539],[139.671749,35.5969767],[139.671349,35.5974676],[139.6708756,35.5980145],[139.6708366,35.5980596],[139.6707666,35.5981399],[139.670074,35.5989368],[139.6699223,35.5990953],[139.6697506,35.5992451],[139.6695053,35.599429],[139.6693911,35.5994979],[139.6692984,35.5995476],[139.6692014,35.5995924],[139.6691169,35.5996286],[139.6689613,35.5996791],[139.6688083,35.5997286],[139.6687056,35.5997581],[139.6686014,35.5997844],[139.6681906,35.5998737],[139.6676331,35.6000013],[139.6675541,35.6000191]],[[139.6402439,35.6076231],[139.6401446,35.6078024],[139.6399616,35.6081546],[139.6398648,35.6083472],[139.639783,35.6085127],[139.6396052,35.6088924],[139.639398,35.6093299],[139.6391683,35.609815],[139.6391376,35.6098798],[139.6388812,35.6104297],[139.6387105,35.6107959]],[[139.6311139,35.6211559],[139.630935,35.6212845],[139.630848,35.6213408],[139.6307086,35.6214252],[139.6304358,35.6215837],[139.6302599,35.6216839],[139.6298888,35.6218971],[139.6297499,35.6219712],[139.6294181,35.6221579],[139.6290582,35.6223603]],[[139.6313576,35.6211026],[139.6315398,35.6209841],[139.6317206,35.6208678],[139.6318682,35.6207804],[139.6324182,35.6204517],[139.6326156,35.6203334],[139.6328359,35.6202006],[139.6330003,35.6200996],[139.6336049,35.6197387],[139.6339951,35.6195086],[139.6342456,35.6193629],[139.634421,35.619251],[139.6345145,35.619195],[139.6345975,35.6191467],[139.6346995,35.6190831],[139.6347881,35.6190153],[139.6349027,35.618917],[139.635011,35.6188132],[139.6351037,35.6187159],[139.6351962,35.6185906],[139.6352709,35.6184657],[139.6353235,35.6183568],[139.6354626,35.6180673],[139.6354887,35.6180106],[139.6356054,35.6177608],[139.6357604,35.6174215]],[[139.6416556,35.6067297],[139.641962,35.6066353],[139.6422517,35.6065566],[139.6425206,35.6064857],[139.6426452,35.6064521],[139.6430441,35.6063435],[139.6433671,35.6062533],[139.6437293,35.6061521],[139.6438397,35.6061216],[139.6439459,35.6060916],[139.6448924,35.6058293],[139.6450298,35.6057947]],[[139.6472105,35.7550448],[139.6469532,35.7549244],[139.6464362,35.754644]],[[139.6332917,35.7475445],[139.6331428,35.7473974],[139.6327325,35.7471464],[139.632517,35.7470046],[139.6323724,35.7469136],[139.6321988,35.7468044],[139.6314718,35.7463316]],[[139.7153242,35.5592871],[139.7131438,35.5594726]],[[139.711637,35.5596095],[139.7115323,35.5596147],[139.7111906,35.5596393],[139.7107644,35.5596846],[139.7107092,35.5596905],[139.7106464,35.559698],[139.7105053,35.5597107],[139.7103232,35.5597318],[139.7097631,35.5598049],[139.7092667,35.559889],[139.7089177,35.5599448],[139.7088259,35.5599561]],[[139.7131654,35.5595669],[139.7153353,35.5593717]],[[139.7153353,35.5593717],[139.7160155,35.5593071]],[[139.7088259,35.5599561],[139.7086022,35.5599743],[139.7082638,35.5600278],[139.7080518,35.5600638],[139.7077956,35.5601186],[139.7076017,35.5601814]],[[139.7075761,35.5602963],[139.7078051,35.5602291],[139.7080435,35.5601583],[139.7082843,35.5601002],[139.7086071,35.5600518],[139.7088325,35.5600361]],[[139.7076017,35.5601814],[139.7075459,35.5602028]],[[139.702704,35.5620648],[139.7024117,35.5621662],[139.7017765,35.5624169],[139.7017196,35.5624394],[139.701579,35.5624949],[139.7013925,35.5625674],[139.7011255,35.5626703],[139.7000418,35.5630922],[139.6998023,35.5632031],[139.6997404,35.5632368],[139.6996716,35.563276],[139.69951,35.5633681],[139.6993604,35.5634695],[139.6992668,35.5635344],[139.6990624,35.5636759]],[[139.7054834,35.5609992],[139.7046976,35.5613082]],[[139.7046976,35.5613082],[139.7036675,35.5617009]],[[139.7027562,35.5621474],[139.7036795,35.5617825]],[[139.7047345,35.5613638],[139.7055366,35.5610583]],[[139.7055366,35.5610583],[139.7066311,35.56064]],[[139.6958192,35.5659477],[139.6946158,35.566804],[139.6943583,35.5669871]],[[139.6987828,35.5638681],[139.6986335,35.5639901],[139.6982304,35.5642709]],[[139.6943583,35.5669871],[139.6941572,35.5671289],[139.6936953,35.5674608],[139.6934811,35.5676131],[139.6933236,35.567723],[139.6932545,35.5677697],[139.6931178,35.5678706]],[[139.6982304,35.5642709],[139.6958192,35.5659477]],[[139.6943801,35.5670646],[139.6946197,35.5668969],[139.6958753,35.5660031]],[[139.6958753,35.5660031],[139.6982906,35.564326]],[[139.6982906,35.564326],[139.6985042,35.5641801],[139.6987491,35.5640281]],[[139.6987491,35.5640281],[139.6990521,35.5638197],[139.6991195,35.5637733],[139.6992456,35.5636866]],[[139.6808235,35.5843369],[139.6811872,35.5837733],[139.6815486,35.5831864],[139.6815929,35.583107],[139.6816641,35.582993],[139.6817222,35.58289],[139.6817878,35.5827652],[139.6818484,35.5826428],[139.6818989,35.5825104],[139.6819476,35.5823818],[139.6819922,35.5822548],[139.6821055,35.581937],[139.6822614,35.5814951],[139.6824051,35.581092]],[[139.6807103,35.5843182],[139.6805878,35.5845116]],[[139.6805878,35.5845116],[139.6805051,35.5846596],[139.6803674,35.5848793],[139.680017,35.5854457],[139.6799897,35.5854897],[139.6799762,35.5855115],[139.6799537,35.5855479],[139.679908,35.5856206],[139.6795962,35.5861168],[139.6794136,35.5864073],[139.6790447,35.5869751],[139.6789741,35.5870841]],[[139.7036795,35.5617825],[139.7047345,35.5613638]],[[139.7036675,35.5617009],[139.702704,35.5620648]],[[139.7066311,35.56064],[139.7075761,35.5602963]],[[139.7065635,35.5605844],[139.7054834,35.5609992]],[[139.6152421,35.7071157],[139.6150811,35.7078235]],[[139.6148031,35.710434],[139.6147897,35.7105918],[139.6147473,35.7110913],[139.6147229,35.7113691],[139.6147164,35.7114599],[139.6147075,35.7115599],[139.6146392,35.7122192],[139.6146276,35.7123286],[139.6146186,35.7124326],[139.614604,35.7126136],[139.6145248,35.7134543],[139.6145209,35.7134954],[139.6145172,35.7135648],[139.614511,35.713626],[139.6144943,35.7138619],[139.6144647,35.7141697],[139.6143917,35.7149079],[139.614388,35.7149596],[139.6143808,35.7150628]],[[139.6149622,35.7095509],[139.6150737,35.7082994]],[[139.6153328,35.7071315],[139.6154627,35.706641],[139.6156033,35.706115]],[[139.6156019,35.7057772],[139.6154824,35.7059663],[139.6153771,35.7062951],[139.6152193,35.7069022],[139.6150367,35.707644],[139.6149921,35.7078203]],[[139.6148939,35.7104326],[139.6149685,35.7102056],[139.6150079,35.7100005],[139.6150506,35.7094868],[139.6150631,35.7093358],[139.6150927,35.7089936],[139.6150991,35.7089116],[139.6151198,35.708664],[139.6151477,35.7083146]],[[139.6143887,35.677429],[139.6143372,35.6771195]],[[139.6135789,35.6733034],[139.6135011,35.6718635]],[[139.6135061,35.6733079],[139.6135142,35.6735363],[139.613539,35.6737835],[139.6136017,35.6741529]],[[139.6133574,35.6704872],[139.6134229,35.6718723]],[[139.6134266,35.6704747],[139.6134051,35.6700522],[139.6134142,35.6698455]],[[139.6134142,35.6698455],[139.6133798,35.6692966],[139.6133563,35.6687294],[139.6133572,35.6687126],[139.6133612,35.6686321],[139.613367,35.6685453],[139.6133992,35.6682751],[139.6134209,35.6680436],[139.6134363,35.6678805],[139.6134417,35.6678227],[139.6134781,35.6675828],[139.6135264,35.6672648],[139.6136845,35.6663437],[139.6137279,35.6660539],[139.6138431,35.6652771],[139.6139533,35.6646178],[139.6139699,35.664495],[139.6141387,35.663292],[139.6141514,35.6632144],[139.6142795,35.6625083],[139.6144213,35.6616739],[139.6145447,35.6610598],[139.6147075,35.6602294]],[[139.6136687,35.6741431],[139.6136097,35.6737912],[139.6135789,35.6733034]],[[139.6290582,35.6223603],[139.6287505,35.6225402],[139.6284561,35.6227453],[139.6282925,35.6228639],[139.6281623,35.6229745],[139.6280065,35.6231229],[139.6278909,35.6232446],[139.6277499,35.6234227],[139.6276443,35.6235802],[139.6275455,35.6237502],[139.6274704,35.6239071],[139.6274048,35.6240683],[139.6268954,35.6256557],[139.6268756,35.6257174],[139.6267234,35.6262012],[139.6266891,35.6263159]],[[139.6224365,35.6352033],[139.6222768,35.6354614],[139.6218765,35.6360032],[139.6216005,35.6363656]],[[139.6367634,35.6149925],[139.6366847,35.6151573],[139.6364626,35.6156221],[139.6363328,35.6159074],[139.6362186,35.616159],[139.6358783,35.6168934],[139.6357054,35.6172668],[139.6356491,35.6173884]],[[139.6379981,35.6123106],[139.6378645,35.6125994]],[[139.6381413,35.6122669],[139.6382706,35.6119953],[139.6383235,35.6118803]],[[139.6380042,35.6125631],[139.6381413,35.6122669]],[[139.6406208,35.6072113],[139.6404641,35.6073408]],[[139.6408238,35.6070467],[139.6407177,35.6071268],[139.6406208,35.6072113]],[[139.6409062,35.6071156],[139.6410206,35.6070386],[139.641139,35.606966],[139.6412596,35.6068979],[139.6413898,35.6068357],[139.6415206,35.6067806],[139.6416556,35.6067297]],[[139.6406893,35.6072927],[139.6407946,35.6072017],[139.6409062,35.6071156]],[[139.6464091,35.6054029],[139.6471723,35.6051959]],[[139.6463789,35.605342],[139.6459716,35.6054557]],[[139.6488356,35.6047393],[139.6497687,35.6044831],[139.6501907,35.6043814]],[[139.6488133,35.6046722],[139.6477312,35.6049625]],[[139.6155958,35.682978],[139.6153883,35.6824133],[139.6153683,35.6823588],[139.6153365,35.6822679],[139.6152606,35.6820507],[139.6151314,35.6816709],[139.6151075,35.6816007],[139.6150832,35.6815294],[139.6150503,35.6814355],[139.6150177,35.6813357],[139.6148386,35.6808377],[139.6147502,35.6805501],[139.614685,35.6802798],[139.6146401,35.6799813],[139.6146169,35.6797115],[139.6145094,35.6783869],[139.6144063,35.6775384],[139.6143998,35.6774913],[139.6143887,35.677429]],[[139.61564,35.6831055],[139.6155958,35.682978]],[[139.6154791,35.6829862],[139.6155201,35.6831014]],[[139.6155686,35.6832605],[139.6155853,35.6833278],[139.6156069,35.6834556],[139.6156195,35.6835576],[139.6156193,35.6836523],[139.6155587,35.6844339],[139.6155648,35.6847696],[139.6155818,35.6849202],[139.6156109,35.6850904]],[[139.6471135,35.7551097],[139.6473778,35.7552413],[139.6475526,35.7553373],[139.647623,35.7553758],[139.6483861,35.7557679],[139.6488625,35.7560124],[139.6491893,35.7561955],[139.6492712,35.7562399],[139.649353,35.7562857],[139.6505315,35.7569098],[139.6505966,35.7569428],[139.6506826,35.7569867],[139.6511054,35.7572],[139.6513154,35.757306],[139.6515947,35.7574528],[139.6522679,35.7578129],[139.6529767,35.7581938],[139.6531126,35.7582668]],[[139.6372036,35.7497483],[139.6374481,35.7499154],[139.6376848,35.7500772],[139.6382135,35.7503648],[139.6383421,35.7504347],[139.6393373,35.750956],[139.6395512,35.751067],[139.6396442,35.7511146]],[[139.6371611,35.7496332],[139.637122,35.7496122],[139.6369579,35.749524],[139.636656,35.7493591],[139.6362136,35.7491173],[139.6357176,35.7488463],[139.6356048,35.7487847],[139.6354846,35.7487204],[139.6352815,35.7486119],[139.6337424,35.7477895],[139.6335253,35.7476694],[139.6333238,35.7475652],[139.6332917,35.7475445]],[[139.6332917,35.7475445],[139.6327469,35.7472397]],[[139.7404117,35.5524133],[139.7405889,35.5524118],[139.7409606,35.5523958],[139.741196,35.5523721],[139.7416352,35.552328],[139.7417601,35.5523155],[139.7419224,35.5523057],[139.7424358,35.5522556],[139.7431442,35.5521888],[139.7434925,35.5521504],[139.7438518,35.5521012],[139.7445988,35.5519959],[139.7453444,35.5518854],[139.7454354,35.5518732]],[[139.7403207,35.552312],[139.7401559,35.5523022],[139.7399491,35.5522895],[139.7397897,35.5522826],[139.7396784,35.5522772],[139.7394516,35.5522832],[139.7394117,35.5522865],[139.7391242,35.5523106],[139.7386913,35.5523651],[139.7384237,35.5523976],[139.738321,35.5524077]],[[139.7527124,35.5506511],[139.7532756,35.5505452]],[[139.616803,35.7012801],[139.6167667,35.7014227]],[[139.6167667,35.7014227],[139.6167652,35.7014317],[139.6166929,35.7017109],[139.6165763,35.7021513],[139.6164872,35.7025036],[139.6164364,35.7026997],[139.6164085,35.7028073],[139.616389,35.7028827]],[[139.6168915,35.701389],[139.616928,35.7012469]],[[139.616928,35.7012469],[139.6169325,35.7012292],[139.6169739,35.7010778],[139.6170063,35.7009417],[139.6171035,35.7005809],[139.6172303,35.7001041],[139.6172662,35.6999356]],[[139.790792,35.541509],[139.7897718,35.5410394],[139.7893793,35.5408487]],[[139.7907517,35.5415734],[139.7911533,35.5417615]],[[139.6710913,35.7711042],[139.6711768,35.7712134],[139.6714408,35.7715507],[139.6716186,35.7717633],[139.6718066,35.7719593],[139.6719352,35.7720963],[139.6720842,35.7722349],[139.6722778,35.7724008],[139.6723723,35.7724792],[139.6725329,35.77262],[139.6727426,35.772802]],[[139.6459716,35.6054557],[139.6452295,35.605654]],[[139.6459793,35.6055262],[139.6464091,35.6054029]],[[139.6459932,35.6055895],[139.6463938,35.6054771],[139.6471011,35.6052779],[139.6472135,35.6052456],[139.6473077,35.6052186],[139.6473884,35.6051973]],[[139.6159986,35.7040884],[139.6159996,35.7041076],[139.6160095,35.7041195],[139.6160291,35.7041245],[139.61605430865643,35.70412559090092]],[[139.61605430865643,35.70412559090092],[139.61613172579646,35.70412894111634]],[[139.61613172579646,35.70412894111634],[139.6162001,35.7041319]],[[139.6162146,35.7040775],[139.6164642,35.7031731],[139.6164243,35.703074]],[[139.6147461,35.7336637],[139.6148293,35.7337697],[139.6149067,35.733845],[139.6149401,35.7338793]],[[139.614327,35.7233886],[139.6142578,35.722004],[139.6142522,35.7218973],[139.6142485,35.7218029],[139.6142463,35.7217056],[139.6142304,35.7210839],[139.6142527,35.7206699],[139.6142475,35.7203689],[139.614202,35.7196196],[139.614196,35.7193446],[139.6141959,35.7192927],[139.6141977,35.7192099],[139.6142021,35.7190875]],[[139.6144912,35.7263874],[139.6144717,35.7262838],[139.6144109935068,35.725926725639596]],[[139.6144109935068,35.725926725639596],[139.6143929,35.7258203]],[[139.6143746,35.7278279],[139.6143761,35.7279694],[139.6143772,35.7280782],[139.6143793,35.7282782],[139.6143816,35.7285546],[139.6143884,35.7286202],[139.6144038,35.7292622],[139.6144213,35.7295029],[139.6144238,35.7296448],[139.6144266,35.7298061]],[[139.6142952,35.7238238],[139.6142875,35.7236464]],[[139.6145809,35.7278152],[139.614579,35.7276757],[139.6145734,35.7274089],[139.6145576,35.7270448],[139.6145409,35.7267841],[139.6145191,35.7266087],[139.614499,35.7264817],[139.6144912,35.7263874]],[[139.6143327,35.7263942],[139.6143353,35.7264931],[139.6143382,35.7266145],[139.6143396,35.7266713],[139.6143474,35.7271041],[139.6143727,35.7276856],[139.6143746,35.7278279]],[[139.6153163,35.7341079],[139.615308,35.7341004],[139.61518,35.7339846],[139.6150725,35.7338844],[139.6149228,35.7337329],[139.6148683,35.7336693],[139.6148424,35.7336389],[139.6147726,35.7335512],[139.6146969,35.7334176]],[[139.6146406,35.7320513],[139.6145795,35.7308918],[139.6145484,35.7299066],[139.6145419,35.7290092],[139.6144109935068,35.725926725639596]],[[139.6144109935068,35.725926725639596],[139.61430836851457,35.72351019992267]],[[139.61430836851457,35.72351019992267],[139.6143001,35.7233155],[139.6142132,35.7218377],[139.6141408,35.7198853],[139.6141502,35.7187765]],[[139.6146969,35.7334176],[139.6147526,35.7332115],[139.6147514,35.7330746],[139.6147298,35.7323637],[139.614695,35.7321554],[139.61467,35.7319217],[139.6146623,35.7318437]],[[139.6277957,35.744133],[139.6318919,35.7467807],[139.6326801,35.747293]],[[139.6327469,35.7472397],[139.6311025,35.7461805],[139.6282929,35.7443466]],[[139.6282929,35.7443466],[139.6273446,35.7437383]],[[139.6273446,35.7437383],[139.6269527,35.7434869]],[[139.6269527,35.7434869],[139.6267935,35.7433969]],[[139.6326801,35.747293],[139.6327608,35.7473392],[139.6331708,35.7475823],[139.6332749,35.7476335]],[[139.6168512,35.7355158],[139.6166873,35.7353706],[139.6160741,35.7348279],[139.6156254,35.7344204]],[[139.6258679,35.7428102],[139.6255436,35.742583],[139.623575,35.741319],[139.6232446,35.7410979],[139.6229006,35.7408405],[139.6224173,35.7404254],[139.6199149,35.7382289],[139.6193763,35.7377626],[139.6189857,35.7374228],[139.6188667,35.7373209],[139.6183608,35.7368792],[139.6180423,35.7365803],[139.617531,35.7361346],[139.6169808,35.7356307],[139.6168512,35.7355158]],[[139.6149401,35.7338793],[139.6151325,35.7340186],[139.6154848,35.7343564],[139.6157106,35.7345578],[139.6162527,35.7350595],[139.617304,35.7360091],[139.6192759,35.7377372],[139.6212906,35.739501],[139.6228798,35.7408886],[139.6237139,35.7414753],[139.6258669,35.7429064]],[[139.6258669,35.7429064],[139.6262696,35.7431599],[139.6267389,35.7434599]],[[139.6153074,35.7342571],[139.6161622,35.7350087],[139.6163626,35.7352182],[139.6165475,35.7354235]],[[139.6174808,35.6988433],[139.6175001,35.6987242],[139.6175206,35.6985806],[139.6175859,35.6981972],[139.6176707,35.6977104],[139.6177579,35.6972018],[139.6178466,35.6966279],[139.617861,35.6963917],[139.617864,35.6963428],[139.617868,35.6962698],[139.6178679,35.6961397]],[[139.7539667,35.5503013],[139.7532687,35.5504394]],[[139.7532756,35.5505452],[139.753991,35.550406]],[[139.6141812,35.7174222],[139.6140622,35.7187727]],[[139.6267389,35.7434599],[139.6269274,35.7435654]],[[139.6269274,35.7435654],[139.6274318,35.7438952]],[[139.6274318,35.7438952],[139.6277957,35.744133]],[[139.6146771,35.7331429],[139.6146406,35.7320513]],[[139.6267935,35.7433969],[139.6258679,35.7428102]],[[139.6156254,35.7344204],[139.6155075,35.7343133],[139.6153163,35.7341079]],[[139.7088325,35.5600361],[139.7089298,35.5600205],[139.7092149,35.5599804],[139.7094822,35.5599424],[139.7098614,35.559886],[139.710275,35.5598258],[139.7103425,35.559816],[139.7105161,35.5597974],[139.7106607,35.5597823],[139.7114417,35.5597157],[139.7115361,35.5597076],[139.7116351,35.5596978],[139.7117152,35.55969],[139.7126352,35.5596123],[139.7128838,35.559591],[139.7131654,35.5595669]],[[139.615667,35.7055481],[139.6156401,35.7056462],[139.6156019,35.7057772]],[[139.6156019,35.7057772],[139.6152421,35.7071157]],[[139.616389,35.7028827],[139.6163648,35.7029788],[139.6162965,35.7032361]],[[139.616389,35.7028827],[139.6163403,35.7029685],[139.6162862,35.7030638],[139.6162194,35.7032997],[139.6160337,35.7039701],[139.6159986,35.7040884]],[[139.6164753,35.7029416],[139.6165087,35.7028563],[139.6168035,35.7017236],[139.6168873,35.7014025],[139.6168915,35.701389]],[[139.616372,35.7032506],[139.6163965,35.703168],[139.6164243,35.703074]],[[139.6162965,35.7032361],[139.6160769,35.7040426]],[[139.6157684,35.7051758],[139.6157048,35.7054093],[139.6156909,35.7054604],[139.615667,35.7055481]],[[139.6158402,35.7052097],[139.6160352,35.7044886]],[[139.646181,35.7545056],[139.6450154,35.7538849]],[[139.6461086,35.7545537],[139.6463781,35.7547028]],[[139.6449756,35.7539378],[139.6461086,35.7545537]],[[139.6450154,35.7538849],[139.6449207,35.7538365],[139.6440954,35.7533881]],[[139.6288998,35.7446768],[139.6288026,35.7446103],[139.6285364,35.7444368],[139.6276819,35.74388],[139.6274973,35.7437635]],[[139.6274973,35.7437635],[139.6271329,35.7435255],[139.6270202,35.7434539]],[[139.6270202,35.7434539],[139.6268827,35.7433655],[139.6268346,35.7433345],[139.6265949,35.7431752],[139.6261643,35.7428891],[139.6258865,35.7427105],[139.6258221,35.7426695],[139.625751,35.7426259]],[[139.6273446,35.7437383],[139.6271943,35.7436102]],[[139.6271943,35.7436102],[139.6270202,35.7434539]],[[139.6274973,35.7437635],[139.6271943,35.7436102]],[[139.6271943,35.7436102],[139.6269527,35.7434869]],[[139.6149401,35.7338793],[139.6153074,35.7342571]],[[139.6146399,35.7336836],[139.6147336,35.7337718],[139.6149003,35.7339288],[139.615076,35.734122],[139.6153172,35.7343507],[139.6154451,35.7344646],[139.6160491,35.7350025],[139.6164241,35.7353234],[139.6165475,35.7354235]],[[139.6204079,35.7387946],[139.6205567,35.7389233],[139.6207098,35.7390583],[139.6212058,35.7394921],[139.6212672,35.7395458],[139.6213462,35.7396154]],[[139.625751,35.7426259],[139.6256585,35.7425674],[139.6253959,35.7424036],[139.6251226,35.7422616],[139.6249342,35.7421631],[139.6248273,35.7420971],[139.6245985,35.7419495],[139.6243602,35.7417952],[139.6242772,35.7417406],[139.6240052,35.7415668],[139.6235945,35.7413004],[139.6233886,35.7411664],[139.6232137,35.7410392],[139.622982,35.7408522],[139.6228985,35.7407849]],[[139.6268635,35.7436171],[139.6271541,35.7437601]],[[139.6271541,35.7437601],[139.6274318,35.7438952]],[[139.6269274,35.7435654],[139.6271541,35.7437601]],[[139.6271541,35.7437601],[139.6274162,35.7439817]],[[139.6286669,35.7447951],[139.6287481,35.7448524]],[[139.6143929,35.7258203],[139.6142952,35.7238238]],[[139.6143929,35.7258203],[139.614363074029,35.72612944750913]],[[139.614363074029,35.72612944750913],[139.6143477,35.7262888],[139.6143327,35.7263942]],[[139.754897,35.5501209],[139.7550357,35.5500562],[139.7552079,35.5499775],[139.7554014,35.5498727],[139.7556821,35.5497021],[139.7559319,35.5495272],[139.75617,35.5493219],[139.756403,35.549092],[139.7565491,35.5489122],[139.7567749,35.5486382],[139.7570223,35.5483116],[139.7573454,35.5478806],[139.7576662,35.5474291],[139.7580184,35.5469877]],[[139.6806956,35.5845466],[139.6808235,35.5843369]],[[139.6818525,35.7776943],[139.68177,35.7776743],[139.681078,35.7774932],[139.6803795,35.7773213],[139.6802656,35.7772902],[139.680225,35.7772765]],[[139.7070659,35.7852864],[139.7069199,35.7852549],[139.7065406,35.7851853],[139.7062673,35.7851343],[139.706096,35.7850991],[139.705962,35.7850665],[139.7058934,35.7850489],[139.7058177,35.7850262],[139.7057325,35.784999],[139.7056075,35.7849537],[139.7050445,35.78471],[139.7044169,35.7844456],[139.704271,35.7843831],[139.703979,35.7842434],[139.7039261,35.7842086],[139.703856,35.7841678],[139.7037582,35.7841055],[139.7035499,35.7839512],[139.7034088,35.7838516],[139.7030733,35.7836017],[139.7029565,35.7835147],[139.702849,35.7834346],[139.7027701,35.7833809],[139.7021931,35.7829618],[139.7017306,35.7826113],[139.7013436,35.7823256],[139.7011231,35.782195],[139.7009123,35.7821037],[139.7005398,35.7819523],[139.7004117,35.7819003],[139.7003134,35.7818647],[139.699967,35.7817392],[139.6987557,35.7812921],[139.6986012,35.7812442],[139.6985367,35.7812242],[139.6983518,35.7811812],[139.6981428,35.7811445],[139.6972208,35.781006],[139.6967728,35.7809414],[139.6966216,35.7809197],[139.6964853,35.7809005],[139.69639,35.7808859],[139.6953598,35.7807256],[139.6950628,35.7806795],[139.6946894,35.7806281],[139.6945786,35.7806107],[139.6944765,35.7805954],[139.6937834,35.7804918],[139.6934302,35.7804228],[139.6931185,35.7803772],[139.6930015,35.7803578],[139.6928643,35.7803335],[139.6921528,35.7802295],[139.6918418,35.7801831],[139.6915214,35.7801366],[139.6911512,35.7800693],[139.6910135,35.7800443],[139.6909055,35.7800202],[139.6907461,35.7799817],[139.6903602,35.7798938],[139.6900604,35.7798141],[139.6896591,35.7797095],[139.6895702,35.779682],[139.6891991,35.7795882],[139.6888223,35.7795001],[139.6885733,35.7794492],[139.6882975,35.779386],[139.6878897,35.7792774],[139.6874696,35.7791652],[139.6871033,35.7790663],[139.6870014,35.779039],[139.6867234,35.7789653],[139.6864734,35.7789019]],[[139.7070039,35.7853662],[139.7071355,35.7853859],[139.7072164,35.7854025],[139.7076085,35.7854732],[139.7079239,35.7855349],[139.708333,35.7856077],[139.7084001,35.785619],[139.7085093,35.785639],[139.7085665,35.7856492],[139.7092667,35.7857843],[139.7093219,35.7857932],[139.7094166,35.7858106],[139.7095186,35.7858258],[139.7099171,35.7858997],[139.7103926,35.7859784],[139.7107608,35.7860484],[139.710867,35.7860672],[139.71124,35.7861364],[139.7115701,35.7862034],[139.7118573,35.7862618],[139.7122076,35.7863266],[139.7123196,35.7863515],[139.7124216,35.7863699],[139.7126429,35.7864075],[139.7127972,35.78643],[139.7131138,35.7864715],[139.713578,35.7865546],[139.7137338,35.786586]],[[139.6817988,35.7777761],[139.6822047,35.7778827],[139.6825436,35.7779675],[139.6828148,35.7780318],[139.6831665,35.7781223],[139.6832779,35.7781527],[139.6834004,35.7781842],[139.6835474,35.7782207],[139.6841919,35.7783914],[139.6849795,35.7786084],[139.6850902,35.7786363],[139.6852129,35.7786689],[139.6857304,35.7788037]],[[139.6857304,35.7788037],[139.6858985,35.7788437],[139.6860337,35.7788744]],[[139.6864734,35.7789019],[139.6862083,35.7788294],[139.6860746,35.7787972]],[[139.6795971,35.7771167],[139.6781872,35.7767393],[139.6779218,35.7766638]],[[139.6802359,35.7773562],[139.6803525,35.7773868],[139.6810507,35.7775703],[139.6813411,35.7776606],[139.6817093,35.7777531],[139.6817988,35.7777761]],[[139.7075459,35.5602028],[139.7065635,35.5605844]],[[139.7205381,35.7836989],[139.7203371,35.7837171],[139.7201903,35.7837493],[139.7200498,35.7837911],[139.7199046,35.7838394],[139.719708,35.7839269],[139.7195747,35.7839985],[139.7194567,35.7840746],[139.7192754,35.7842117],[139.7191239,35.7843558],[139.7187775,35.7847368],[139.7187475,35.7847717],[139.7186849,35.7848443],[139.7184731,35.7850784],[139.7182752,35.7853049],[139.7180603,35.7855439],[139.7177662,35.785858],[139.7176839,35.7859363],[139.7176516,35.7859669],[139.7175134,35.7860724],[139.7174573,35.7861105],[139.717374,35.7861605],[139.7172909,35.7862045],[139.7171997,35.7862421],[139.7169837,35.786315],[139.7167972,35.7863753],[139.7165663,35.7864215],[139.7164677,35.7864314],[139.7161439,35.7864467],[139.7157312,35.7864689],[139.7152777,35.7864917],[139.7151923,35.7864939],[139.7143172,35.7865242],[139.7141372,35.7865307],[139.7139394,35.7865266],[139.7138409,35.7865185],[139.7137421,35.7865067]],[[139.7464144,35.5517303],[139.7474044,35.5515792],[139.7476991,35.5515425],[139.748022,35.551496],[139.7482114,35.5514688],[139.7482957,35.5514529],[139.74842,35.5514305],[139.7485521,35.5514044],[139.7490172,35.5513202],[139.7491297,35.5512953]],[[139.7453978,35.551771],[139.7453227,35.5517825],[139.7450429,35.5518188],[139.7445523,35.5518893],[139.7437483,35.5520009],[139.7434078,35.5520414],[139.7430541,35.5520768],[139.7427425,35.5521114],[139.7424136,35.5521452],[139.7421461,35.5521715],[139.7419716,35.5521885],[139.741862,35.5521992],[139.7417523,35.5522064]],[[139.7491297,35.5512953],[139.7493677,35.5512544],[139.7495591,35.5512169],[139.7501287,35.5511153],[139.7502311,35.5510999],[139.7508885,35.5509806],[139.7513233,35.550899],[139.7522969,35.5507217],[139.7525956,35.5506673],[139.7526488,35.5506632],[139.7527124,35.5506511]],[[139.7298629,35.5535722],[139.7297732,35.5536231],[139.729391,35.5538972],[139.7289292,35.5542377],[139.7286586,35.554437],[139.7285706,35.5544997],[139.7284726,35.5545696],[139.7274378,35.5552903],[139.7273522,35.5553513],[139.727264,35.5554161],[139.7263614,35.5560811],[139.7262556,35.5561591],[139.7261151,35.5562626],[139.7258224,35.5564763],[139.7256508,35.5566016],[139.7255594,35.5566748]],[[139.7334685,35.5528874],[139.7333563,35.5528967],[139.7328368,35.552938],[139.7322478,35.5529848],[139.7321476,35.5529936],[139.7312177,35.553076],[139.7310683,35.5531141],[139.7305978,35.5532607],[139.7304839,35.553306],[139.7302481,35.5534021],[139.7299705,35.5535151],[139.7298629,35.5535722]],[[139.647142,35.6051229],[139.6463789,35.605342]],[[139.6477312,35.6049625],[139.647142,35.6051229]],[[139.6471723,35.6051959],[139.6477606,35.6050294]],[[139.6477606,35.6050294],[139.6488356,35.6047393]],[[139.6266091,35.6265833],[139.6264876,35.6268027],[139.6264365,35.6269646],[139.6264055,35.6270325],[139.6263594,35.6270881],[139.6262745,35.6271521],[139.6261897,35.6271963],[139.6260501,35.6272344]],[[139.6263447,35.6278963],[139.6264342,35.6277598],[139.6265223,35.6275056],[139.6265491,35.6274685],[139.626588,35.6274336],[139.6266322,35.6274085],[139.626782,35.6273492]],[[139.6198152,35.6389772],[139.6197525,35.6391782],[139.6196837,35.6394368],[139.6196094,35.6397009],[139.6195441,35.6399371],[139.6193154,35.6407451],[139.6191801,35.6412301],[139.6191549,35.6413152],[139.6191283,35.6414012],[139.6190008,35.6418086],[139.6189285,35.6421015],[139.6188604,35.6423435],[139.6187591,35.6427109],[139.6187076,35.6428911],[139.6185607,35.6434048],[139.6184036,35.6440158],[139.6183633,35.6441613],[139.6182204,35.644677],[139.6181156,35.6450567],[139.6180261,35.6453749]],[[139.6199258,35.6390226],[139.619973,35.6388016],[139.6201009,35.6384981],[139.6202226,35.6383089],[139.620775,35.6375829]],[[139.6133177,35.6698643],[139.6133574,35.6704872]],[[139.6136017,35.6741529],[139.6136813,35.6746454],[139.6138324,35.6753519],[139.6140299,35.6762541],[139.6140922,35.6765575],[139.6141325,35.6767542],[139.6141878,35.6770241],[139.6141974,35.6770705],[139.6142166,35.6771643]],[[139.6142166,35.6771643],[139.6142777,35.6774659],[139.6142866,35.6775089],[139.6143176,35.6776673]],[[139.6167301,35.6918927],[139.6166417,35.6914657]],[[139.6159562,35.704486],[139.6157684,35.7051758]],[[139.6160769,35.7040426],[139.61605430865643,35.70412559090092]],[[139.61605430865643,35.70412559090092],[139.6159562,35.704486]],[[139.6161531,35.7040493],[139.616372,35.7032506]],[[139.6160352,35.7044886],[139.61613172579646,35.70412894111634]],[[139.61613172579646,35.70412894111634],[139.6161531,35.7040493]],[[139.6151669,35.7077963],[139.6153328,35.7071315]],[[139.6150737,35.7082994],[139.6151669,35.7077963]],[[139.6149918,35.7083304],[139.6148877,35.7095481]],[[139.6150811,35.7078235],[139.6149918,35.7083304]],[[139.6179137,35.6457856],[139.6178079,35.6461627],[139.6177111,35.6465403],[139.6176053,35.6468777],[139.6174996,35.6472523],[139.6173663,35.6477502],[139.6173088,35.6479679],[139.6170905,35.6488356]],[[139.6180259,35.6458173],[139.6180965,35.6455323]],[[139.6181339,35.6454044],[139.6181971,35.6451999],[139.6183314,35.6447046],[139.6184321,35.6443257],[139.6185368,35.6439411],[139.6185661,35.6438372],[139.6186954,35.6433492],[139.6188345,35.6428786],[139.6189108,35.6425642],[139.6190186,35.6421993],[139.6190795,35.6419553],[139.6192343,35.6414216],[139.6192546,35.6413557],[139.6192898,35.6412459],[139.6193181,35.6411561],[139.6193772,35.6409456],[139.6195259,35.6404373],[139.6197192,35.6397466],[139.619844,35.6393026],[139.6199258,35.6390226]],[[139.617992,35.6455022],[139.6179137,35.6457856]],[[139.6727426,35.772802],[139.6735379,35.7734706],[139.6742346,35.7740716],[139.6745688,35.7743565],[139.6748694,35.7746042],[139.6754795,35.7751162]],[[139.6754795,35.7751162],[139.676387,35.7758834],[139.6765914,35.7760549]],[[139.6669738,35.7656082],[139.666793,35.7654451],[139.6666864,35.7653541],[139.6665629,35.7652569],[139.6660784,35.7649073],[139.6656748,35.7646127]],[[139.6703122,35.7699614],[139.6699926,35.7695552],[139.6697767,35.7692464]],[[139.6699093,35.5992306],[139.6699386,35.5992064],[139.6702315,35.5989126],[139.6705486,35.5985658],[139.6707963,35.5982845],[139.6708931,35.5981746],[139.6709481,35.5981147],[139.6711794,35.5978389],[139.6714736,35.5974964],[139.6718775,35.5970301],[139.6721222,35.596746],[139.6724343,35.5963848],[139.6728042,35.5959647],[139.6730365,35.5956965],[139.6731291,35.5955895],[139.6731756,35.5955379],[139.6736632,35.5949965],[139.6738245,35.5948052],[139.6740328,35.5945585],[139.6742289,35.5943107],[139.6744044,35.5940699],[139.6747174,35.5936402],[139.6747749,35.5935621],[139.6748264,35.5934892],[139.6750568,35.5931741],[139.6752165,35.5929366],[139.6753876,35.5926951],[139.6756302,35.5923444],[139.6758267,35.5920605],[139.6759457,35.5918885],[139.675986,35.5918302],[139.6760341,35.5917606]],[[139.6760341,35.5917606],[139.6760903,35.5916753],[139.6762049,35.5915048],[139.6764025,35.5912264],[139.676528,35.5910457]],[[139.7137421,35.7865067],[139.7136242,35.7864878],[139.7130662,35.7863867],[139.7124506,35.7862745],[139.7123453,35.7862564],[139.7122313,35.7862339],[139.7117498,35.7861536],[139.711287,35.7860734],[139.7108885,35.786],[139.7107807,35.7859782],[139.7105377,35.7859305],[139.710209,35.785861],[139.709911,35.78581],[139.7095394,35.7857449],[139.7094403,35.7857255],[139.709347,35.7857069],[139.7086191,35.7855764],[139.7085324,35.7855592],[139.708424,35.7855384],[139.7082515,35.7855043],[139.7081104,35.7854758],[139.707267,35.7853187],[139.7070659,35.7852864]],[[139.7137338,35.786586],[139.7139319,35.786606],[139.7142292,35.7866064],[139.7151181,35.7865685],[139.715199,35.786565],[139.7158129,35.786543],[139.7164594,35.7865187],[139.7165546,35.7865127],[139.716808,35.7864553],[139.7169945,35.7864053],[139.7171673,35.7863487],[139.7172716,35.7863047],[139.7173656,35.7862554],[139.7174663,35.7861998],[139.7175623,35.7861404],[139.7177159,35.786031],[139.7177621,35.7859922],[139.7178263,35.7859323],[139.7179327,35.7858124],[139.7181103,35.7856168],[139.7182275,35.7854773],[139.7184065,35.7852895],[139.7187552,35.7848897],[139.7188042,35.7848339],[139.718825,35.7848137],[139.7189659,35.7846766],[139.7191362,35.7845142],[139.7192866,35.7843769],[139.7193159,35.7843502],[139.7195227,35.7841801],[139.7196686,35.7840875],[139.7198135,35.7840093],[139.7199612,35.7839506],[139.7201005,35.7839006],[139.7202426,35.7838602],[139.720408,35.7838211],[139.7205774,35.783803]],[[139.6532308,35.7582229],[139.6530382,35.7581232],[139.6523926,35.7577892],[139.651972,35.7575753],[139.6516468,35.7573995],[139.6513163,35.7572219],[139.6511863,35.7571525],[139.6509837,35.7570443],[139.6507192,35.7569031],[139.6506344,35.7568553],[139.6505649,35.7568198],[139.6500053,35.7565271],[139.6497969,35.7564235],[139.6496979,35.7563749],[139.6493847,35.7562095],[139.6493052,35.7561634]],[[139.6534146,35.7584309],[139.6535661,35.7585085],[139.6540636,35.7587696],[139.6551966,35.7593595],[139.6552379,35.7593797],[139.6553206,35.7594199],[139.6558238,35.7596663],[139.6561625,35.7598321],[139.6564888,35.7599918],[139.6568071,35.7601482],[139.6573725,35.7604335],[139.6574901,35.760491]],[[139.6396442,35.7511146],[139.6396869,35.7511402]],[[139.6621596,35.7626699],[139.6617463,35.7624691],[139.6615255,35.7623559],[139.6612266,35.7622045],[139.6609607,35.7620759],[139.6606552,35.7619252],[139.6602218,35.7617168],[139.6599296,35.7615754],[139.6598784,35.7615506],[139.6598188,35.7615209],[139.6590852,35.7611675],[139.6584187,35.7608433],[139.657673,35.760484],[139.6575667,35.7604286]],[[139.6621202,35.7627299],[139.662403,35.762864],[139.6628075,35.763058],[139.6634362,35.7633649]],[[139.6397457,35.750953],[139.6396355,35.7508925],[139.6390749,35.750586],[139.6383772,35.7502036],[139.6378727,35.7499503],[139.6378494,35.7499386],[139.6371611,35.7496332]],[[139.6860746,35.7787972],[139.6859336,35.7787593],[139.6852475,35.7785855],[139.6851363,35.7785575],[139.6850123,35.778526],[139.6842249,35.778321],[139.6834274,35.7781141],[139.6833127,35.7780841],[139.6831979,35.7780528],[139.6825895,35.7778931],[139.6818525,35.7776943]],[[139.6860337,35.7788744],[139.6861746,35.7789153],[139.68656,35.7790168],[139.6868764,35.7791002],[139.6869582,35.779123],[139.6870703,35.77915],[139.6878503,35.7793489],[139.6882192,35.7794452],[139.6887578,35.779602],[139.6891097,35.7796967],[139.6894896,35.7797951],[139.6895738,35.7798197],[139.6899863,35.7799278],[139.690247,35.7799904],[139.6904433,35.7800408],[139.6906467,35.7800874],[139.6908139,35.7801235],[139.6909184,35.7801429],[139.6911013,35.7801804],[139.6912549,35.7802072],[139.6916221,35.7802753],[139.6917758,35.7803011],[139.6921079,35.7803541],[139.6924025,35.7803971],[139.6928363,35.7804611],[139.6929447,35.7804767],[139.6930898,35.7804999],[139.6938855,35.7805945],[139.6944589,35.7806821],[139.6945591,35.7806974],[139.6946725,35.7807143],[139.6963779,35.7809705],[139.6964729,35.7809842],[139.6966117,35.7810052],[139.6972168,35.781097],[139.6978995,35.7812018],[139.6981841,35.7812458],[139.6983676,35.7812783],[139.6985055,35.7813109],[139.6985693,35.7813273],[139.698782,35.7814016],[139.6990989,35.7815204],[139.6995419,35.7816785],[139.6999294,35.7818258],[139.700329,35.7819688],[139.7004284,35.7820038],[139.7005377,35.782046],[139.7007949,35.7821452],[139.7010456,35.7822521],[139.7012635,35.7823759],[139.7017556,35.7827404],[139.7027584,35.7834945],[139.7028053,35.7835299],[139.7029403,35.7836267],[139.7030265,35.7836899],[139.7031937,35.7838134],[139.703436,35.7839935],[139.7035394,35.7840718],[139.7037045,35.7841925],[139.7037798,35.7842394],[139.7038474,35.7842764],[139.7040066,35.7843643],[139.7041574,35.7844251],[139.7043029,35.7844816],[139.7046034,35.7846055],[139.7050166,35.7847817],[139.705304,35.7849095],[139.7054517,35.7849744],[139.7055968,35.7850361],[139.7056869,35.7850716],[139.7057933,35.7851075],[139.7058715,35.7851344],[139.7060193,35.7851723],[139.7061113,35.7851953],[139.7061922,35.7852106],[139.7064363,35.7852593],[139.7067809,35.7853222],[139.7068789,35.7853403],[139.7070039,35.7853662]],[[139.6404566,35.7513612],[139.6403325,35.7512883],[139.6397457,35.750953]],[[139.6396869,35.7511402],[139.6401269,35.7513779],[139.6402332,35.7514389],[139.6403904,35.7515232],[139.6405762,35.7516288],[139.6406752,35.7516843],[139.6417907,35.7522794],[139.6418817,35.7523294],[139.6422543,35.7525299],[139.6423751,35.7525946],[139.6424751,35.7526484],[139.6426809,35.7527592],[139.6429299,35.7528933],[139.6434019,35.7531481],[139.6436174,35.753264],[139.6441954,35.7535753],[139.6443005,35.753636],[139.644764,35.7538948],[139.6449263,35.7539901],[139.6455569,35.7543281],[139.6458315,35.7544793],[139.6465151,35.7548449],[139.6467101,35.7549298],[139.6471135,35.7551097]],[[139.6149064,35.7084613],[139.6148775,35.7087896],[139.6148328,35.7093033],[139.6147709,35.7099649],[139.6147699,35.7102488],[139.6148031,35.710434]],[[139.6152718,35.707668],[139.6155468,35.7065768],[139.6155941,35.7063934],[139.6156285,35.7062538],[139.6156033,35.706115]],[[139.6531126,35.7582668],[139.6531893,35.7583086],[139.6532824,35.7583589],[139.6534146,35.7584309]],[[139.7712748,35.5407964],[139.7713935,35.5407384],[139.7716703,35.5406144],[139.7721075,35.5404199],[139.7728274,35.5400943],[139.7735555,35.5397643],[139.7743774,35.5393904],[139.7750511,35.5390916],[139.7758213,35.5387416],[139.776556,35.5384051],[139.7767612,35.5383138]],[[139.6575667,35.7604286],[139.6574448,35.7603652],[139.6568727,35.7600873],[139.6564102,35.7598647],[139.6562216,35.759774],[139.6554265,35.7593846],[139.6553688,35.7593577],[139.6552957,35.7593217],[139.6552536,35.7593005],[139.654797,35.7590614],[139.6541614,35.7587253],[139.6539713,35.7586237],[139.6536474,35.7584492],[139.6535243,35.7583847],[139.653352,35.7582887],[139.6532861,35.7582532],[139.6532308,35.7582229]],[[139.6574901,35.760491],[139.6575882,35.7605389],[139.6597591,35.7615859],[139.659831,35.7616177],[139.6621202,35.7627299]],[[139.6156414,35.6853149],[139.6157825,35.6863667],[139.6157962,35.6864602],[139.6158129,35.6865585],[139.615836,35.6866947]],[[139.6162001,35.7041319],[139.6162146,35.7040775]],[[139.6178679,35.6961397],[139.617839,35.6959815],[139.6177408,35.6955662],[139.617622,35.6951922],[139.6175767,35.6950694]],[[139.6173659,35.6988388],[139.6173404,35.6989536],[139.6173218,35.6990716]],[[139.6172662,35.6999356],[139.6172964,35.6998017]],[[139.6157857,35.6855454],[139.6157426,35.685301]],[[139.667266,35.6000847],[139.6665572,35.6002418],[139.6658099,35.6004023],[139.6645911,35.6006669],[139.6644695,35.6006915]],[[139.6643328,35.6007208],[139.6634659,35.6009119],[139.6622513,35.6011763],[139.6602837,35.6016045],[139.6601994,35.6016218],[139.6601091,35.6016392],[139.6594894,35.6017553],[139.6589911,35.6018478],[139.6587008,35.6019055],[139.6578713,35.6020625],[139.6572723,35.6021803],[139.656739,35.6022852],[139.6565765,35.6023168],[139.6564632,35.602341],[139.6560951,35.6024137],[139.655915,35.6024535],[139.655757,35.6024933],[139.6556045,35.6025369],[139.6554543,35.6025844],[139.655306,35.6026368],[139.6542519,35.6030053],[139.653654,35.6032123],[139.6531565,35.6033863],[139.6531022,35.6034048],[139.6523605,35.6036627],[139.6521314,35.603738],[139.6520413,35.6037688],[139.6519086,35.6038082],[139.6506758,35.6041467],[139.6501445,35.6042933]],[[139.6170307,35.649072],[139.6169905,35.6492185],[139.6169247,35.649515],[139.616557,35.6509784],[139.6165178,35.6511425],[139.6163595,35.651763],[139.616344,35.6518244],[139.6160014,35.6531727],[139.6159776,35.6532693]],[[139.6147075,35.659312],[139.6146983,35.6593671],[139.6145292,35.6602022],[139.6143078,35.6616415],[139.6141632,35.6624875],[139.6140493,35.6631889],[139.614039,35.6632521],[139.6139959,35.6635253],[139.613864,35.6644033],[139.6138218,35.6646839],[139.6137841,35.6649304],[139.6137715,35.665013],[139.6136951,35.6655223],[139.6136088,35.6660965],[139.6135709,35.6663413],[139.6135592,35.6664208],[139.6135278,35.6665985],[139.6134921,35.6668206],[139.6134417,35.6671344],[139.6134368,35.6671659],[139.6134101,35.6673378],[139.6133488,35.6677324],[139.6133205,35.6679544],[139.6133073,35.6680584],[139.6132978,35.6681326],[139.6132669,35.6683523],[139.6132509,35.6685238],[139.6132414,35.6686478],[139.6132427,35.6687098],[139.6132432,35.6687269],[139.6132606,35.669298],[139.6133177,35.6698643]],[[139.617403,35.6481863],[139.6175529,35.6476101],[139.6177304,35.6469222],[139.6178231,35.6465789],[139.6179238,35.6461984],[139.6180259,35.6458173]],[[139.6160861,35.6532845],[139.6161112,35.6531944],[139.6162759,35.6526041],[139.6164575,35.6518433],[139.6164731,35.6517818],[139.6166386,35.6511274],[139.6167453,35.6507854],[139.616928,35.650096],[139.6171758,35.6490886],[139.617217,35.6489165]],[[139.6155465,35.6555416],[139.6155597,35.6554813],[139.6157075,35.6548059],[139.6157881,35.65451],[139.6158894,35.654131],[139.6160633,35.6533803],[139.6160861,35.6532845]],[[139.6646306,35.600755],[139.6658376,35.6004907],[139.6667551,35.600295],[139.6672662,35.6001792],[139.6673526,35.6001589]],[[139.6450298,35.6057947],[139.645255,35.6057291]],[[139.6926777,35.5681856],[139.692474,35.5683357],[139.6923993,35.5683918],[139.6923341,35.5684405],[139.6920542,35.5686529],[139.6917257,35.5689078],[139.6916743,35.5689497],[139.691572,35.5690304],[139.6914908,35.5690992],[139.6913941,35.5691749],[139.6911575,35.5693658],[139.6906517,35.569772],[139.6904648,35.5698999],[139.6904071,35.5699385],[139.6902533,35.5700429],[139.6901601,35.5701025],[139.6899898,35.5702235],[139.6894952,35.5706075],[139.6893704,35.5707041],[139.6890898,35.5709171],[139.6888224,35.5711003],[139.6884984,35.5713065],[139.6883765,35.5713895],[139.6883091,35.5714364],[139.6881721,35.5715244]],[[139.6876766,35.5718471],[139.687284,35.5720904],[139.6871327,35.5721934],[139.6869957,35.5722849],[139.6866869,35.5724979],[139.6862531,35.5727977],[139.6861214,35.5728914],[139.6859976,35.5729754],[139.6859297,35.5730203],[139.6856336,35.5732252],[139.6852252,35.5734924],[139.6850548,35.5736136],[139.6849419,35.5737031],[139.6848237,35.5738089],[139.6847213,35.5739161],[139.684637,35.5740139],[139.6844602,35.5742538],[139.6843859,35.5743774],[139.6843351,35.5744756],[139.6843073,35.5745472],[139.6842763,35.5746461],[139.6841649,35.5750022],[139.6840633,35.5753522],[139.6839617,35.5756835],[139.6839341,35.5757859],[139.6839022,35.5758784],[139.6837103,35.5765502],[139.6835258,35.5771535],[139.6835013,35.5772276],[139.6834691,35.577331],[139.6832738,35.5779745],[139.6830906,35.5786125],[139.6829974,35.5789333],[139.6829766,35.579004],[139.6829582,35.5790642],[139.6829111,35.5792338],[139.6827995,35.5796158],[139.6826366,35.5800818],[139.6825779,35.5802604],[139.6825132,35.5804474],[139.6824465,35.5806382],[139.6823242,35.5809891],[139.6822681,35.5811501]],[[139.6257443,35.6292542],[139.6257071,35.6293713],[139.6253871,35.6303696],[139.6252083,35.6309409],[139.6249989,35.6315642],[139.6249552,35.6316767],[139.6248693,35.6318637],[139.6247265,35.6321364]],[[139.6265648,35.627197],[139.6267046,35.6267825]],[[139.6267046,35.6267825],[139.6269694,35.6260043],[139.6270319,35.6258036],[139.6270661,35.6256942],[139.627487,35.6243469],[139.6275709,35.624076],[139.627677,35.6238073],[139.6277721,35.6236314],[139.6278827,35.6234713],[139.6279872,35.623332],[139.6280872,35.6232082],[139.6281999,35.6230885],[139.62831,35.6229905],[139.628388,35.6229265],[139.6285307,35.6228197],[139.6286886,35.6227016],[139.6291264,35.6224403],[139.6294006,35.6222818],[139.6298373,35.6220295],[139.63024,35.6218085],[139.6304842,35.6216725],[139.6307179,35.6215332],[139.6308966,35.621426],[139.630991,35.6213635],[139.6312034,35.6212182]],[[139.6259797,35.6285065],[139.6257807,35.6291369],[139.6257443,35.6292542]],[[139.6258971,35.6292865],[139.6259343,35.6291686],[139.6262325,35.6282293],[139.6263447,35.6278963]],[[139.6263447,35.6278963],[139.6265052,35.6273844],[139.6265648,35.627197]],[[139.6992456,35.5636866],[139.6995727,35.5634615],[139.6997043,35.5633806],[139.6997989,35.5633328],[139.6999702,35.5632468],[139.7001521,35.5631675],[139.7013594,35.5626961],[139.701424,35.5626709],[139.7015586,35.5626192],[139.701775,35.5625339],[139.7022721,35.5623381],[139.7027562,35.5621474]],[[139.6990624,35.5636759],[139.6989638,35.5637437],[139.6987828,35.5638681]],[[139.6448778,35.6057365],[139.6439083,35.6060019],[139.6438085,35.6060301],[139.6436996,35.6060602],[139.6418379,35.6065692],[139.6416015,35.6066462],[139.641371,35.6067357],[139.6412871,35.606774],[139.6411638,35.6068364],[139.6410456,35.6069016],[139.6409322,35.6069732],[139.6408238,35.6070467]],[[139.6501907,35.6043814],[139.6511828,35.6041094],[139.6516123,35.6039875],[139.6519469,35.6038926],[139.6520838,35.6038538],[139.6521805,35.603821],[139.6523421,35.60377],[139.6531408,35.6034939],[139.6531956,35.6034739],[139.6542791,35.6030978],[139.6546772,35.6029572],[139.6553698,35.6027151],[139.6555742,35.602645],[139.6557855,35.6025819],[139.6559208,35.602548],[139.6560649,35.6025159],[139.6564908,35.6024322],[139.6566646,35.6023987],[139.6567667,35.6023786],[139.6573331,35.6022657],[139.6580082,35.6021321],[139.6585352,35.6020309],[139.6590203,35.6019424],[139.6597815,35.6017961],[139.6601361,35.6017279],[139.6602269,35.6017113],[139.6603115,35.6016952],[139.661443,35.6014486],[139.6619893,35.6013296],[139.6624198,35.6012358],[139.6634538,35.6010075],[139.6643596,35.6008117],[139.6645014,35.6007815]],[[139.6229062,35.6345835],[139.6224365,35.6352033]],[[139.6244181,35.6325962],[139.6243583,35.6326734],[139.6229062,35.6345835]],[[139.7166034,35.5591396],[139.7164093,35.5591823],[139.7161363,35.5592176],[139.7158014,35.5592471],[139.7153242,35.5592871]],[[139.7223563,35.5580317],[139.7225362,35.5579947],[139.7229985,35.5578811],[139.7231657,35.5578391],[139.7233818,35.5577921],[139.7236526,35.557733],[139.723818,35.5576984],[139.7239562,35.5576611],[139.724107,35.5576189],[139.7242782,35.5575552],[139.7245022,35.5574633],[139.7246058,35.5574144],[139.7247275,35.5573638],[139.7248076,35.557317],[139.7254949,35.556851],[139.7255995,35.5567807],[139.7256889,35.5567128],[139.7260204,35.5564657],[139.7263394,35.5562357],[139.7264348,35.5561658],[139.7273565,35.5555019],[139.727454,35.5554305],[139.7275307,35.5553767],[139.7277834,35.5551992],[139.7285629,35.5546516],[139.7286628,35.5545815],[139.7287456,35.554521],[139.7288812,35.554422]],[[139.758357,35.5464289],[139.7581996,35.5465732],[139.758051,35.5467351],[139.7578544,35.5469739],[139.7575435,35.547376],[139.7572342,35.5478344],[139.7566645,35.5485996],[139.7563117,35.5490322],[139.7561012,35.5492307],[139.7558416,35.5494501],[139.7556117,35.5496057],[139.7553409,35.5497497],[139.7551222,35.5498599],[139.754957,35.5499404],[139.7548117,35.550006]],[[139.615836,35.6866947],[139.6158801,35.6869344],[139.6159607,35.6874003]],[[139.6159501,35.6866835],[139.6159249,35.6865377],[139.6159085,35.686443],[139.6158952,35.686354],[139.6158178,35.6857664],[139.6157857,35.6855454]],[[139.6358132,35.617306],[139.6359477,35.6170111],[139.6359872,35.6169272],[139.6361151,35.6166551],[139.6362464,35.6163705],[139.6364346,35.615947],[139.6366825,35.6154138],[139.6368654,35.6150243],[139.6369161,35.6149108]],[[139.6383235,35.6118803],[139.6383837,35.6117562],[139.6385279,35.6114754],[139.6388275,35.6108104],[139.6389894,35.6104603],[139.6391291,35.610172],[139.6392472,35.6099177],[139.6392786,35.6098501],[139.6393282,35.609743],[139.639469,35.6094439],[139.6397182,35.6089147],[139.6398975,35.60853],[139.6401403,35.6080396],[139.6402619,35.6078123],[139.6403542,35.6076722],[139.6404544,35.6075395],[139.6405294,35.6074562],[139.640568,35.6074133],[139.6406893,35.6072927]],[[139.6344789,35.6190916],[139.6343761,35.6191555],[139.6342242,35.6192488],[139.6338029,35.6194994],[139.6335731,35.6196361],[139.6329341,35.6200206],[139.632736,35.6201361],[139.6325874,35.6202285],[139.6324243,35.6203273]],[[139.6382474,35.611799],[139.6381785,35.6119376],[139.6381206,35.612057],[139.6379981,35.6123106]],[[139.6143176,35.6776673],[139.6143934,35.6782304],[139.6144669,35.6790844],[139.6145463,35.6800101],[139.6145846,35.680251],[139.6146558,35.6805678],[139.6147793,35.6809927],[139.6148918,35.6813036],[139.6149113,35.6813593],[139.6149435,35.6814572],[139.6149745,35.6815574],[139.6150003,35.6816296],[139.6152094,35.6822142],[139.6152369,35.6822914],[139.6152874,35.6824329],[139.6154791,35.6829862]],[[139.7624439,35.5445145],[139.7614375,35.5449283],[139.7613054,35.5449826],[139.7606336,35.5452251],[139.7600276,35.5454221],[139.7599417,35.5454541],[139.7596285,35.5455708]],[[139.7594512,35.5458733],[139.76007,35.5456006],[139.76039,35.5454871],[139.7610317,35.5452771],[139.7617892,35.5449854],[139.7619725,35.5449148]],[[139.6155431,35.6831697],[139.6155686,35.6832605]],[[139.6155201,35.6831014],[139.6155431,35.6831697]],[[139.6148939,35.7104326],[139.6149622,35.7095509]],[[139.6142797,35.7173252],[139.6143109,35.716997]],[[139.6142021,35.7190875],[139.6142124,35.7189722],[139.6142221,35.7188764],[139.6142955,35.7180386],[139.6143482,35.7174377],[139.6143388,35.7171246],[139.6143109,35.716997]],[[139.6142086,35.7171039],[139.6141194,35.7172756],[139.6140452,35.7180502],[139.6139929,35.71886],[139.6139929,35.7189677],[139.6139926,35.7190839]],[[139.7619725,35.5449148],[139.7625145,35.54469]],[[139.6292245,35.745159],[139.6294518,35.7453047],[139.6297224,35.7454783],[139.629792,35.7455229],[139.6307102,35.7461156],[139.6308009,35.7461742],[139.6309189,35.7462488],[139.6311144,35.7463723],[139.6322716,35.7471125],[139.6326801,35.747293]],[[139.6289318,35.7449658],[139.6291778,35.7451305]],[[139.6296403,35.7451437],[139.6293955,35.7449935],[139.6293403,35.7449596]],[[139.6293403,35.7449596],[139.629223,35.744887],[139.629064,35.7447803],[139.6289842,35.7447274]],[[139.6521196,35.7610361],[139.6522351,35.7612311],[139.652329,35.7613796],[139.6524653,35.7616015]],[[139.6524653,35.7616015],[139.6526099,35.7618924],[139.6526314,35.761938],[139.6526694,35.76202],[139.6527389,35.7621544],[139.6531867,35.7630249],[139.6532122,35.7630739],[139.6533945,35.7634366],[139.6534414,35.7635143],[139.6534688,35.7635667],[139.6535478,35.7637221],[139.6535817,35.7638],[139.6535938,35.7638286],[139.6536121,35.7638969],[139.653622,35.7639346],[139.653636,35.7639887],[139.6536431,35.7640158],[139.6536546,35.7641075],[139.6536705,35.7642663],[139.6536674,35.7644317],[139.6536518,35.7645621],[139.6536314,35.7646638],[139.6535918,35.7647955],[139.6535146,35.7650722],[139.6534415,35.7653041],[139.6533407,35.765605],[139.6532879,35.7658183],[139.6531195,35.7664976],[139.6530975,35.7665909],[139.6529777,35.766978],[139.6529431,35.7670863]],[[139.7402892,35.5524034],[139.7404117,35.5524133]],[[139.7121229,35.5595746],[139.7117937,35.5596],[139.7117242,35.5596047],[139.711637,35.5596095]],[[139.7131438,35.5594726],[139.7126448,35.5595193],[139.7121229,35.5595746]],[[139.6522206,35.7592476],[139.6521611,35.7593387],[139.6521132,35.7594211],[139.6520846,35.7594809],[139.6520575,35.7595483],[139.652031,35.7596268],[139.6520023,35.7597175],[139.6519833,35.7597971],[139.6519708,35.7598689],[139.6519593,35.7599586],[139.6519521,35.7600378],[139.6519513,35.7600954],[139.6519506,35.7601529],[139.6519533,35.760231],[139.6519604,35.7602916],[139.6519783,35.7604171],[139.6520026,35.7605218],[139.6520356,35.760623],[139.6520545,35.7606808],[139.6520841,35.7607491],[139.6521244,35.7608377]],[[139.6531126,35.7582668],[139.6530013,35.7583479],[139.6527852,35.7585144],[139.6525754,35.7587004],[139.6524069,35.758871],[139.6522583,35.7590512],[139.6522278,35.7590891]],[[139.652353,35.7608992],[139.6522739,35.760713],[139.6522355,35.7606087],[139.6522056,35.7605238],[139.6521844,35.7604459],[139.6521645,35.7603416],[139.6521546,35.7602791],[139.652149,35.7602165],[139.6521457,35.760144],[139.652151,35.7600453],[139.6521596,35.759997],[139.6521991,35.75976],[139.6522752,35.7595595],[139.6523036,35.7595083],[139.6523827,35.759366],[139.6524115,35.7593192]],[[139.6524115,35.7593192],[139.6524148,35.759296],[139.6523974,35.7592645],[139.6523706,35.7592482],[139.6523318,35.7592298],[139.6522877,35.7592059],[139.6522288,35.7591842],[139.6521753,35.7591852],[139.6521355,35.7592103]],[[139.7815646,35.5389825],[139.7821638,35.5393148],[139.782366,35.5394258],[139.7826147,35.5395378],[139.7828454,35.5396218],[139.783048,35.5396836],[139.7832016,35.5397223],[139.7834056,35.5397663],[139.7837272,35.5398232],[139.7840582,35.5398567],[139.7842465,35.539864],[139.7844394,35.5398651],[139.7855067,35.5398356],[139.7857784,35.5398405],[139.7859694,35.5398504],[139.7862114,35.5398678],[139.7864439,35.5398976],[139.7867123,35.5399361],[139.7869591,35.5399847],[139.7871819,35.5400401],[139.7873672,35.5400925],[139.7875611,35.5401611],[139.7877988,35.5402465],[139.7886997,35.5406142]],[[139.6135011,35.6718635],[139.6134266,35.6704747]],[[139.6134229,35.6718723],[139.6135061,35.6733079]],[[139.6161392,35.6880747],[139.6160753,35.6876297]],[[139.6160753,35.6876297],[139.6159501,35.6866835]],[[139.6159607,35.6874003],[139.6160627,35.6880852]],[[139.6160627,35.6880852],[139.6163329,35.6898901],[139.6164858,35.690934]],[[139.6166115,35.6919002],[139.6166791,35.6923629],[139.6167722,35.6927597],[139.6167931,35.6928373],[139.6168246,35.6929545],[139.6170191,35.6936033],[139.6170927,35.6938535],[139.6171466,35.6940317]],[[139.6166417,35.6914657],[139.6165609,35.6909252]],[[139.7532687,35.5504394],[139.7527097,35.5505496]],[[139.6530591,35.7670605],[139.6530884,35.7669493],[139.6534343,35.7657011],[139.6536582,35.7651059],[139.6537257,35.7649265],[139.6537959,35.7646977],[139.6538168,35.7645765],[139.6538003,35.7643389],[139.6537872,35.7642126],[139.65376,35.764018],[139.653749,35.7639447],[139.6537201,35.7638269],[139.6536895,35.7637309],[139.6536792,35.7637005],[139.6532879,35.7628975],[139.6529289,35.7621757],[139.6528721,35.7620559],[139.6528063,35.7619369],[139.6527734,35.7618723],[139.6527022,35.7617166]],[[139.6527022,35.7617166],[139.6525587,35.7613139],[139.6523911,35.7609751],[139.652353,35.7608992]],[[139.6522278,35.7590891],[139.6521906,35.7591326],[139.6521355,35.7592103]],[[139.6524115,35.7593192],[139.6524577,35.7592382],[139.6524904,35.7591937]],[[139.6521355,35.7592103],[139.6520858,35.759282],[139.6520172,35.7594004],[139.6519473,35.7595628],[139.6518885,35.7597896],[139.6518685,35.7598898],[139.6518531,35.7600881],[139.6518542,35.7602083],[139.6518823,35.7603967],[139.651909,35.760515],[139.6519532,35.7606615],[139.6520339,35.7608516],[139.6521196,35.7610361]],[[139.7389983,35.5524175],[139.7392443,35.5523905],[139.7393966,35.5523807],[139.7395801,35.5523719],[139.7398344,35.5523762],[139.7400369,35.5523889],[139.7401244,35.5523949],[139.7402892,35.5524034]],[[139.738321,35.5524077],[139.7379132,35.5524514],[139.7376874,35.5524748],[139.7366952,35.5525743],[139.7363743,35.5526116]],[[139.7356931,35.5526818],[139.7355728,35.5526996],[139.7354935,35.5527073],[139.7352803,35.5527252],[139.7351155,35.5527428],[139.7345987,35.552798],[139.7340798,35.552842],[139.7335793,35.5528781],[139.7334685,35.5528874]],[[139.7356852,35.552781],[139.7358308,35.5527623],[139.735972,35.5527464],[139.7364689,35.5526925],[139.7365447,35.5526846],[139.7383374,35.552498]],[[139.6171354,35.7359388],[139.6174183,35.7361795],[139.6178023,35.7365125],[139.6182528,35.7369101],[139.6183488,35.7369948],[139.618656,35.737268],[139.6188317,35.7374182],[139.6189021,35.7374784]],[[139.6146969,35.7334176],[139.6146798,35.7332776],[139.6146771,35.7331429]],[[139.6177655,35.6961471],[139.6177666,35.6963439],[139.6177646,35.6964635],[139.6177514,35.6966166],[139.6176611,35.6971622],[139.6175697,35.6976425],[139.6174759,35.6981844],[139.6174054,35.6985998]],[[139.7633023,35.5442496],[139.7631946,35.5442938],[139.7614072,35.5450281],[139.7609894,35.5451791],[139.7605716,35.5453243]],[[139.6332749,35.7476335],[139.6334687,35.7477395],[139.6336121,35.7478179],[139.6347811,35.748445],[139.6354026,35.7487812],[139.6354545,35.7488138],[139.6355785,35.7488918],[139.6356871,35.748949],[139.6359095,35.7490661],[139.6369763,35.749628],[139.6370183,35.7496502],[139.6370692,35.7496772],[139.6372036,35.7497483]],[[139.617189,35.7357645],[139.6170807,35.7356449],[139.6170099,35.7355652],[139.6166294,35.7352255],[139.616216,35.7348565],[139.6160233,35.734687],[139.6160095,35.7346746],[139.6156174,35.7343225],[139.6155648,35.7342753],[139.6153163,35.7341079]],[[139.617023,35.7358374],[139.6171055,35.7359118],[139.6171354,35.7359388]],[[139.6173841,35.7359463],[139.6172676,35.7358378],[139.617189,35.7357645]],[[139.6388434,35.7506146],[139.6394482,35.7509372]],[[139.6384577,35.7503402],[139.6379546,35.7500659]],[[139.6384159,35.7503861],[139.6388434,35.7506146]],[[139.6394817,35.7508988],[139.6388685,35.7505642]],[[139.6379126,35.7501172],[139.6384159,35.7503861]],[[139.6464362,35.754644],[139.646181,35.7545056]],[[139.6463781,35.7547028],[139.6471135,35.7551097]],[[139.6440954,35.7533881],[139.6435613,35.7531005]],[[139.6440546,35.7534385],[139.6449756,35.7539378]],[[139.6435613,35.7531005],[139.6434152,35.7530174]],[[139.6435203,35.7531508],[139.6440546,35.7534385]],[[139.6434152,35.7530174],[139.6420562,35.7522811]],[[139.6433746,35.7530682],[139.6435203,35.7531508]],[[139.6420562,35.7522811],[139.6417992,35.7521423]],[[139.6420143,35.7523344],[139.6433746,35.7530682]],[[139.6417992,35.7521423],[139.6416778,35.7520769],[139.6406313,35.7515225]],[[139.6417579,35.7521952],[139.6420143,35.7523344]],[[139.6406313,35.7515225],[139.6403738,35.7513866],[139.6402275,35.7513091],[139.6394817,35.7508988]],[[139.6405943,35.7515678],[139.6416353,35.7521299],[139.6416526,35.7521393],[139.6417579,35.7521952]],[[139.6379546,35.7500659],[139.6371611,35.7496332]],[[139.6372036,35.7497483],[139.6377564,35.7500337],[139.6379126,35.7501172]],[[139.6255874,35.6275249],[139.6257976,35.627511],[139.6259094,35.6275121],[139.626022,35.627523],[139.6260663,35.627535],[139.6261039,35.6275533],[139.6261602,35.6275873],[139.6261857,35.6276219],[139.6262005,35.6276644],[139.6262099,35.6277386],[139.6261951,35.627877]],[[139.6271892,35.6271014],[139.627107,35.6271001],[139.6270104,35.6271045],[139.6269421,35.6271142],[139.6268857,35.6271175],[139.6268361,35.6271153],[139.6267906,35.6270987],[139.6267435,35.6270706],[139.6267114,35.6270369],[139.6266966,35.6269845],[139.6266939,35.6269006],[139.6267046,35.6267825]],[[139.6142211,35.7233916],[139.61425037762942,35.723503948493594]],[[139.61425037762942,35.723503948493594],[139.6142875,35.7236464]],[[139.6142875,35.7236464],[139.61430836851457,35.72351019992267]],[[139.61430836851457,35.72351019992267],[139.614327,35.7233886]],[[139.6142086,35.7171039],[139.6141812,35.7174222]],[[139.6148877,35.7095481],[139.6148031,35.710434]],[[139.6213462,35.7396154],[139.6216971,35.7399195],[139.621777,35.7399891],[139.6224034,35.7405352],[139.6226867,35.740788]],[[139.6214108,35.7394842],[139.6213097,35.7393976],[139.6208092,35.738969],[139.6205141,35.7387067],[139.6203427,35.7385543],[139.6202715,35.7384909]],[[139.6228562,35.7409323],[139.622936,35.7409961],[139.6230501,35.7410871],[139.6231998,35.741196],[139.6232508,35.741233],[139.6235933,35.7414556],[139.6240525,35.7417523],[139.6241815,35.7418376],[139.6246121,35.7421136],[139.6248554,35.7422758],[139.6249068,35.7423153],[139.625053,35.7424279],[139.6252218,35.7425579],[139.6254904,35.7427382],[139.6256616,35.7428471],[139.6257417,35.7428978],[139.6258134,35.742944],[139.6261414,35.7431555],[139.6266356,35.7434714],[139.6268635,35.7436171]],[[139.6268635,35.7436171],[139.627047,35.7437382],[139.6274162,35.7439817]],[[139.6274162,35.7439817],[139.6277705,35.7442154],[139.6282888,35.7445416],[139.6283301,35.7445676],[139.62842,35.7446209],[139.6285912,35.744744],[139.6286669,35.7447951]],[[139.6226867,35.740788],[139.6228562,35.7409323]],[[139.6228985,35.7407849],[139.6219525,35.7399605],[139.6218896,35.7399051],[139.6214108,35.7394842]],[[139.6202715,35.7384909],[139.6201892,35.738418],[139.6201632,35.7383949],[139.6195768,35.7378828],[139.6191176,35.7374879],[139.6190896,35.7374639],[139.61901,35.7373955]],[[139.6201435,35.7385567],[139.6202169,35.7386228],[139.6204079,35.7387946]],[[139.61901,35.7373955],[139.6189405,35.7373346],[139.6187023,35.7371259],[139.6183607,35.7368265],[139.618312,35.7367839],[139.6179982,35.7365089],[139.6173841,35.7359463]],[[139.6189021,35.7374784],[139.6189796,35.7375461],[139.6196083,35.7380945],[139.6197109,35.7381796],[139.6199317,35.7383628],[139.6200585,35.7384788],[139.6201435,35.7385567]],[[139.6144264,35.7308892],[139.6144309,35.7309799],[139.6144414,35.7311933],[139.6144459,35.7312856],[139.6144503,35.7313869],[139.6144666,35.731758],[139.614471,35.7318573],[139.614471,35.7319308],[139.6144805,35.7330136],[139.6144919,35.7332256]],[[139.6146232,35.7298713],[139.6146237,35.7297025],[139.6146239,35.7296157],[139.6146242,35.7295237],[139.6146247,35.7293474],[139.614625,35.72924],[139.6146031,35.7286224],[139.6145983,35.7285292],[139.6145891,35.7280956],[139.6145846,35.7279639],[139.6145809,35.7278152]],[[139.6522195,35.7608076],[139.6521678,35.7606871],[139.6521357,35.760602],[139.6521112,35.7605221],[139.6520881,35.7604262],[139.6520682,35.7602993],[139.6520598,35.7602197],[139.6520561,35.7601795],[139.6520578,35.7601393],[139.6520604,35.7600699],[139.652062,35.7600083],[139.6520646,35.7599586],[139.6520693,35.759908],[139.6520798,35.7598446],[139.6520967,35.759769],[139.6521135,35.75971],[139.6521363,35.7596434],[139.6521667,35.7595615],[139.6522003,35.759483],[139.6522511,35.7593862],[139.6523169,35.7592808]],[[139.6521244,35.7608377],[139.6521774,35.7609486],[139.6522429,35.761087],[139.6523169,35.7612323],[139.6523911,35.7614169],[139.6524653,35.7616015]],[[139.6527022,35.7617166],[139.6524799,35.7613333],[139.6524337,35.7612488],[139.6522834,35.7609483],[139.6522195,35.7608076]],[[139.6314718,35.7463316],[139.6312959,35.7462172],[139.6311805,35.7461421],[139.631057,35.7460621],[139.6310276,35.746043],[139.6299653,35.7453543],[139.6298888,35.7453031],[139.6298122,35.7452519],[139.6296403,35.7451437]],[[139.6145555,35.7331415],[139.614628,35.7334498],[139.6147461,35.7336637]],[[139.617215,35.6942571],[139.6174586,35.695046]],[[139.6171466,35.6940317],[139.6171898,35.6941714],[139.617215,35.6942571]],[[139.6165649,35.6914585],[139.6166115,35.6919002]],[[139.7767612,35.5383138],[139.7772507,35.5380962],[139.7775108,35.5379912],[139.7777547,35.5379036],[139.7778937,35.5378657],[139.7780327,35.5378278],[139.7782047,35.5377961],[139.7783955,35.5377753],[139.7786065,35.5377613],[139.7788144,35.5377612],[139.779025,35.5377808],[139.7792217,35.5378136],[139.7793949,35.5378614],[139.7795368,35.5379043],[139.7796856,35.5379606],[139.7797994,35.5380102],[139.7799405,35.5380827],[139.7804029,35.5383356],[139.7815646,35.5389825]],[[139.7816124,35.5389241],[139.7805406,35.5382985],[139.7799578,35.5379864],[139.7798196,35.5379196],[139.7796548,35.5378544],[139.7794091,35.5377752],[139.7792326,35.5377276],[139.779031,35.5376887],[139.7788115,35.5376677],[139.7785579,35.5376636],[139.778385,35.5376732],[139.7782089,35.5376968],[139.7780447,35.5377289],[139.7778672,35.5377741],[139.777689,35.5378327],[139.7774798,35.5379128],[139.7772266,35.5380206],[139.776996,35.5381281],[139.7767248,35.5382518]],[[139.6404641,35.6073408],[139.6403554,35.6074615],[139.6402439,35.6076231]],[[139.6165475,35.7354235],[139.6165856,35.7354542],[139.6166851,35.7355344],[139.6169334,35.7357558],[139.617023,35.7358374]],[[139.680225,35.7772765],[139.6801716,35.7772633],[139.6795971,35.7771167]],[[139.6797225,35.7772275],[139.6801477,35.7773335],[139.6802359,35.7773562]],[[139.7921917,35.5422107],[139.792127,35.5421598],[139.7915738,35.5418971],[139.7914254,35.5418115],[139.790792,35.541509]],[[139.6291778,35.7451305],[139.6292041,35.7451459],[139.6292245,35.745159]],[[139.6822681,35.5811501],[139.6821261,35.5815346],[139.6819953,35.5818913],[139.681902,35.5821649],[139.6818034,35.5824447],[139.6817553,35.5825703],[139.6817011,35.582691],[139.6816277,35.582832],[139.6815441,35.5829763],[139.6814745,35.5830906],[139.6814341,35.583159],[139.6812937,35.5833878],[139.6810796,35.5837288],[139.680776,35.5842181],[139.6807103,35.5843182]],[[139.6824051,35.581092],[139.6824327,35.5810182],[139.6824773,35.580899],[139.6825425,35.5807107],[139.6826363,35.5804479],[139.6827508,35.5800963],[139.6828341,35.5797831],[139.6829309,35.5794555],[139.6829867,35.5792735],[139.6830459,35.5790885],[139.6830688,35.5790143],[139.683088,35.5789467],[139.6832154,35.5785094],[139.6833902,35.5779344],[139.6835554,35.5773745],[139.6835883,35.5772737],[139.6836067,35.5772039],[139.6836584,35.5770341],[139.6837782,35.5766354],[139.6839634,35.5760101],[139.6839992,35.5759],[139.6840239,35.5758079],[139.6840487,35.5757036],[139.6841532,35.5753547],[139.6842798,35.574931],[139.6843646,35.5746633],[139.6843964,35.5745762],[139.6844274,35.5745071],[139.6844672,35.5744257],[139.6845318,35.5743054],[139.6846141,35.5741794],[139.6847146,35.5740557],[139.684808,35.5739493],[139.6849129,35.5738424],[139.6850187,35.5737457],[139.6851371,35.5736543],[139.6852643,35.5735644],[139.6855207,35.5733983],[139.6858187,35.5732069],[139.6860728,35.5730559],[139.6862086,35.572983],[139.6863514,35.5729024],[139.6864573,35.5728375],[139.6867617,35.5726544],[139.6871537,35.5724074],[139.6872231,35.5723659],[139.6873403,35.572285],[139.6874759,35.5722027],[139.687624,35.5721084],[139.6878686,35.5719529],[139.6881132,35.5717916],[139.6881222,35.5717853],[139.6881596,35.5717591],[139.6882919,35.5716779]],[[139.6180101,35.6454317],[139.617992,35.6455022]],[[139.6180965,35.6455323],[139.6181176,35.64546]],[[139.6181176,35.64546],[139.6181339,35.6454044]],[[139.6180261,35.6453749],[139.6180101,35.6454317]],[[139.6170905,35.6488356],[139.6170561,35.6489691],[139.6170307,35.649072]],[[139.617217,35.6489165],[139.6172428,35.648816],[139.6172881,35.648628],[139.617403,35.6481863]],[[139.7666137,35.5426448],[139.7657307,35.5431935]],[[139.7657307,35.5431935],[139.7665123,35.5427979],[139.7669806,35.5426022]],[[139.7605716,35.5453243],[139.7602249,35.5454261],[139.7600054,35.5455007],[139.7597252,35.5456152],[139.7594879,35.5457246],[139.7592942,35.5458259],[139.7591522,35.5459001],[139.758955,35.5460123],[139.758827,35.5460932],[139.7586138,35.5462547],[139.7584747,35.5463261]],[[139.7594512,35.5458733],[139.7597586,35.5456753],[139.7600473,35.5455343],[139.7605716,35.5453243]],[[139.7657307,35.5431935],[139.7650117,35.5435458],[139.7634043,35.544205],[139.7633023,35.5442496]],[[139.7587834,35.5460474],[139.7585392,35.5462272],[139.7584747,35.5463261]],[[139.7585901,35.5464138],[139.7588848,35.5461986],[139.7590408,35.5460996],[139.7594512,35.5458733]],[[139.7548117,35.550006],[139.7546045,35.5500986],[139.7542806,35.5502158],[139.7540883,35.5502716],[139.7539667,35.5503013]],[[139.7291438,35.5542285],[139.7294533,35.5540046],[139.7295414,35.5539402],[139.72979,35.5537538],[139.729885,35.5536929],[139.7299832,35.5536375],[139.7302746,35.5535034],[139.7306728,35.553337],[139.730988,35.5532338],[139.7312585,35.5531679],[139.732156,35.5530847],[139.7322571,35.5530773],[139.7333649,35.5529958],[139.7334637,35.5529874],[139.7335748,35.5529772],[139.7345793,35.5528926],[139.7348703,35.5528649],[139.7350473,35.5528485]],[[139.7288812,35.554422],[139.7291438,35.5542285]],[[139.7219314,35.5580072],[139.7217872,35.5580402],[139.7213665,35.5581309],[139.72116,35.5581787],[139.7207476,35.5582631],[139.7206611,35.5582835],[139.7203685,35.5583527],[139.72027,35.5583741],[139.7196756,35.5585031],[139.7190083,35.5586374]],[[139.7185747,35.5588283],[139.7194118,35.5586448],[139.7202287,35.5584743],[139.7202971,35.5584598],[139.7207027,35.5583735]],[[139.718206,35.5587993],[139.7176184,35.558926],[139.7172759,35.5589971],[139.717105,35.5590313]],[[139.7166224,35.5592317],[139.716922,35.5591731],[139.7172009,35.5591148],[139.7178423,35.5589776]],[[139.7460961,35.5516774],[139.7460474,35.5516862],[139.7457962,35.5517233],[139.7457384,35.5517316],[139.7456845,35.5517412],[139.7455652,35.5517565],[139.7455087,35.5517625],[139.7453978,35.551771]],[[139.7454354,35.5518732],[139.7455428,35.5518588],[139.7455956,35.5518517],[139.7457153,35.5518333],[139.7457686,35.5518253],[139.7461259,35.5517749],[139.7464144,35.5517303]],[[139.753991,35.550406],[139.7541119,35.5503802],[139.7543262,35.5503237],[139.7545554,35.5502496],[139.7547278,35.5501924],[139.754897,35.5501209]],[[139.7404479,35.552314],[139.7403207,35.552312]],[[139.7580184,35.5469877],[139.7581477,35.5468406],[139.7582942,35.5466831],[139.7584715,35.5465182],[139.7585901,35.5464138]],[[139.7584747,35.5463261],[139.758357,35.5464289]],[[139.7625773,35.5446644],[139.7626856,35.5446189],[139.7637755,35.5441633],[139.7650474,35.5436319],[139.7655416,35.5434022],[139.7657275,35.5433098],[139.7658505,35.5432477],[139.7666994,35.5427568],[139.7669806,35.5426022]],[[139.7669806,35.5426022],[139.7669962,35.5425936],[139.7672361,35.5424741],[139.7675129,35.5423489],[139.7677542,35.5422378],[139.768273,35.5420052]],[[139.768273,35.5420052],[139.7686622,35.5418381],[139.7690767,35.5416663],[139.7693614,35.5415547],[139.7694197,35.5415312],[139.7696155,35.5414512]],[[139.7696948,35.5414193],[139.7697661,35.5413949],[139.769815,35.5413775],[139.7699328,35.5413338],[139.7700881,35.5412781],[139.7703737,35.5411704]],[[139.7703737,35.5411704],[139.7705378,35.5411037],[139.7708067,35.5409961],[139.7710955,35.540877],[139.7711405,35.5408574],[139.7712748,35.5407964]],[[139.7767248,35.5382518],[139.7764535,35.5383754],[139.7752044,35.5389414],[139.7737665,35.5395944],[139.77337,35.5397737],[139.7730552,35.5398953],[139.7727527,35.54002],[139.7724657,35.5401491]],[[139.7724657,35.5401491],[139.7718797,35.5404154],[139.7716284,35.5405266],[139.7713393,35.540656],[139.7712145,35.5407112]],[[139.770654,35.5409503],[139.7702627,35.5411072],[139.7697605,35.5412907],[139.769751,35.5412944],[139.7697183,35.5413071],[139.7696071,35.541348]],[[139.7712145,35.5407112],[139.771083,35.5407722],[139.7707931,35.5408934],[139.770654,35.5409503]],[[139.6524904,35.7591937],[139.6525382,35.7591323],[139.6526348,35.7590249],[139.6527536,35.7589118],[139.6528337,35.7588415],[139.6529657,35.7587282],[139.6532917,35.7585045],[139.6534146,35.7584309]],[[139.7633992,35.5441158],[139.7632562676922,35.544175441450626]],[[139.7632562676922,35.544175441450626],[139.7625851,35.5444555],[139.7624439,35.5445145]],[[139.7596285,35.5455708],[139.7594759,35.545637],[139.7593233,35.5457113],[139.7589792,35.5459165],[139.7587834,35.5460474]],[[139.6289842,35.7447274],[139.6288998,35.7446768]],[[139.6287481,35.7448524],[139.6288538,35.7449193],[139.6289318,35.7449658]],[[139.7417523,35.5522064],[139.741185,35.5522593],[139.7407135,35.5522985],[139.7406289,35.5523075],[139.7404479,35.552314]],[[139.7383374,35.552498],[139.7384426,35.5524878],[139.7386026,35.5524704],[139.7389983,35.5524175]],[[139.7363743,35.5526116],[139.7362025,35.5526315],[139.7358271,35.5526657],[139.7356931,35.5526818]],[[139.7350473,35.5528485],[139.7351817,35.5528355],[139.7355046,35.5528006],[139.7355726,35.5527933],[139.7356852,35.552781]],[[139.7237548,35.5576124],[139.7236257,35.5576398],[139.7233337,35.5576979],[139.7225486,35.55787],[139.722523,35.5578757],[139.722461,35.5578874],[139.7222831,35.557929],[139.7219314,35.5580072]],[[139.7255594,35.5566748],[139.7254478,35.5567473],[139.7247511,35.5572165],[139.7246843,35.557259],[139.7245567,35.5573215],[139.7242678,35.557444],[139.7240859,35.5575139],[139.7239176,35.5575659],[139.7237548,35.5576124]],[[139.7207027,35.5583735],[139.7214635,35.5582087],[139.721797,35.5581411],[139.7218529,35.5581294],[139.7219912,35.5581006],[139.7223563,35.5580317]],[[139.7184115,35.5588602],[139.7185747,35.5588283]],[[139.7183225,35.5587737],[139.718206,35.5587993]],[[139.7190083,35.5586374],[139.7185386,35.5587262],[139.7183225,35.5587737]],[[139.7178423,35.5589776],[139.7182546,35.5588944],[139.7184115,35.5588602]],[[139.717105,35.5590313],[139.7169272,35.5590669],[139.7166034,35.5591396]],[[139.7160155,35.5593071],[139.7164233,35.5592593],[139.7166224,35.5592317]],[[139.6880275,35.5716143],[139.6878898,35.5716985],[139.6876766,35.5718471]],[[139.6881721,35.5715244],[139.6880275,35.5716143]],[[139.6884487,35.5715748],[139.6890391,35.5711768],[139.6893058,35.5709862],[139.6896468,35.5707255],[139.6900194,35.5704287],[139.6902802,35.5702048],[139.6903783,35.5701191],[139.6905052,35.5700065],[139.6906681,35.5698669],[139.690792,35.5697583],[139.6909371,35.5696395],[139.6912287,35.5694031],[139.6915097,35.5691818],[139.691607,35.569101],[139.6916953,35.5690292],[139.6921085,35.5687098],[139.692398,35.5684914],[139.6924599,35.568446],[139.6925357,35.5683915],[139.6927448,35.5682408],[139.6931539,35.5679435],[139.6932431,35.567881],[139.6933543,35.5677958],[139.6937635,35.5675005],[139.6940154,35.567323],[139.6942762,35.5671376],[139.6943801,35.5670646]],[[139.6882919,35.5716779],[139.6884487,35.5715748]],[[139.6692147,35.5996784],[139.6694033,35.5996576],[139.6696555,35.5996222]],[[139.6644695,35.6006915],[139.6643328,35.6007208]],[[139.6645014,35.6007815],[139.6646306,35.600755]],[[139.6475378,35.6049546],[139.6474215,35.6049842],[139.6473004,35.6050181]],[[139.6378645,35.6125994],[139.637834,35.6126652],[139.6375934,35.6131899],[139.6375711,35.6132378],[139.6372729,35.6138776],[139.6370028,35.614455],[139.6368621,35.6147649],[139.6368242,35.6148571]],[[139.6368242,35.6148571],[139.6367634,35.6149925]],[[139.6369668,35.6147988],[139.6371586,35.6143939],[139.6373809,35.6139169],[139.6375733,35.6135006],[139.6377014,35.6132275],[139.6379226,35.6127409],[139.6380042,35.6125631]],[[139.6369161,35.6149108],[139.6369668,35.6147988]],[[139.7633023,35.5442496],[139.7632562676922,35.544175441450626]],[[139.7632562676922,35.544175441450626],[139.7619164,35.5420169]],[[139.6789741,35.5870841],[139.6789571,35.5871843]],[[139.6247265,35.6321364],[139.6246044,35.6323367],[139.624492,35.6325],[139.6244181,35.6325962]],[[139.6261951,35.627877],[139.6259797,35.6285065]],[[139.6266891,35.6263159],[139.6266091,35.6265833]],[[139.6266091,35.6265833],[139.6265514,35.626776],[139.62641,35.6272113]],[[139.62641,35.6272113],[139.6263502,35.6274044],[139.6261951,35.627877]],[[139.6350508,35.6185497],[139.6349729,35.6186446],[139.6348879,35.6187453],[139.6348127,35.6188249],[139.6347235,35.6189046],[139.6346067,35.6190025],[139.6345775,35.6190305],[139.6344789,35.6190916]],[[139.6353855,35.6179721],[139.6353545,35.6180374],[139.6352563,35.6182319],[139.635186,35.6183571],[139.6351169,35.6184673],[139.6350508,35.6185497]],[[139.6387105,35.6107959],[139.6382993,35.6116945],[139.6382474,35.611799]],[[139.6324243,35.6203273],[139.6321917,35.6204648],[139.6317074,35.620749],[139.6314129,35.6209419],[139.6312517,35.621053]],[[139.7465193,35.5516014],[139.7460961,35.5516774]],[[139.7625145,35.54469],[139.7625773,35.5446644]],[[139.7696155,35.5414512],[139.7696948,35.5414193]],[[139.7889918,35.5406603],[139.7887453,35.5405474]],[[139.7893793,35.5408487],[139.7889918,35.5406603]],[[139.6156877,35.6832536],[139.6156615,35.6831666]],[[139.6156615,35.6831666],[139.61564,35.6831055]],[[139.6156033,35.706115],[139.6157092,35.7057083],[139.6157214,35.7056616],[139.6157438,35.7055675]],[[139.6157438,35.7055675],[139.6157676,35.7054791],[139.6158402,35.7052097]],[[139.6144919,35.7332256],[139.6145188,35.7333929],[139.614538,35.7335208],[139.6145766,35.7336123],[139.6146399,35.7336836]],[[139.6146655,35.7306775],[139.6146376,35.7301453],[139.6146301,35.730003],[139.6146281,35.7299648],[139.6146232,35.7298713]],[[139.6144266,35.7298061],[139.6144221,35.7299334],[139.614415,35.7301361],[139.6144067,35.7303733],[139.6144264,35.7308892]],[[139.6143372,35.6771195],[139.6143226,35.6770471],[139.6142951,35.6769114]],[[139.6142843,35.6768664],[139.6139455,35.6753564],[139.6139323,35.6752927],[139.613819,35.6748098],[139.613776,35.6745941],[139.6136687,35.6741431]],[[139.6142951,35.6769114],[139.6142843,35.6768664]],[[139.6149921,35.7078203],[139.6149762,35.7078984],[139.6149418,35.7080932]],[[139.6151918,35.7080336],[139.6152108,35.707939]],[[139.6151477,35.7083146],[139.6151551,35.7082345],[139.6151918,35.7080336]],[[139.6149418,35.7080932],[139.6149299,35.7081873],[139.6149179,35.7083084],[139.6149064,35.7084613]],[[139.6152108,35.707939],[139.6152389,35.7078117],[139.6152718,35.707668]],[[139.6174054,35.6985998],[139.6173871,35.6987112],[139.6173659,35.6988388]],[[139.6172594,35.6994633],[139.6172051,35.699732],[139.6171587,35.6999498]],[[139.614871,35.6593179],[139.6148941,35.6591979],[139.6149623,35.6587995],[139.6150886,35.6580678],[139.6151361,35.6577586],[139.6152089,35.6572837],[139.6152751,35.6569367],[139.6153944,35.656297],[139.6155317,35.6556148],[139.6155465,35.6555416]],[[139.6147075,35.6602294],[139.6148393,35.6594995],[139.6148613,35.6593752],[139.614871,35.6593179]],[[139.6159776,35.6532693],[139.6159555,35.6533636],[139.6157675,35.6541097],[139.6156685,35.6544792],[139.6155533,35.6549822],[139.6154442,35.6554588],[139.6154293,35.6555237],[139.6154144,35.6555961],[139.6151523,35.6569201],[139.6150349,35.6575331],[139.6149177,35.6580492],[139.6148413,35.6585089]],[[139.6148413,35.6585089],[139.6147383,35.6591294],[139.6147282,35.6591889],[139.6147075,35.659312]],[[139.6164243,35.703074],[139.6164476,35.7030134],[139.6164753,35.7029416]],[[139.6144937,35.7150703],[139.6145039,35.7149656],[139.6146037,35.7136854],[139.6146088,35.7136294],[139.6146136,35.7135699],[139.6146199,35.7135033],[139.6147094,35.7124424],[139.6147185,35.7123342],[139.6147291,35.7122258],[139.6147944,35.7115663],[139.6148024,35.7114692],[139.6148123,35.7113754],[139.6148673,35.710737],[139.6148785,35.7106067],[139.6148939,35.7104326]],[[139.6143808,35.7150628],[139.6143729,35.7151738],[139.6142933,35.7160713],[139.6142722,35.7163603],[139.6142362,35.7167646],[139.6142086,35.7171039]],[[139.7483917,35.551325],[139.7482558,35.5513495],[139.7480515,35.5513814],[139.7478973,35.5514046],[139.7476886,35.5514353],[139.7472572,35.5514936],[139.7465981,35.5515873],[139.7465193,35.5516014]],[[139.7490864,35.5511983],[139.748752,35.5512612],[139.7485225,35.5513034],[139.7483917,35.551325]],[[139.7502024,35.5509983],[139.7500971,35.5510171],[139.7495265,35.5511194],[139.7490864,35.5511983]],[[139.6705302,35.7703882],[139.6708035,35.7707316],[139.6710913,35.7711042]],[[139.6146623,35.7318437],[139.6146618,35.7317541],[139.6146596,35.7313869],[139.6146584,35.7311961],[139.6146629,35.7308643],[139.6146655,35.7306775]],[[139.6172964,35.6998017],[139.6173074,35.6997464],[139.6173597,35.6995032],[139.6174112,35.6992151],[139.6174577,35.6989715],[139.6174808,35.6988433]],[[139.6171587,35.6999498],[139.6171225,35.7000878],[139.6169819,35.7006101],[139.6168487,35.7011121],[139.616803,35.7012801]],[[139.6173218,35.6990716],[139.6172594,35.6994633]],[[139.6766628,35.7759969],[139.6764489,35.7758291],[139.6755341,35.7750545]],[[139.6312034,35.6212182],[139.6313576,35.6211026]],[[139.6357604,35.6174215],[139.6358132,35.617306]],[[139.635513,35.6176827],[139.6353855,35.6179721]],[[139.6356491,35.6173884],[139.635513,35.6176827]],[[139.6931178,35.5678706],[139.6930452,35.5679232],[139.6926777,35.5681856]],[[139.6312517,35.621053],[139.6311139,35.6211559]],[[139.6177245,35.6959321],[139.6177377,35.6959936],[139.6177655,35.6961471]],[[139.6156109,35.6850904],[139.6156374,35.6852855],[139.6156414,35.6853149]],[[139.6157426,35.685301],[139.6156825,35.6849246],[139.6156674,35.6846997],[139.6156666,35.6844131],[139.6157276,35.683664],[139.6157255,35.6835032],[139.6157082,35.6833658],[139.6156877,35.6832536]]]}}]}
