{"type":"FeatureCollection","features":[{"type":"Feature","properties":{"id":"tokyo-prefectural-317","name":"東京都道317号環状六号線","aliases":["都道317号","東京都道317号","環状六号線","環六通り","環六","環6"],"type":"road","roadClass":"prefectural","routeNumber":"317","jurisdiction":"Tokyo","geometrySource":"n13","source":["MLIT National Land Numerical Information N13 2024"],"license":"N13 source terms apply","confidence":"medium","note":"Identity comes from the road registry and OSM reference; display geometry is stitched from selected N13 segments.","match":{"candidateCount":84398,"selectedFeatureCount":648,"osmCoveragePercent":96.54},"geometryProcessing":{"source":"MLIT N13","display":"endpoint-snapped and line-merged","sourceSegmentCount":648,"displayChainCount":58,"sourceLengthMeters":33660.591,"stitchedLengthMeters":33659.625,"endpointSnapCount":27,"maximumSnappedGapMeters":1.779,"unresolvedBreakCount":89,"maximumSourceResidualMeters":25.751,"maximumDisplayResidualMeters":25.751,"parallelCarriagewaysCollapsed":false,"endpointSnapMeters":2.0}},"geometry":{"type":"MultiLineString","coordinates":[[[139.691478671,35.649238391],[139.691358136,35.649220589],[139.69092785,35.649554508],[139.690705476,35.64975823599999],[139.690588616,35.649871183],[139.690565493,35.64989290500001],[139.690454483,35.65],[139.6904501,35.650004229],[139.690361327,35.650083556],[139.690339498,35.650104773],[139.689979842,35.650454610000004],[139.689837539,35.650603718],[139.68975652,35.650727039],[139.689652874,35.650885508],[139.689607107,35.651033318],[139.689584114,35.651154853],[139.689538947,35.651587843],[139.689516161,35.651955572],[139.689495345,35.65232350600001],[139.689502101,35.652411197000006],[139.689593491,35.652432928],[139.689677224,35.652412969],[139.689699456,35.652201805],[139.689726593,35.65176177400001],[139.689749667,35.65137411700001],[139.689773985,35.651189482],[139.689799531,35.651073313],[139.689832466,35.650974189],[139.689927462,35.650797019],[139.690025239,35.6506641],[139.690075494,35.650602752000005],[139.690238281,35.65044141799999],[139.690443231,35.65024934600001],[139.690685592,35.650043675],[139.690704068,35.650027820000005],[139.690732994,35.65],[139.690790989,35.649944224],[139.690957441,35.64978400299999],[139.691042389,35.649701551],[139.691453385,35.64933625700001],[139.691478671,35.649238391]],[[139.688871059,35.652526499000004],[139.688835564,35.652620475],[139.68878795,35.652734589],[139.688788316,35.652780957],[139.688806222,35.652869028],[139.688859389,35.652926417],[139.68893027800002,35.65295749999999],[139.68935659100003,35.65306081],[139.689387722,35.653066833],[139.689574325,35.653106909]],[[139.689799531,35.651073313],[139.689607107,35.651033318],[139.68957791,35.651031530000004],[139.689545171,35.651038597],[139.689475828,35.651060044],[139.689424003,35.651081194],[139.689391521,35.651098769],[139.68922625,35.65123838899999],[139.689112833,35.651354306],[139.688693583,35.651765444],[139.688558333,35.65189391700001],[139.688452806,35.65200466700001],[139.688215556,35.652299944]],[[139.68992935,35.652231818999994],[139.689884577,35.652238417],[139.689842292,35.652252628],[139.689800628,35.65227800499999],[139.689768524,35.652318173000005],[139.689751282,35.652365416],[139.689736284,35.652550547000004],[139.689715826,35.653162138999996],[139.689677458,35.653552481999995]],[[139.690172056,35.655317861],[139.689966813,35.65535713799999]],[[139.690414378,35.655806619],[139.690498679,35.65582258100002],[139.690688014,35.656055342],[139.690710669,35.6561023],[139.690940551,35.656578785],[139.691057634,35.656842387999994],[139.691077458,35.65687910399999],[139.691109483,35.65692017500001],[139.691163619,35.656947556],[139.691302391,35.656991116]],[[139.689599667,35.65939838900001],[139.68978267,35.659379745],[139.690220182,35.658854483999995],[139.69054699,35.65847355300001],[139.690665506,35.658335408999996],[139.690667211,35.658333333],[139.690889819,35.658062201],[139.690992403,35.65791273600001],[139.691027149,35.65783362199999],[139.691073348,35.65769328],[139.69112393,35.657499503000004],[139.691153418,35.657324847999995],[139.691302391,35.656991116],[139.691399027,35.656793727],[139.691492825,35.656602078],[139.6915808,35.656419869],[139.691666667,35.656247455999996],[139.69170862,35.656169132],[139.69184932,35.655905588],[139.691898765,35.655823616],[139.692429056,35.655096639],[139.69251111100002,35.654987083],[139.692685361,35.654748305999995],[139.692781842,35.65463279099999],[139.693220495,35.654123969],[139.693322514,35.654007627],[139.69341718,35.653893184],[139.693503304,35.65378906899999],[139.693936861,35.653369167],[139.694205731,35.653131407000004],[139.694583627,35.65279402299999],[139.694958968,35.652460379],[139.695525147,35.65196531099999],[139.695726109,35.651783176],[139.696727144,35.650875781],[139.697029783,35.650597463],[139.697118475,35.65051599400001],[139.697322994,35.650334609000005],[139.697692531,35.64999999999999],[139.698296181,35.649470358],[139.698807389,35.649087778],[139.698908448,35.64901850500001],[139.699164528,35.64884297199999],[139.699256216,35.64878622500001],[139.699396718,35.648712636],[139.69955339,35.648646097000004],[139.699691833,35.64859627800001],[139.7,35.648497278],[139.700060528,35.648477833],[139.700191112,35.648426104],[139.700353167,35.648342833],[139.700543111,35.648230361],[139.700759694,35.648089250000005],[139.70101875,35.647920472],[139.701128444,35.647848972],[139.701721682,35.647499489000005],[139.701791916,35.647459592],[139.701865934,35.64740429100001],[139.702090167,35.647110806],[139.702203889,35.646960833],[139.702454167,35.646617111]],[[139.689599667,35.65939838900001],[139.68957974,35.65935449100001],[139.689686567,35.659123756],[139.689898466,35.65885640500001],[139.690149436,35.658564189],[139.690278466,35.658417771],[139.690346903,35.658333333000016],[139.690406494,35.658259810000004],[139.690577882,35.658065482],[139.690617664,35.658014162000015],[139.690713911,35.65786963],[139.690780997,35.657755963999996],[139.690801511,35.657711217],[139.690843378,35.657612719000014],[139.690858778,35.657563144],[139.69087931,35.657475864999995],[139.690892457,35.657398026],[139.690900157,35.657319824],[139.690900157,35.657266758000006],[139.690892736,35.657164445999996],[139.690880375,35.65708473499999],[139.69085808700004,35.657010484000004],[139.690811663,35.656893756],[139.690766866,35.656796615],[139.69048122,35.656177197],[139.690459631,35.656130381],[139.690383069,35.655853947000004],[139.690414378,35.655806619]],[[139.688034921,35.66567432],[139.687905366,35.6657189],[139.687769536,35.665694669000004],[139.687741059,35.665490578],[139.687703106,35.664937886],[139.687695262,35.664851789000004],[139.687631854,35.664099974],[139.68760523,35.663858396999984],[139.687552314,35.66318794600001],[139.687542929,35.663127531],[139.687445112,35.662612281],[139.687432483,35.662524991],[139.687409831,35.662345338],[139.687459443,35.66209576999999],[139.687500182,35.661967668],[139.687535922,35.661881949000005],[139.687688182,35.661645343],[139.688012664,35.661208892000005],[139.688330119,35.660811151],[139.688493195,35.66067156300001],[139.688578463,35.660694615],[139.688640817,35.660738801],[139.688627814,35.660863335],[139.688168614,35.661464904],[139.688006421,35.661675832],[139.687881783,35.66185436600001],[139.687783792,35.66212746899999],[139.687765242,35.662409084],[139.687832974,35.66287133000001],[139.687871021,35.66311483099999],[139.687915513,35.663675437],[139.68792973800004,35.66394243900001],[139.687942191,35.664176172],[139.687996333,35.66484395500001],[139.688001075,35.664930340000005],[139.688034921,35.66567432]],[[139.687459443,35.66209576999999],[139.687783792,35.66212746899999]],[[139.687703106,35.664937886],[139.688001075,35.664930340000005]],[[139.7082067555998,35.632621194600105],[139.7082067555998,35.632621194600105]],[[139.702087515,35.64107895299999],[139.70214386,35.641192169],[139.702016001,35.64137968299999],[139.701771417,35.641666666999996],[139.700778048,35.642822273],[139.700568056,35.64307108300002],[139.700313556,35.64338288900001],[139.700189056,35.643543083000004],[139.7,35.643747111],[139.699941444,35.643810306],[139.69948667,35.644180548],[139.699342463,35.644297951],[139.69922875,35.644210889],[139.699155258,35.64414240599999],[139.69926011,35.644057522999994],[139.699284876,35.644037474],[139.699477194,35.643877111],[139.699635829,35.643752478],[139.699718359,35.643686131],[139.69985591,35.643559561],[139.7,35.643382976],[139.700001265,35.643381425],[139.70012513900002,35.643213833000004],[139.700689278,35.642550861],[139.701341972,35.641767222],[139.701425722,35.641666667],[139.701777619,35.641239932000005],[139.701903311,35.641098412],[139.702087515,35.64107895299999]],[[139.700689278,35.642550861],[139.700778048,35.642822273],[139.7008215,35.64294425],[139.700844628,35.643008996],[139.7008895,35.643134611],[139.701086361,35.643675],[139.701164917,35.643876722],[139.701227806,35.644038167000005],[139.701358528,35.644373806],[139.701468333,35.645679722000004],[139.701507778,35.64595194399999],[139.701529722,35.64603694400001],[139.701556944,35.646093889],[139.701606667,35.64616527799999],[139.701621861,35.646181806],[139.701686667,35.64625222200001],[139.701771944,35.646335556],[139.701844167,35.646388889],[139.701908833,35.6464325],[139.70195,35.646460278000006],[139.701982984,35.646480528999994],[139.702023268,35.646502137000006],[139.702113722,35.646541677],[139.70221318000003,35.646571659],[139.702454167,35.646617111]],[[139.712670897,35.62808864000001],[139.712972907,35.62794416500001],[139.713482502,35.627676752999996],[139.713649017,35.627589374],[139.713749329,35.62753673500001],[139.713775426,35.627522507],[139.713920296,35.627447019],[139.713983253,35.627415007],[139.714011263,35.627399284],[139.714047307,35.627380370000004],[139.714101657,35.627351849],[139.714427078,35.627180099],[139.714606342,35.627088364],[139.714837198,35.626977259],[139.715091015,35.626849737],[139.715195516,35.626798441000005],[139.715300284,35.62674701299999],[139.715403982,35.626693182],[139.715809698,35.626482569]],[[139.711696734,35.628516441],[139.711765929,35.62858470399999],[139.711830193,35.62864289400001],[139.711919164,35.628596617],[139.712434123,35.628314008],[139.71258781,35.628234247],[139.71272581600002,35.628157817],[139.712691295,35.628112980000004],[139.712670897,35.62808864000001],[139.71262225500004,35.628020744],[139.712224917,35.62822977100001],[139.711696734,35.628516441]],[[139.709257196,35.631397012],[139.709096893,35.63147027099999],[139.709027174,35.631523705999996],[139.708887637,35.63169037600001],[139.708333333,35.63245207800001],[139.708304128,35.632492211000006],[139.7082067555998,35.632621194600105],[139.708089518,35.632834525],[139.707877991,35.63316585],[139.707770493,35.63332992100001],[139.707768238,35.633333333],[139.707659497,35.633497891000005],[139.707399455,35.63387787],[139.707300678,35.63403925600001],[139.707119465,35.634342062],[139.70707479,35.634445875],[139.707161972,35.63451024999999],[139.707287884,35.634524722],[139.707645339,35.634051918],[139.707759599,35.633874076],[139.708123073,35.63333333300001],[139.70812724,35.633327135],[139.708333333,35.633034511000005],[139.708352576,35.633007188],[139.70852850119985,35.632771832200106],[139.708952266,35.632129365],[139.70927666,35.631639861],[139.709279944,35.631535099],[139.709257196,35.631397012]],[[139.70852850119985,35.632771832200106],[139.70852850119985,35.632771832200106]],[[139.722238741,35.623281781],[139.722425862,35.62342304999999],[139.722594626,35.623606215999985],[139.722797255,35.623832378],[139.722858753,35.62390962700001],[139.723042939,35.624206315],[139.723092611,35.62428641700001],[139.723331178,35.624695831],[139.723348658,35.624722428],[139.723513127,35.625],[139.72352692699963,35.62502304850008],[139.723688565,35.625299831999996],[139.723750079,35.625419429],[139.723790501,35.625507048],[139.724425672,35.625852518],[139.724662138,35.625828391000006],[139.72485082,35.625810169999994],[139.725,35.62579525],[139.725638368,35.625748505],[139.726683387,35.62566742900001],[139.726729731,35.625663369],[139.727220611,35.625619201000006],[139.727748897,35.625570919000005],[139.728913023,35.625475720000004],[139.728996833,35.625448917],[139.729321722,35.625360389],[139.729470098,35.625318708],[139.72953418800003,35.62530013799999],[139.729863222,35.62520625],[139.730067778,35.625137389],[139.730122009,35.625124651],[139.730444806,35.625048832999994],[139.730625556,35.625],[139.730948667,35.62491272199999],[139.731287791,35.62482124400002],[139.731453167,35.624777361],[139.731614528,35.624733361],[139.731741062,35.624667248],[139.7318785,35.62457147200001],[139.732260972,35.624199778000005],[139.732517778,35.62394188900001],[139.732725364,35.623765245],[139.732795719,35.623723047],[139.73301491100003,35.623627677],[139.733333333,35.623533398],[139.733335157,35.623532858],[139.733771389,35.62340766700001],[139.733867528,35.623382028],[139.734648306,35.623172778],[139.734734071,35.623151206],[139.734989333,35.623087000000005],[139.735318094,35.623006092000004],[139.735652528,35.622937056],[139.735868333,35.62290288899999],[139.735953806,35.622889361],[139.736142588,35.622864592],[139.736320087,35.622845272],[139.736501206,35.622823193],[139.73665535,35.622810785000006],[139.736807323,35.622805467],[139.736998375,35.622823193],[139.737189427,35.622856873],[139.737339229,35.622901188],[139.737401859,35.62292127600001],[139.737538582,35.622983643],[139.737681269,35.62306589400001],[139.737765043,35.62312632100001],[139.737963937,35.623298517],[139.738034538,35.62337741900001],[139.738131841,35.623544166],[139.738191568,35.623698342000004],[139.73825431,35.623938226],[139.738388088,35.624490494999996],[139.738415236,35.62480797100001]],[[139.717289874,35.625664586],[139.717589,35.625483833000004],[139.718138884,35.62521137900001],[139.718151652,35.625205053],[139.718319722,35.62512177799999],[139.718519656,35.62501678200001],[139.718554764,35.625],[139.718784439,35.624890215],[139.718975972,35.624799215],[139.719625521,35.624502833],[139.719709066,35.624464373],[139.720084207,35.624296152],[139.720179871,35.624254547999996],[139.720581442,35.624072086000005],[139.72084095500003,35.62394847200001],[139.720986275,35.623884249],[139.721090468,35.623834257999995],[139.721790889,35.62349574999999],[139.721871801,35.623456424000004],[139.722131503,35.623334689],[139.722238741,35.623281781],[139.722335951,35.623224293999996],[139.722798139,35.622964807],[139.723005143,35.622832534],[139.723157201,35.622738732],[139.723207648,35.622711284],[139.723390081,35.62260916599999],[139.723434504,35.62258419399999],[139.723488414,35.622552239],[139.723723202,35.622413064],[139.724272491,35.622058542],[139.724547573,35.62188248],[139.72461056900002,35.621836759000004],[139.724632567,35.621818797],[139.724694799,35.621773396],[139.725,35.62152323800001],[139.725170684,35.621383337],[139.72518363000003,35.621372118],[139.72527974,35.62130527000001],[139.725380121,35.62124132899999],[139.725432591,35.621211788],[139.725484774,35.621182037000004],[139.725564803,35.62113944],[139.725580982,35.621130828000005],[139.725597259,35.621122164],[139.725676121,35.62108795099999],[139.725800603,35.621038279],[139.725923056,35.620996425],[139.726042046,35.62096260599999],[139.7262338,35.620925027999995],[139.726437168,35.62089395400001],[139.726618364,35.620881912],[139.726778347,35.620881121000004],[139.726906266,35.620888259000004],[139.727087389,35.62090875],[139.72728838,35.620941816000006],[139.727428482,35.620967484],[139.72755683300002,35.6209798],[139.727669121,35.62097761900001],[139.72779088900003,35.620959278],[139.727901778,35.620926194],[139.728004111,35.620885543],[139.728083734,35.620840124],[139.72815679,35.620790503],[139.728208627,35.620747769],[139.728261472,35.620698944000004],[139.728323797,35.62062161899999],[139.728404056,35.620524056],[139.728516872,35.62036545],[139.728884884,35.619865411000006],[139.728969784,35.619745676],[139.729307504,35.61919045900001],[139.729389389,35.619052167000014],[139.729603306,35.618760694],[139.729708028,35.618680319000006],[139.729736975,35.618657698],[139.729824073,35.618618188],[139.729920847,35.61858658],[139.731070218,35.618283886],[139.731585389,35.618143389],[139.732094655,35.618003994],[139.732205706,35.61797554700001],[139.732456116,35.617907983],[139.732593831,35.617879009],[139.732729903,35.61787489400001],[139.732848148,35.617886732],[139.733219833,35.61795172200001],[139.733333333,35.617979278],[139.733363972,35.617986722000005],[139.73397634700004,35.618103298],[139.734027921,35.61810628599999],[139.734226396,35.618117600999994],[139.734483526,35.61801953799999],[139.734542244,35.617984461000006],[139.73469205600003,35.617859583],[139.735427778,35.616666667000004],[139.735456556,35.616620000000005],[139.735539409,35.616502619],[139.735610677,35.616412799],[139.735673626,35.616361673],[139.735753212,35.61630526700001],[139.735846169,35.616249604],[139.735908024,35.616218852],[139.735990253,35.61618635],[139.736188562,35.61613701199999],[139.736329916,35.61611092],[139.736555345,35.61607865900001],[139.736601825,35.616075813],[139.736640956,35.616077553],[139.736708526,35.61609546299999],[139.73676109,35.616116119000004],[139.73679166900004,35.61613154700001],[139.736815316,35.616151541],[139.736839698,35.616180887],[139.736858696,35.616211001],[139.736992944,35.61644247200001],[139.737115306,35.616666667000004],[139.737176861,35.616736528],[139.737227269,35.616786144],[139.73729025,35.616826583000005],[139.737349341,35.616864205],[139.73740215,35.616889605000004],[139.737504056,35.616929889],[139.737567471,35.616952312],[139.737651794,35.616973929],[139.737750278,35.616990833],[139.737848306,35.61699489600001],[139.738347638,35.61696251],[139.738814242,35.616932111000004],[139.738945785,35.616928057],[139.739414872,35.61690373799999],[139.739739472,35.61688730600001],[139.740214194,35.616873694],[139.74102289600003,35.616869369]],[[139.72352692699963,35.62502304850008],[139.72352692699963,35.62502304850008]],[[139.723792691,35.62677119],[139.723936016,35.626563029],[139.724076884,35.626358436],[139.724425672,35.625852518]],[[139.738175708,35.623229856000016],[139.738008447,35.6231384],[139.73795227,35.62310383300001],[139.737681353,35.622921129],[139.737529817,35.62283696499999],[139.737257349,35.622735924000004],[139.737030941,35.622693790999996],[139.736768244,35.622676065],[139.736455614,35.62270974500001],[139.736282163,35.622774858999996],[139.736142588,35.622864592]],[[139.737664269,35.62328515800001],[139.737736017,35.623298881000004],[139.737778953,35.623303125],[139.73778659,35.623303229],[139.737830876,35.623303832],[139.73787155,35.623282634],[139.737935589,35.623218335999994],[139.737993747,35.623154356],[139.738008447,35.6231384]],[[139.738003104,35.623918106000005],[139.737920905,35.623794901],[139.737816069,35.62353011],[139.737772215,35.62344324199999],[139.737717832,35.623362566],[139.737664269,35.62328515800001],[139.737577694,35.623199694],[139.73748975,35.62312780599999],[139.73739944400003,35.623065611],[139.737321028,35.623028722],[139.737166556,35.622964583],[139.737007306,35.622929611],[139.736781271,35.622924232],[139.73637711,35.622912499],[139.736224384,35.622900516],[139.736142588,35.622864592]],[[139.687905366,35.6657189],[139.687904926,35.665782715],[139.687911954,35.665975201],[139.687927536,35.666367202],[139.68794242,35.666666667],[139.687946601,35.666750785],[139.687926311,35.66767100100001],[139.687913028,35.66780491699999],[139.68791586300003,35.667894279],[139.68791848,35.66797680599999],[139.68791904300002,35.66799456100001],[139.687915383,35.66807931099999],[139.687911879,35.668160434],[139.687904038,35.66834200800001],[139.687890833,35.66864774999999],[139.687875806,35.66907113900001],[139.687869472,35.66924966700001],[139.687839407,35.669875681],[139.687827583,35.670074082999996],[139.687767765,35.670712356],[139.68774325700002,35.6709978075],[139.687727086,35.671141948],[139.687722165,35.67118404800001],[139.687713815,35.671269213],[139.687704083,35.67137556800001],[139.687699704,35.67143654800001],[139.687695021,35.67151276300001],[139.687697663,35.671671604],[139.687697635,35.671805866],[139.687700228,35.671884459],[139.687711865,35.672237128000006],[139.687715824,35.672414932],[139.687715681,35.672638161000016],[139.687722194,35.672967056],[139.687736333,35.67329782],[139.687739033,35.673360998],[139.687745119,35.67350335999999],[139.687751056,35.67364225000001]],[[139.688578463,35.660694615],[139.688597788,35.660670941],[139.688848334,35.660364011000006],[139.688875417,35.660330833],[139.689020472,35.660158611],[139.689246667,35.659874167],[139.68934611100002,35.659736361],[139.689424472,35.659627777999994],[139.689599667,35.65939838900001],[139.689657254,35.659334578],[139.689786061,35.65919185],[139.69041044,35.658460608],[139.690516486,35.65833333300001],[139.690586919,35.658248801],[139.69067506000002,35.658140006],[139.690770417,35.658021694],[139.69082042300002,35.657950664999994],[139.690873907,35.65786601200001],[139.690914424,35.657774745],[139.690952545,35.657672849],[139.690991959,35.657550885],[139.691013308,35.65742758],[139.69101852,35.657329624],[139.691016253,35.657183472999996],[139.690983975,35.657041199999995],[139.6909217,35.656874298999995],[139.690592443,35.656175851],[139.690512448,35.65600508699999],[139.690414378,35.655806619],[139.690172056,35.655317861],[139.690106175,35.65516895300001],[139.689926056,35.654761833],[139.68971765,35.654304128],[139.689675373,35.65419807100001],[139.68963505,35.654088982000005],[139.689596991,35.65396807199999],[139.689577549,35.653859601],[139.68956825,35.653771889],[139.689563333,35.653635306],[139.689562639,35.653541444],[139.689568234,35.65333338100001],[139.689571424,35.653214768],[139.689574325,35.653106909],[139.68958,35.65294055599999],[139.689589917,35.652806221999995],[139.689593491,35.652432928],[139.689591917,35.652197056],[139.689677806,35.65117794399999],[139.68972775,35.650991778],[139.689803667,35.65082191700001],[139.689877972,35.650707055999995],[139.690007028,35.65054044400001],[139.69014061,35.650408995],[139.690244778,35.650320417],[139.690580444,35.64999999999999],[139.690914699,35.649680951],[139.691060389,35.649541889000005],[139.691420126,35.649268374],[139.691478671,35.649238391],[139.691666667,35.64913258299999],[139.691839278,35.649023527999994],[139.692205722,35.648815139],[139.693133222,35.648246694],[139.693828139,35.647812333],[139.694643028,35.64734669400001],[139.695430083,35.646870611],[139.696058354,35.646499066000004],[139.696182141,35.646427495999994],[139.69695323,35.645981449],[139.697240711,35.645811436],[139.697338088,35.645751412],[139.697416169,35.64570316500001],[139.697522926,35.645624893999994],[139.697622545,35.64554304],[139.697911393,35.645300572000004],[139.698047347,35.64517799899999],[139.698445722,35.644845353],[139.69891598900003,35.644452727],[139.69922875,35.644210889],[139.699568944,35.643965556],[139.699860194,35.64371636100001],[139.7,35.64356797199999],[139.700062194,35.64350197200001],[139.700554866,35.642915864],[139.700907368,35.642496508],[139.701604917,35.641666667],[139.701803583,35.641430306],[139.702087515,35.64107895299999],[139.702191006,35.640945569],[139.70237535,35.64071825900001],[139.702843888,35.64015704900001],[139.702941111,35.64004125000001],[139.703011918,35.639955999],[139.703064762,35.639892376],[139.703457889,35.639419056],[139.70365644400002,35.639177055999994],[139.703942807,35.638807617],[139.704045667,35.63867491700001],[139.704313556,35.638329333],[139.704369792,35.638257564],[139.704598192,35.637966083],[139.704622222,35.637935417],[139.704857925,35.637635012],[139.704997735,35.637456822],[139.705098024,35.637329004],[139.705122611,35.637297667],[139.705235778,35.637158361000004],[139.705654611,35.636643694],[139.705833306,35.636423443999995],[139.706148028,35.636035472],[139.706219215,35.635928361000005],[139.707042439,35.634697621],[139.707161972,35.63451024999999],[139.707507,35.633992306],[139.707949889,35.633333333],[139.708333333,35.6327645],[139.70892525,35.63189225000001],[139.709139334,35.631573471],[139.709257196,35.631397012],[139.709354889,35.63125074999999],[139.70959100500002,35.630906028999995],[139.709658822,35.63081314],[139.709826639,35.63059527800001],[139.710138417,35.63016575000001],[139.710191972,35.630095306],[139.710235917,35.63003150000001],[139.710326971,35.629905019000006],[139.710342124,35.629883240999995],[139.7103805,35.62982808300001],[139.710429583,35.629760917],[139.710452545,35.62973157399999],[139.710513444,35.62965375],[139.710543305,35.62961338000001],[139.710586941,35.629557889000004],[139.710623028,35.629510806],[139.710695639,35.629422028],[139.710791444,35.629314889],[139.710847451,35.62925487100001],[139.710961515,35.62914175],[139.71106125,35.629062083],[139.711153924,35.628994286],[139.71130402,35.62888448100001],[139.711401333,35.628817194],[139.711429823,35.628796497],[139.711465111,35.628770861],[139.711546861,35.62871527800001],[139.711765929,35.62858470399999]],[[139.7082067555998,35.632621194600105],[139.708333333,35.632683355999994],[139.70852850119985,35.632771832200106]],[[139.723009972,35.62627208300001],[139.723277105,35.626006198000006],[139.723462,35.625822167],[139.723473056,35.625811167],[139.723680972,35.625611761],[139.723790501,35.625507048]],[[139.746278225,35.620529305],[139.746460643,35.620593340999996],[139.746805431,35.62069981],[139.74795979400002,35.621039626000005],[139.748344218,35.621157848],[139.748408481,35.62117793400001],[139.748444127,35.621189823],[139.748683784,35.621260824],[139.74882508300004,35.621302639],[139.748944913,35.621339244],[139.748994713,35.621354355],[139.7490201,35.62136205800001],[139.749069506,35.621377734],[139.74962775,35.621547833],[139.749703472,35.621570944],[139.749755288,35.62158677299999],[139.749853319,35.62161672],[139.749914603,35.62163544100001],[139.75,35.621661528],[139.750667083,35.62185194399999],[139.75079330300002,35.621882149],[139.750864769,35.621889222],[139.750920981,35.621892209],[139.751051651,35.621889215],[139.751179906,35.62188258900001],[139.75124573,35.62187994799999]],[[139.68195368800002,35.692245853],[139.681942026,35.692175],[139.68192803,35.692100386],[139.681911299,35.692012009],[139.681887125,35.691882325],[139.681869597,35.69178404000001],[139.681865175,35.691759249],[139.681851684,35.691683603000016],[139.681848994,35.69166666700001],[139.681837107,35.691593111],[139.681806364,35.691398320999994],[139.681772296,35.69119804800001],[139.681737139,35.690969694],[139.68172193,35.690874982999986],[139.681715559,35.690833109],[139.681684659,35.690587796],[139.68168019400002,35.690387468000004],[139.681700305,35.690069389],[139.681745945,35.689844939000004],[139.68180841,35.689620831],[139.681909707,35.689393753],[139.681935866,35.689341975000005],[139.682056699,35.689146878],[139.682203504,35.688940646],[139.682259041,35.68886839300001],[139.682366115,35.688755701000005],[139.682404662,35.688720377],[139.682432818,35.688694576],[139.682500194,35.688632833],[139.6827335,35.688403101999995],[139.682855433,35.688279877999996],[139.683303633,35.687828800000005],[139.683333333,35.68780093499999],[139.683354795,35.6877808],[139.683575954,35.687584519],[139.683727139,35.68742988899999],[139.683843788,35.68731805900001],[139.683914836,35.68725082000001],[139.683966472,35.687203583000006],[139.68401325,35.687159361],[139.684345889,35.68684533300001],[139.68442456,35.686768282],[139.684817032,35.686350449],[139.684868883,35.686289002]],[[139.682094649,35.692232584],[139.68195368800002,35.692245853],[139.68180789,35.692262837],[139.681840882,35.692437385],[139.681956155,35.692992098],[139.682275333,35.694569787],[139.68232223,35.69481097100001],[139.682468627,35.694790786999995],[139.682611056,35.694770071],[139.682442945,35.693913507000005],[139.682345984,35.69347395500002],[139.68227499400004,35.693130731],[139.682201887,35.69277807],[139.682094649,35.692232584]],[[139.68292468599978,35.70666548300005],[139.68292468599978,35.70666548300005]],[[139.68774325700002,35.6709978075],[139.68774325700002,35.6709978075]],[[139.687617167,35.67364728199999],[139.687751056,35.67364225000001],[139.687877443,35.673643324],[139.687893679,35.673834152999994],[139.687936165,35.674609507999996],[139.687952194,35.675],[139.687964987,35.67523940700001],[139.687996998,35.676440995],[139.688000526,35.676781445],[139.688018286,35.67711168100001],[139.688062011,35.677334654999996],[139.688142363,35.677646301],[139.688522245,35.678645853],[139.688625125,35.678971794999995],[139.688664882,35.679144281],[139.688693479,35.67934547000001],[139.688754684,35.679761825],[139.688779093,35.67991404300001],[139.68882541,35.680179264],[139.688942047,35.681102387],[139.688927595,35.681451334],[139.688926456,35.681478840000004],[139.688894924,35.681674518],[139.688825168,35.681847731000005],[139.688672664,35.68206392],[139.688294974,35.682483989000005]],[[139.687617167,35.67364728199999],[139.687625167,35.67378937],[139.687636134,35.674204049],[139.687655417,35.674708507],[139.687668029,35.675],[139.687688871,35.675438371],[139.687754257,35.676813624],[139.687794184,35.677077076],[139.687842462,35.67733813600001],[139.68793898800004,35.677682456999996],[139.688058061,35.677991691],[139.688225956,35.678425663000006],[139.688348147,35.678772777],[139.688445055,35.679090876],[139.688502144,35.67940745599999],[139.68855054800002,35.679784976],[139.688571679,35.679975852],[139.688613812,35.68030625],[139.688693539,35.680869413],[139.688735165,35.681250097],[139.688585119,35.681744158000015],[139.688507216,35.681901787],[139.688408538,35.68199642100001],[139.688254461,35.68213201599999],[139.688057103,35.682328346]],[[139.686605194,35.684607917],[139.686397698,35.684506972],[139.686304566,35.684458809],[139.686194125,35.684392115]],[[139.686397698,35.684506972],[139.686208316,35.684743321000006],[139.684991488,35.68635902]],[[139.686194125,35.684392115],[139.686004511,35.68463849599999],[139.685580333,35.685189667],[139.685465369,35.685358952],[139.684767218,35.68621831400001]],[[139.684991488,35.68635902],[139.684868883,35.686289002],[139.684767218,35.68621831400001]],[[139.68933723339958,35.71910804860014],[139.689623464,35.718931696]],[[139.68913379649996,35.71889743200001],[139.68913379649996,35.71889743200001]],[[139.68933723339958,35.71910804860014],[139.68933723339958,35.71910804860014]],[[139.692349411,35.72255137],[139.692613807,35.722524721000006]],[[139.693791479,35.723737227],[139.693688674,35.723635341000005],[139.693371136,35.723314222],[139.693181358,35.723120814],[139.692986675,35.722922407999995],[139.692689067,35.72260454],[139.692613807,35.722524721000006],[139.692538262,35.722447804999995],[139.692341242,35.72224609300001],[139.692118587,35.72201837800001],[139.692011317,35.721907043],[139.691792067,35.721679484],[139.69169393,35.72157983599999],[139.691666667,35.721551643],[139.691488627,35.721364237],[139.691473559,35.721348206],[139.691437913,35.72131028300001],[139.691408191,35.72127956600001],[139.691395953,35.721266721000006],[139.69121633,35.721077829],[139.690848417,35.720691963],[139.690688296,35.720523676000006],[139.690312353,35.720127571999996],[139.689997057,35.71979514000001],[139.689735564,35.71952431],[139.689376991,35.719149292],[139.68933723339958,35.71910804860014],[139.689147832,35.718911876],[139.68913379649996,35.71889743200001],[139.688992712,35.718765518],[139.688578283,35.718359084],[139.688485431,35.718270620999995],[139.68840025,35.71817862899999],[139.688335438,35.718101443],[139.68827887000003,35.718018394],[139.688259842,35.71799065],[139.68820153400003,35.717891282000004],[139.688164466,35.717837431],[139.688131175,35.7177867],[139.688096097,35.71772746600001],[139.688071674,35.71768818],[139.687991757,35.717548545999996],[139.687789216,35.717139672],[139.687690871,35.716933953],[139.687646979,35.71683990700001],[139.687619853,35.716779584],[139.687569077,35.716666667000005],[139.687569002,35.71666650000002],[139.687477855,35.716460473000005],[139.687458524,35.716418313],[139.687423426,35.716339881],[139.687367652,35.716219112],[139.687345266,35.716171759],[139.687314522,35.716105497],[139.687285605,35.71604064900001],[139.686831345,35.715047035000005],[139.686331486,35.714028142],[139.68623669,35.713824362000004],[139.686101662,35.713531258],[139.686085408,35.713497967],[139.686064829,35.71345485400001],[139.685940134,35.713193623],[139.685773621,35.712842843999994],[139.685726994,35.712740878000005],[139.685711406,35.712706791],[139.685666944,35.712611292],[139.685506611,35.71226691700001],[139.685422056,35.712084860999994],[139.685285481,35.711789792],[139.685230378,35.71167413900002],[139.685171005,35.711545921],[139.685003872,35.71118932699999],[139.684944073,35.711059234000004],[139.684694456,35.710522313],[139.68461184100002,35.71034460799999],[139.68452685,35.710157638],[139.684363626,35.70980401500002],[139.684261563,35.70958029100001],[139.68413775,35.709308889],[139.683995583,35.709001278],[139.683901581,35.708791871],[139.68385761100004,35.7086925],[139.683799864,35.708563202],[139.683758833,35.708471333],[139.68372391,35.70839500300001],[139.683695694,35.708333333000006],[139.683502638,35.70798150900001],[139.683410472,35.707798944000004],[139.683333333,35.707623749999996],[139.683273167,35.707487111],[139.683053762,35.706959211999994],[139.682948171,35.706715084],[139.68292468599978,35.70666548300005],[139.682910649,35.706633044],[139.682844101,35.70645775],[139.682818245,35.706385624000006],[139.682729046,35.706147149],[139.682716648,35.706114738],[139.68270587200004,35.706085976000004],[139.68267944800002,35.705967241],[139.682669385,35.70592245299999],[139.682660814,35.705880111],[139.682633805,35.705677987],[139.682584735,35.705327063999995],[139.682556973,35.705129037999995],[139.68255016600003,35.70505919600001],[139.682548772,35.70503393],[139.682519774,35.704757419],[139.682486018,35.70451575500001],[139.682438376,35.70415941200001],[139.682423063,35.704037639],[139.682403993,35.703916193000005],[139.682361313,35.70356703899999],[139.682352795,35.703496468],[139.682332059,35.70329107500001],[139.682326874,35.7032491],[139.682322854,35.70319751],[139.682296052,35.702916759],[139.682290934,35.702665252],[139.682297157,35.70246192],[139.682360792,35.70218793299999],[139.682406383,35.702027689],[139.682492172,35.701795233],[139.682606792,35.70154710500001],[139.682630427,35.701495939],[139.682837199,35.701052369],[139.682891971,35.700918791999996],[139.682966426,35.700712243],[139.683034519,35.700422564],[139.683063135,35.700187682000006],[139.683054075,35.70001799700002],[139.683053997,35.7],[139.683053506,35.699887558],[139.683050252,35.699812660999996],[139.683048442,35.699751304],[139.683031194,35.699433489],[139.683019876,35.69918624200001],[139.6830154,35.699114366],[139.683013828,35.699068548],[139.683012203,35.699020742],[139.682971145,35.69818419100001],[139.682957898,35.697973887],[139.682951092,35.697879533000005],[139.682919325,35.69742846500001],[139.682899491,35.697162425],[139.682883103,35.697022767],[139.68285517,35.696880841],[139.682850039,35.69685070700001],[139.682684126,35.695947208],[139.682598025,35.69552917400001],[139.682545463,35.695209459],[139.682540214,35.695177532],[139.682535431,35.695148432],[139.682521139,35.6950615],[139.682516607,35.695036708],[139.682505436,35.694975634],[139.682495825,35.694923024999994],[139.682484408,35.694864291],[139.682468627,35.694790786999995]],[[139.69521185049967,35.725861594000065],[139.69521185049967,35.725861594000065]],[[139.696627506,35.728042386000006],[139.696985227,35.728059957]],[[139.705180032,35.739522828],[139.705352847,35.739628109],[139.705393786,35.73965599499999],[139.705447633,35.739702862],[139.705513851,35.739765154],[139.705597149,35.73984465499999],[139.705640081,35.739837536],[139.705664822,35.7398055],[139.705548052,35.73965896100001],[139.705482372,35.73952962899999],[139.705439409,35.739393982]],[[139.702375099,35.73657724099999],[139.702371048,35.73663265800001],[139.702355039,35.73666350799999],[139.702331187,35.73668847599999],[139.702307015,35.73670859500001],[139.702271579,35.736720369000004],[139.702244438,35.736726393],[139.702177509,35.736721888],[139.702080063,35.736698812]],[[139.702616545,35.73679889400001],[139.702523852,35.736808262000004],[139.70246273,35.73682250099999],[139.702427119,35.73684338700001],[139.70241470600004,35.736858096],[139.70239359,35.736906414],[139.702391517,35.736979132]],[[139.688197167,35.68242255599999],[139.687960207,35.68266701],[139.687386556,35.683258806000005],[139.687319086,35.68333333300001],[139.687243788,35.683416507],[139.686304566,35.684458809]],[[139.698051434,35.730376784],[139.69807146,35.730418589],[139.698119087,35.73051801199999],[139.698149399,35.730578183999995],[139.698191247,35.730661194],[139.698240626,35.730763618],[139.698334623,35.730959596],[139.6983737,35.731040156],[139.698562805,35.73143112000001],[139.698626416,35.731560027],[139.698774877,35.731848592],[139.699173338,35.732647075],[139.699196525,35.73269503900001],[139.699205394,35.732714582],[139.699231675,35.732769529],[139.699347212,35.733020619],[139.699392197,35.733122587],[139.69944154,35.73324371699999],[139.699466938,35.733301135000005],[139.699481253,35.733333333],[139.699575139,35.733546582],[139.699610318,35.733624201999994],[139.699638302,35.733684681],[139.699654732,35.733718532]],[[139.705640081,35.739837536],[139.705945175,35.740213186],[139.706247809,35.740577284],[139.706674161,35.74108888100001],[139.706915478,35.741372377],[139.707080363,35.741567888000006],[139.707165471,35.741666667],[139.707233577,35.74175002199999],[139.707451528,35.742006583],[139.70762247,35.742221717],[139.707675251,35.742296408],[139.70772657,35.742376996000004],[139.707824139,35.742558333],[139.707908068,35.742715620000006],[139.707958102,35.74282198],[139.708015056,35.74294825],[139.708038873,35.743012709000006],[139.708081026,35.743134297],[139.708110661,35.743241012],[139.708126426,35.743307509999994],[139.70813398200002,35.74335519800001],[139.7081519,35.74346828],[139.708175417,35.743701222],[139.708178088,35.743738388],[139.708195938,35.744019853],[139.708202861,35.74431591700001],[139.708204389,35.744437694],[139.708215935,35.744865358],[139.708227029,35.74516444399999],[139.708231852,35.745326809],[139.708242374,35.745605945],[139.708245952,35.745700883],[139.708247246,35.745737934],[139.70825758,35.746033861],[139.70826847,35.746493618],[139.708269424,35.746514485],[139.708285854,35.747046984],[139.708287145,35.747097747000005],[139.708292119,35.74723679400001],[139.708295016,35.747330851],[139.708304092,35.747674476],[139.708307128,35.747947557],[139.708322492,35.748219803999994],[139.708327102,35.748301503],[139.708328611,35.748331955],[139.708333333,35.748407177],[139.708339224,35.748489551000006],[139.708380397,35.749065301],[139.70840017,35.749269756],[139.708419233,35.749456679000005],[139.708426324,35.74952622]],[[139.708412031,35.752190402],[139.708360854,35.751333785],[139.70834921,35.751139229],[139.708342847,35.751032369],[139.708333333,35.75084059300001],[139.708291634,35.75],[139.708283498,35.749694092000006],[139.70828225,35.749585245],[139.708289056,35.74955266900001],[139.708333333,35.749544138],[139.708426324,35.74952622],[139.708534764,35.749538316999995],[139.708592398,35.74954770200001],[139.7086092,35.749712403],[139.708627318,35.74999999999999],[139.708650124,35.750704943],[139.708660159,35.751015144],[139.708664669,35.75113182599999],[139.708668586,35.751275607],[139.708673976,35.751442231],[139.708689565,35.751924096]],[[139.70834921,35.751139229],[139.708664669,35.75113182599999]],[[139.71619014,35.62614383300001],[139.71662872,35.62588711],[139.716666667,35.625867488],[139.717191097,35.62559631],[139.71726882,35.62564713799999],[139.717289874,35.625664586],[139.7173539,35.625740606],[139.71719455,35.625830790999984],[139.716767247,35.626068039],[139.716668392,35.62612569],[139.716666667,35.626126548],[139.716167863,35.62639224499999],[139.715859761,35.62654831399999],[139.715809698,35.626482569],[139.715759942,35.626415603],[139.716037866,35.62623526300001],[139.71619014,35.62614383300001]],[[139.694786106,35.724703635000004],[139.694658844,35.72452152000001],[139.69452872,35.724333289],[139.69441186,35.724205861],[139.694229158,35.724039041],[139.69419055900002,35.723998122999994],[139.694040024,35.723828157],[139.693893348,35.723668682],[139.693791479,35.723737227],[139.693664046,35.723822496],[139.69380843,35.723970845],[139.693971833,35.724140812],[139.694054177,35.72423104100001],[139.694167023,35.724362273],[139.694291028,35.72450268000001],[139.69438388,35.72461217600001],[139.694516803,35.72478543199999],[139.694595787,35.72490587299999],[139.694632615,35.724962756],[139.69465543100003,35.725],[139.694712876,35.725089157],[139.694783294,35.725203339],[139.695134993,35.72573869200001],[139.69521185049967,35.725861594000065],[139.695434712,35.72622199300001],[139.695683108,35.72660846499999],[139.695972651,35.727031579000005],[139.696211597,35.727380049000004],[139.69642070300003,35.72771370499999],[139.696498063,35.72783986499999],[139.696550315,35.727922036],[139.696627506,35.728042386000006],[139.697026416,35.728691385999994],[139.697127324,35.72887169500001],[139.697252866,35.729104787000004],[139.697354885,35.729317129],[139.697543284,35.729707082],[139.697784555,35.730190921],[139.69782757,35.73027693400001],[139.697897673,35.730427051],[139.698051434,35.730376784],[139.69820555,35.73032770999999],[139.698114969,35.730146682],[139.697890117,35.729689087000004],[139.697526498,35.728955498000005],[139.697490551,35.728880514],[139.697390427,35.728713743],[139.697219909,35.728430389],[139.696985227,35.728059957],[139.696716446,35.727647549],[139.696610505,35.727488881],[139.696435006,35.72724084800001],[139.69621995,35.726937474],[139.695477579,35.72578325700002],[139.694990208,35.725013309000005],[139.694981701,35.725],[139.694890747,35.72485770000001],[139.694786106,35.724703635000004]],[[139.699969256,35.734616821],[139.699912824,35.734526452],[139.699791522,35.73432553599999],[139.699693934,35.734134889],[139.699517666,35.733803271000006],[139.69950115,35.733768258],[139.699654732,35.733718532],[139.699808253,35.733673599],[139.699927851,35.733943884999995],[139.7,35.734093426],[139.700080766,35.734249029000004],[139.700119781,35.734322829],[139.700279789,35.73460699700001],[139.700373015,35.734734918],[139.700443504,35.734824833000005],[139.70051854,35.734911968],[139.700589029,35.73499354100001],[139.70069685,35.735103489000004],[139.700782763,35.735183876],[139.701125425,35.735486155],[139.701427392,35.735752379],[139.701527742,35.735834821],[139.701918594,35.736170639],[139.702296737,35.736506592999994],[139.702375099,35.73657724099999],[139.702485924,35.736677154000006],[139.702580517,35.73676465900001],[139.702616545,35.73679889400001],[139.702757684,35.736933006],[139.702906851,35.737076128999995],[139.702958644,35.737123796999995],[139.703051845,35.737207524999995],[139.703216358,35.737355317],[139.703336994,35.737462925],[139.703565203,35.73766607899999],[139.703752624,35.737824432],[139.704319825,35.738312101999995],[139.704489234,35.738454241],[139.704713655,35.738655868],[139.7049239,35.73885293400001],[139.705127539,35.739049146999996],[139.705243849,35.73917243699999],[139.705439409,35.739393982],[139.70608603,35.74013211200001],[139.706384505,35.740495306],[139.706692645,35.740865043],[139.706919826,35.74112877400002],[139.70709709,35.74132667300001],[139.707379863,35.741666667],[139.70738176100002,35.741668949],[139.707725918,35.742082216],[139.707817141,35.742208643],[139.707897276,35.74234111799999],[139.707996067,35.742528041999996],[139.7080627,35.742665360000004],[139.707908068,35.742715620000006],[139.707751968,35.74276420599999],[139.70773467,35.74273223299999],[139.707668994,35.74260187600001],[139.707584937,35.74246658399999],[139.707472906,35.742297686000015],[139.707328932,35.742113433],[139.707315406,35.742095338],[139.707076554,35.74182269599999],[139.706939754,35.741666667],[139.70692467600003,35.741649469],[139.706661246,35.741322409000006],[139.70644054400003,35.741065491],[139.706110256,35.740656505],[139.705832836,35.74031724],[139.705451749,35.739868952],[139.705180032,35.739522828],[139.705054579,35.739383076],[139.704931748,35.739245432000004],[139.704703262,35.73902474100001],[139.704582471,35.73891795499999],[139.704121432,35.738510965],[139.704035122,35.738444514],[139.70391869800002,35.73834722000001],[139.703512666,35.737994825],[139.703359237,35.73785836799999],[139.70315986,35.73768632299999],[139.703012243,35.737548679],[139.702739789,35.737288975],[139.702678648,35.737234339],[139.702662414,35.73721982899999],[139.702391517,35.736979132],[139.702345363,35.736934378],[139.70218014200003,35.736786461],[139.702080063,35.736698812],[139.702018433,35.736644836],[139.702005869,35.736633653],[139.70190073,35.736540677],[139.701873743,35.736515651],[139.701433147,35.73610706499999],[139.700828741,35.735573816],[139.700679079,35.735439957000004],[139.700483342,35.73525598199999],[139.700340611,35.735103257999995],[139.700240146,35.734985559],[139.700164746,35.734891059],[139.7,35.734658810999996],[139.699969256,35.734616821]]]}}]}
