{"type":"FeatureCollection","features":[{"type":"Feature","properties":{"id":"tokyo-prefectural-311","name":"東京都道311号環状八号線","aliases":["都道311号","東京都道311号","環状八号線","環八通り","環八","環8"],"type":"road","roadClass":"prefectural","routeNumber":"311","jurisdiction":"Tokyo","geometrySource":"n13","source":["MLIT National Land Numerical Information N13 2024"],"license":"N13 source terms apply","confidence":"medium","note":"Identity comes from the road registry and OSM reference; display geometry is stitched from selected N13 segments.","match":{"candidateCount":84398,"selectedFeatureCount":1021,"osmCoveragePercent":84.64},"geometryProcessing":{"source":"MLIT N13","display":"endpoint-snapped and line-merged","sourceSegmentCount":1021,"displayChainCount":92,"sourceLengthMeters":61230.445,"stitchedLengthMeters":61230.444,"endpointSnapCount":3,"maximumSnappedGapMeters":1.798,"unresolvedBreakCount":149,"maximumSourceResidualMeters":26.713,"maximumDisplayResidualMeters":26.713,"parallelCarriagewaysCollapsed":false,"endpointSnapMeters":2.0}},"geometry":{"type":"MultiLineString","coordinates":[[[139.688288437,35.571678098],[139.688179703,35.571530841]],[[139.686878345,35.572087054],[139.687119907,35.57219460599999],[139.687340894,35.572287627]],[[139.690188522,35.570177884],[139.69027021500003,35.570112017],[139.690349109,35.570044705],[139.690417149,35.56999750400001],[139.690476482,35.569949942],[139.690869706,35.56964762],[139.691484882,35.569160651999994],[139.691608456,35.56906940900001],[139.691666667,35.56902204499999],[139.691716868,35.568981198],[139.691767944,35.568938611],[139.6923282,35.568488985],[139.692420528,35.56841488900001],[139.692520613,35.568342293],[139.693067117,35.56794588700001],[139.693170594,35.567874186],[139.693433713,35.567684652],[139.694196,35.567145972],[139.694646591,35.566826392],[139.694681685,35.566801502000004],[139.694707889,35.56678291699999],[139.694768229,35.56673927899999],[139.694834338,35.566693831],[139.694872806,35.56666666699999],[139.694893401,35.56665361500001],[139.694975129,35.56659419099999],[139.696417694,35.565563000000004],[139.698101356,35.56440327600001],[139.69829725,35.564267645],[139.698460634,35.56415190100001],[139.698501667,35.564122833000006],[139.698578387,35.564068914],[139.698663968,35.564008519],[139.698698353,35.56398430000001],[139.699000755,35.563779252],[139.699130889,35.563691139],[139.699272472,35.563597833],[139.699650722,35.563352527999996],[139.699710604,35.563314989999995],[139.6997775,35.563273056000014],[139.69995125,35.563183944],[139.7,35.56316266700001],[139.70013825,35.563102278],[139.700338361,35.563024556],[139.701126806,35.56271836100001],[139.701170139,35.562701528],[139.7013465,35.562637333],[139.701534139,35.562553583],[139.701598167,35.562525306000005],[139.701777528,35.56245825],[139.702264806,35.56226575],[139.702540806,35.562156722],[139.702960861,35.562003833],[139.703039702,35.561976251],[139.703271213,35.561894573],[139.703911139,35.561652],[139.704013583,35.561610111],[139.704518956,35.561417042],[139.705637111,35.560969487],[139.70618775,35.56074588900001],[139.706451583,35.560649583],[139.706877699,35.560485623000005],[139.707212639,35.560348083],[139.70751325000003,35.560230749999995],[139.707790449,35.560154972],[139.708218384,35.560055572],[139.708332178,35.560038160999994],[139.708333333,35.560038027],[139.708591611,35.560008139000004],[139.708831528,35.55999049999999],[139.709013135,35.55996504],[139.709266639,35.5599295],[139.70947577200002,35.55989811399999],[139.709751944,35.559860528],[139.709842528,35.559849639],[139.71023504,35.559795031],[139.710499417,35.55975825],[139.710698651,35.559736036000004],[139.711167611,35.55968375],[139.711424352,35.559662583],[139.711619417,35.5596465],[139.711799084,35.559631749],[139.712578184,35.559567784],[139.712642889,35.559562472],[139.712841917,35.559545639],[139.714338528,35.559423327],[139.715367813,35.559331466],[139.71664022,35.559181005],[139.716666667,35.559176368],[139.716747684,35.55916216],[139.716913693,35.559125911],[139.717173919,35.55906909],[139.717826814,35.55892652899999],[139.718200229,35.558844992],[139.718332,35.558822083],[139.718421506,35.558803897],[139.718544861,35.558778833],[139.719026189,35.558675665],[139.719382269,35.558599342],[139.719667926,35.55853811400001],[139.720244885,35.558414447],[139.7203594,35.55839070099999],[139.720457889,35.558370278000005],[139.720624556,35.55833333299999],[139.720680806,35.558320861000006],[139.720750222,35.558306167],[139.721156694,35.558220111],[139.721398761,35.558169554],[139.721674487,35.558106693],[139.72192106,35.558053824999995],[139.722341547,35.557962194],[139.722558,35.557921889000006],[139.722980058,35.557835277],[139.723358528,35.55775761100001],[139.723694766,35.557688611],[139.72386085,35.557642087999994],[139.723890264,35.557633847],[139.724037167,35.557589056],[139.724123642,35.557556786000006],[139.724314,35.55748575],[139.724427194,35.557441444000006],[139.724572889,35.557378444],[139.724691556,35.557319056],[139.724798722,35.55724816699999],[139.724910694,35.55717925],[139.725,35.557114778000006],[139.725475361,35.556771610999995],[139.72555225,35.556719972],[139.725686111,35.556629892],[139.726150778,35.556282306],[139.726260937,35.556202599],[139.72637835,35.556117648000004],[139.72643454100003,35.556080206],[139.7270825,35.555623389000004],[139.727286972,35.555477167],[139.727394941,35.555400706],[139.727494507,35.555328434],[139.727746087,35.555145597],[139.728482705,35.554619489],[139.72861875,35.554527516],[139.728717039,35.554458435],[139.728808847,35.554391164],[139.729091957,35.55418514],[139.729199278,35.554105082999996],[139.729407629,35.553952784],[139.729755306,35.5537035],[139.729800628,35.55367391299999],[139.72986091700002,35.553634556],[139.730007171,35.553564326],[139.730475389,35.553350832999996],[139.730877528,35.553184389],[139.731044556,35.553133778],[139.731238306,35.55311422199999],[139.731637194,35.55307958299999],[139.732180102,35.553031835],[139.732242889,35.553030139],[139.732298384,35.55302420400001],[139.732845972,35.552981167],[139.733197639,35.55295333299999],[139.733333333,35.55294369399999],[139.7334,35.552938944],[139.733482111,35.55293174999999],[139.733522478,35.552928417],[139.73404875,35.552890778],[139.734443917,35.552862167],[139.734604722,35.55284419400001],[139.735598757,35.552747089],[139.735689823,35.552742666],[139.735785517,35.552734371],[139.736413694,35.552655083000005],[139.736684278,35.552622555999996],[139.737050528,35.552584167],[139.737678778,35.552518306],[139.738259799,35.55246180900001],[139.73837725,35.552450389],[139.738391684,35.552449017],[139.73860225,35.552429000000004],[139.73868725,35.552423999999995],[139.739011778,35.552391193999995],[139.739685333,35.552323083000005],[139.739977583,35.552339361],[139.740093361,35.552345833000004],[139.740328043,35.552353059]],[[139.686149707,35.57294675400001],[139.686112421,35.572968275],[139.686009172,35.573027871],[139.685902268,35.573094713],[139.685812281,35.57315671700001],[139.685732924,35.573207368999995],[139.685668291,35.57324954100002],[139.685181805,35.573553674],[139.685093011,35.573621923999994],[139.684716839,35.573964628],[139.6846785,35.574002222],[139.684494942,35.574261599],[139.684404414,35.57441790299999],[139.684365901,35.574502165],[139.684341528,35.574564861000006],[139.684297653,35.574677744000006],[139.684287361,35.57470422200001],[139.684221722,35.57490991700001],[139.684194972,35.574999999999996],[139.684013103,35.575609095000004],[139.68400106100003,35.575654243],[139.683964528,35.575780472],[139.683943698,35.57585623400001],[139.683927142,35.57590971900001],[139.683876056,35.57608633299999],[139.683807056,35.57627422200001],[139.683741632,35.576483270999994],[139.683568583,35.577060972],[139.683543107,35.577157265000004],[139.683529611,35.57720827800001],[139.683508278,35.57728880599999],[139.683481127,35.577378292999995],[139.683452722,35.57747191699999],[139.683431361,35.577559416999996],[139.683402444,35.57767769400001],[139.683349444,35.57788311099999],[139.683333333,35.577939472],[139.683153389,35.578568889],[139.683139139,35.57862345400001],[139.683098806,35.57877788900001],[139.683051825,35.578904878],[139.683011917,35.57901275],[139.68298439900002,35.57911135999999],[139.682954192,35.57920726199999],[139.682888978,35.57945182100001],[139.682838139,35.57962922200001],[139.682763306,35.57984725000001],[139.68268,35.580072722],[139.68248175,35.580655056000005],[139.682412833,35.58085702799999],[139.682399361,35.580893085],[139.682367028,35.580979626],[139.682337611,35.581058361000004],[139.682293583,35.58118580600001],[139.682284499,35.581210557999995],[139.682224639,35.581373667],[139.682044359,35.581907173999994],[139.681857042,35.58244822],[139.68179215,35.582619447999996],[139.681728147,35.582743363],[139.681655194,35.58287669399999],[139.681527056,35.58309],[139.681454944,35.583204472],[139.68137775,35.583333333000006],[139.68129102,35.583466823000016],[139.681214472,35.58358463900001],[139.681119056,35.583738583000006],[139.680819191,35.584246959000005],[139.68080393,35.584273208],[139.680589066,35.584623447],[139.680554028,35.58468299999999],[139.680471194,35.584818444],[139.680398687,35.584934786000005],[139.680195062,35.58526150899999],[139.680069417,35.585463111],[139.680052285,35.585492957999996],[139.680011667,35.585563722],[139.67983231800002,35.585841264],[139.679747721,35.585976919],[139.679634236,35.586158897000004],[139.679465535,35.586429417],[139.679349024,35.586616247000016],[139.679280389,35.586728472000004],[139.679195993,35.586857718],[139.679066889,35.58706725],[139.678973917,35.587231528000004],[139.678945139,35.587277361000005],[139.67850422800004,35.587962883],[139.67842675,35.588098722],[139.677622889,35.589372167],[139.677137889,35.590080500000006],[139.677115111,35.590109944],[139.67693475,35.590353028],[139.676741917,35.590628972],[139.676671026,35.590732344],[139.676463111,35.59102933300001],[139.67635396,35.591191667],[139.676249861,35.591353722],[139.676189957,35.59144516599999],[139.676151889,35.591503278],[139.676033449,35.591666667],[139.675985926,35.591732225],[139.675927223,35.591813204999994],[139.675766409,35.592038888],[139.675766083,35.59203941700001],[139.675613852,35.592269307],[139.675574529,35.59232869],[139.675333861,35.592674521],[139.67516629100004,35.592909388],[139.675,35.593137348000006],[139.674993511,35.593146243],[139.674871093,35.593319489],[139.674748889,35.59350027799999],[139.674710833,35.593546389000004],[139.674648278,35.593634533999996],[139.674584534,35.59372904400001],[139.674529389,35.593802028000006],[139.674365928,35.59405865400001],[139.674272222,35.59416822200001],[139.674170991,35.594305187],[139.673973323,35.594546154],[139.673773748,35.594786969],[139.673605881,35.59497763899999],[139.673575375,35.595015014],[139.67327329600002,35.595347281],[139.673126558,35.595508683],[139.67310887,35.595528233],[139.673078937,35.595564335999995],[139.672996923,35.59565396],[139.672745399,35.595939737],[139.672379494,35.596371526],[139.672074402,35.596724063],[139.671826339,35.597009385],[139.671426816,35.597465324000005],[139.671400785,35.597495545],[139.67113697,35.59780182800001],[139.67091152,35.598056369],[139.670820385,35.59815939100001],[139.670743259,35.598245665],[139.670515644,35.598517149],[139.670241667,35.598828611],[139.670211873,35.59886609000001],[139.669919083,35.599171111000004],[139.669631767,35.599411082],[139.66950775,35.599477667],[139.66947347,35.599495977],[139.669166411,35.599648284],[139.669109356,35.599671599],[139.6689985,35.59971802799999],[139.668931222,35.599743722],[139.668856861,35.599769669],[139.668818001,35.59978392299999],[139.668764222,35.599794333],[139.668234772,35.59992386500001],[139.667956778,35.599977861],[139.667857417,35.60000000000001],[139.667664583,35.600043908],[139.667632465,35.60004987],[139.667286466,35.600123795],[139.667245589,35.60013333300001],[139.666750806,35.60023922199999],[139.666666667,35.60025805600001],[139.666567111,35.60027671999999],[139.66623375,35.600356389],[139.665788399,35.60044670100001],[139.665280403,35.60055920600001],[139.6644805,35.600731083],[139.664378722,35.600756999999994],[139.664101222,35.600818917],[139.663781837,35.600888935],[139.663472322,35.600956264],[139.662398716,35.60119414],[139.662253583,35.60122294200001],[139.661970399,35.60128559300001],[139.661407985,35.601410601],[139.660995139,35.601498806],[139.660772166,35.601547839000006],[139.660436594,35.60162193199999],[139.660412306,35.60162713900001],[139.660210361,35.601671611],[139.660095071,35.60169267599999],[139.65976065,35.60175877100001],[139.659490657,35.601812132],[139.658985358,35.601904708],[139.658743613,35.601946452],[139.658504788,35.601991479],[139.658334392,35.602024033],[139.658333333,35.60202424999999],[139.657930083,35.602106777],[139.6572995630002,35.60223006950039],[139.656817028,35.602316889],[139.656605677,35.602360231000006],[139.656527028,35.60237447200001],[139.655923159,35.602499611999995],[139.655755532,35.60255007999999],[139.655347935,35.602671675],[139.654647369,35.602923393],[139.654264218,35.603058309],[139.6541085,35.603111194],[139.653663177,35.603259946],[139.653109169,35.603451864],[139.652787509,35.603572809999996],[139.652428277,35.603696891],[139.652049944,35.60382680600001],[139.651890083,35.603872167],[139.651605252,35.60394961400001],[139.651158043,35.60407314100001],[139.65069356,35.604193424],[139.650164851,35.604338695],[139.65,35.604381333000006],[139.649652086,35.604476824],[139.649424379,35.604539650999996],[139.64782582,35.604980714],[139.647113451,35.60517801300001],[139.645702754,35.605561234],[139.645676634,35.605568985],[139.645386007,35.605649489],[139.645241645,35.605690269],[139.644879282,35.605789082],[139.64451062500004,35.605889563],[139.644199049,35.60597170100001],[139.643823011,35.60607948900001],[139.643356093,35.606209746],[139.643023778,35.60629910200001],[139.642987143,35.606308184],[139.64263419800002,35.60640277],[139.642399336,35.606466882]],[[139.6144595,35.65930343899999],[139.614601769,35.659304969],[139.614620194,35.659305168],[139.614781313,35.65930689999999],[139.614932916,35.65930853100001]],[[139.622374366,35.635550558000006],[139.622279003,35.635529084],[139.622199551,35.63551348900001]],[[139.622374366,35.635550558000006],[139.622116333,35.635954985],[139.622090649,35.635995241],[139.621684648,35.636546311],[139.6212697,35.637088779],[139.621141346,35.63725589999999],[139.620428937,35.638204324],[139.620102683,35.638611949],[139.619940201,35.638778869000014]],[[139.619940201,35.638778869000014],[139.619902326,35.638646511000005],[139.619913301,35.63854697400001],[139.619986955,35.638337596],[139.620196132,35.638046493000004],[139.620997152,35.63699140500001],[139.621208706,35.636720436],[139.621506802,35.636328070000005],[139.62167342,35.63610859],[139.621877668,35.63586429499999],[139.622199551,35.63551348900001]],[[139.617203389,35.647819111],[139.617363584,35.648027430000006]],[[139.6212697,35.637088779],[139.62112083100004,35.637037763],[139.620997152,35.63699140500001]],[[139.631132781,35.62119896200001],[139.631016176,35.621282053],[139.630936672,35.621335716],[139.630838944,35.621400694],[139.630439086,35.621629444],[139.630259662,35.621731744],[139.630036166,35.62186604699999],[139.629784252,35.622002806000005],[139.629662028,35.622079333],[139.629449151,35.622199288],[139.629370444,35.622243639000004],[139.629081194,35.62240575],[139.628566864,35.62273543399999],[139.628491085,35.622784008],[139.628240194,35.622973138999996],[139.62807644,35.623125155000004],[139.62801155600002,35.623194694000006],[139.627945952,35.623269381],[139.627911417,35.623314917],[139.627724528,35.623571583],[139.627626139,35.623747194],[139.627545778,35.623903528],[139.627500194,35.62402686099999],[139.627457931,35.624150894],[139.627397606,35.624341208],[139.627310456,35.624602874],[139.627188778,35.625],[139.626995537,35.625603032],[139.626944194,35.625757861000004],[139.626761714,35.626311095000005],[139.626740361,35.626375833],[139.62656887,35.626859255],[139.626485861,35.62712271200001],[139.626472616,35.627166248],[139.626442083,35.627266611],[139.626426021,35.62731655799999],[139.62640898,35.62736954900001],[139.626377964,35.627470683],[139.626291833,35.627733832999986],[139.626224861,35.62796225000001],[139.626200924,35.628043864999995],[139.626177583,35.628123444],[139.626144667,35.628228138999994],[139.626084806,35.628411056],[139.625998722,35.62869561099999],[139.625847333,35.62916985599999],[139.625811837,35.629283044],[139.625784856,35.62936191899999],[139.625449777,35.630409013],[139.625128511,35.631412419],[139.625072694,35.631563222],[139.625,35.631733611],[139.624962417,35.63182544400001],[139.62488447200002,35.63198541700001],[139.624790917,35.632179972],[139.624728972,35.63227911100001],[139.624665149,35.63238803200001],[139.624582255,35.63250686],[139.624481451,35.632619814],[139.624386575,35.63274600999999],[139.623941052,35.63333333300001],[139.623743215,35.63359164599999],[139.623034185,35.634540016],[139.622995667,35.634592899],[139.622948396,35.634657217],[139.62242744,35.63533259100001],[139.622279003,35.635529084],[139.622203718,35.635627704],[139.621978625,35.63592160199999],[139.621920848,35.63599735299999],[139.621673636,35.636324432],[139.621064528,35.637107472],[139.620861094,35.63739098599999],[139.620728506,35.637567653],[139.620297436,35.638142037],[139.620085149,35.638440643],[139.619981895,35.63862710000001],[139.619940201,35.638778869000014],[139.619852028,35.639090778],[139.619792167,35.639310222],[139.619782861,35.639344389],[139.619749528,35.639443027999995],[139.619692306,35.639650778],[139.61966875,35.63974008299999],[139.619611056,35.63995858300001],[139.619527861,35.64027383300001],[139.619471056,35.640455693999996],[139.61942025,35.640629528000005],[139.619391028,35.640749028],[139.619358556,35.640856528],[139.619327444,35.64095636100001],[139.619280611,35.64111541700001],[139.619268722,35.641157639],[139.619233528,35.641282667000006],[139.619209417,35.64136966700001],[139.619197806,35.641411417],[139.619168559,35.641516783],[139.619128371,35.64166427899999],[139.619127694,35.641666666999996],[139.619083278,35.641820583000005],[139.619056167,35.641916528],[139.618993196,35.642137826],[139.618987705,35.64215712399999],[139.618931139,35.642355917],[139.618908417,35.642439528],[139.618781778,35.64288952799999],[139.61866325,35.64333291700001],[139.618634028,35.64342316700001],[139.618519111,35.64383736100001],[139.618430944,35.644171333],[139.6183905,35.644324528],[139.618346667,35.644485139],[139.618292372,35.644707119],[139.618183799,35.64508505],[139.618152723,35.645193222],[139.618075807,35.645460958],[139.61797479800003,35.645812561],[139.617935889,35.645948],[139.61788713900003,35.64611261100001],[139.617879892,35.646138443000005],[139.617869144,35.646176756],[139.617762587,35.64655658800001],[139.617666546,35.646898936],[139.617630968,35.64702575799999],[139.617556667,35.647290611],[139.617451915,35.647690353],[139.617363584,35.648027430000006],[139.617291444,35.648302722],[139.61715424,35.648850031],[139.617148389,35.648872306000015],[139.617118166,35.648978978],[139.617112667,35.648998389],[139.617075453,35.649164867],[139.617057472,35.64924530599999],[139.616997306,35.649489139],[139.616876814,35.649956164],[139.616865786,35.64999890599999],[139.616865504,35.65],[139.616750592,35.650445396],[139.616673592,35.65074384699999],[139.616666667,35.65077068899999],[139.616589969,35.651067966],[139.616573985,35.651128202],[139.616555484,35.65120261399999],[139.616551339,35.651219285],[139.616418551,35.651753361],[139.616400393,35.651846298],[139.616384528,35.6519275],[139.616298673,35.652274122],[139.616214551,35.652613748],[139.616081075,35.653152635],[139.616044867,35.65329473800001],[139.61589836800002,35.653869696],[139.61583268200002,35.65412749400001],[139.615739373,35.65449369800001],[139.615659732,35.654806265999994],[139.615625561,35.654940375],[139.615468918,35.65553470700001],[139.615350597,35.656031686],[139.615230513,35.656728988],[139.615227209,35.656748169],[139.615194698,35.656936262],[139.615049793,35.657764172],[139.614999098,35.658054493],[139.614955611,35.65833333300001],[139.614878351,35.65879042000001],[139.614811559,35.65914637],[139.614808236,35.659164084],[139.61479331,35.659243626000006],[139.614781313,35.65930689999999],[139.61475811,35.659447022],[139.614711872,35.659699969],[139.614648984,35.66004400599999],[139.614598883,35.660318088],[139.61435719,35.66168717],[139.614314028,35.661971611],[139.614233194,35.66244549999999],[139.614170972,35.66278911100001],[139.614169028,35.662821333],[139.614103694,35.663160583],[139.614100484,35.66317681300001],[139.614081889,35.663270833],[139.614073869,35.663335661000005],[139.614073791,35.663336291],[139.614071809,35.663352313],[139.614064611,35.663410500000005],[139.614046279,35.663538927],[139.613912567,35.664399989],[139.613898842,35.664491012000006],[139.613834893,35.66491510000001],[139.613762358,35.665403403],[139.613745674,35.66551487499999],[139.613741042,35.665545823],[139.613696174,35.665845616000006],[139.613680993,35.665947056],[139.613677647,35.66596940800001],[139.613660078,35.666086799000006],[139.61362248300003,35.666337997999996],[139.613599854,35.66648919299999],[139.613573374,35.666666124],[139.613573293,35.666666667],[139.613543556,35.66686536099999],[139.613407472,35.667762528],[139.61339027,35.667869557],[139.613361278,35.668049943999996],[139.613340565,35.668215036],[139.613313806,35.668459111],[139.61331146,35.668511421],[139.613310267,35.668538032],[139.613308444,35.668578667],[139.613306885,35.668672979],[139.613308245,35.668719182],[139.613323667,35.669239944],[139.613337139,35.669546306],[139.613341484,35.669777622],[139.613342278,35.669819888999996],[139.613343806,35.669901611],[139.613348806,35.670053806],[139.613355472,35.670136028],[139.61337133300003,35.670334472],[139.613379949,35.670478758],[139.613434671,35.671328454],[139.613440778,35.67142327799999],[139.61347440800003,35.67200387399999],[139.613479388,35.67208125],[139.613500806,35.67241402799999],[139.613512471,35.67264689],[139.613546066,35.673317512000004],[139.613547736,35.673350865],[139.613561162,35.673672664],[139.61362391,35.674101304000004],[139.613737637,35.67463826],[139.613780202,35.67484268500001],[139.613811566,35.675000000000004],[139.613878521,35.675336781],[139.613928526,35.675540879],[139.614083583,35.676204917],[139.614095722,35.67625780600002],[139.614164389,35.676556778000005],[139.614218583,35.676792694],[139.614258877,35.676946073],[139.614277476,35.67706094099999],[139.614317722,35.67727386100001],[139.61433532,35.677398765],[139.614339268,35.677446323],[139.614347358,35.677519120999996],[139.614386917,35.677747694],[139.61439775000002,35.677816582999995],[139.614446279,35.678409768],[139.614468815,35.678681872000006],[139.614481884,35.678871298],[139.614552326,35.679697121000004],[139.614578873,35.679922635],[139.614585582,35.67997522000001],[139.614614917,35.680236167000004],[139.61463416700002,35.680349889000006],[139.614664056,35.680460444],[139.614744444,35.680757667],[139.614781917,35.68086975],[139.614935924,35.681330345999996],[139.614971134,35.681445018],[139.614996608,35.681527984000006],[139.615068267,35.681739086],[139.615256054,35.682247931999996],[139.615279796,35.682314066],[139.61529629200004,35.682360538999994],[139.615325225,35.682439740999996],[139.61551496,35.68297867799999],[139.615517835,35.68298592],[139.615557638,35.683102134],[139.615560989,35.683111199],[139.615638891,35.68333333300001],[139.615666295,35.68344935799999],[139.615671429,35.683651964000006],[139.615668409,35.683686051],[139.61560314,35.684422766],[139.615598592,35.68455840399999],[139.61560256,35.684687009],[139.615615786,35.684849136],[139.615659281,35.68511350799999],[139.615684644,35.685286453],[139.615717626,35.68546454],[139.615727002,35.685531901],[139.615737943,35.685608637],[139.615773525,35.685849123],[139.615841849,35.686336701],[139.615855215,35.686447365],[139.61586256,35.686501524],[139.615922627,35.686929258000006],[139.615967546,35.687200765],[139.616083269,35.687976575],[139.6162148,35.68885835700001],[139.616502709,35.690792554],[139.616613562,35.691546297],[139.616623834,35.691616145],[139.616631031,35.691666667],[139.616659254,35.691862399],[139.616666667,35.691906846],[139.616670909,35.691932281],[139.616677846,35.691981981000005],[139.616697525,35.692104191],[139.616736634,35.692355831],[139.616751694,35.69244777800001],[139.616839528,35.692804861],[139.616871556,35.692926639],[139.616877705,35.692950139999994],[139.616921722,35.693118361],[139.617073108,35.693594189],[139.617168899,35.693912375],[139.617190352,35.693993141],[139.617213197,35.694068888],[139.617225537,35.694109802999996],[139.617245374,35.69417557500001],[139.617250898,35.694193891000005],[139.61735675,35.694532333000005],[139.617552031,35.695171012],[139.617762732,35.695893696000006],[139.617778921,35.695965176],[139.617791429,35.69603893000001],[139.617807431,35.696184305],[139.617814411,35.69628603599999],[139.61781631,35.69631912],[139.61781602800002,35.696374667],[139.617799582,35.696602693],[139.61775206,35.696915656],[139.617705435,35.697182099],[139.617613598,35.697706966],[139.617523227,35.69820107],[139.617455907,35.69859119200001],[139.617438856,35.698694358],[139.617424833,35.69877763899999],[139.617412981,35.69885044800001],[139.61737442,35.699081936000006],[139.617355,35.69918836100001],[139.617345298,35.699242419],[139.617304625,35.699475098],[139.617230462,35.699836006000005],[139.617225,35.699861694000006],[139.617197626,35.699972971],[139.617192083,35.70000000000001],[139.617187778,35.700014814000006],[139.61711979,35.70030301999999],[139.617055749,35.700565605],[139.616897378,35.701140904999995],[139.616865149,35.70125987200001],[139.616824841,35.701415659000006],[139.616808639,35.701478278],[139.616744606,35.701716121],[139.61667961,35.701962063],[139.616666667,35.70201101600001],[139.616626776,35.702161888999996],[139.616453668,35.702812901],[139.616422616,35.702918345],[139.616399704,35.702994249],[139.616358484,35.703180517],[139.616143147,35.703927685],[139.615972969,35.704586978],[139.615755089,35.705377149],[139.61571504,35.70551171000001],[139.615654616,35.705714729],[139.615581136,35.705997981],[139.615512053,35.70625668900001],[139.615463056,35.706437648],[139.615365061,35.706804713],[139.615145066,35.707689669],[139.615114277,35.707827513],[139.61502417,35.708333333000006],[139.615020068,35.708380405],[139.615010303,35.708469784],[139.614941333,35.70931875000001],[139.614918111,35.70957675],[139.614884044,35.709935409],[139.614864473,35.71018713099999],[139.614843988,35.710391752],[139.614831799,35.71059086400001],[139.614786739,35.711095965],[139.614760302,35.7113673],[139.614749528,35.71146508299999],[139.614746311,35.711510113],[139.614676733,35.712269317],[139.614670667,35.712336778],[139.614657688,35.712458851],[139.614611492,35.712961988],[139.614565027,35.71349175],[139.614557545,35.713573103],[139.614549437,35.713652885],[139.614532109,35.713867881],[139.61450617400004,35.714170028],[139.614483174,35.714453667],[139.614430838,35.714999899],[139.614423361,35.71507288899999],[139.614418226,35.715136546],[139.614340527,35.71606317700001],[139.614315041,35.716360277],[139.61430911,35.716414963000005],[139.614289904,35.716653638000004],[139.614288362,35.716666667000005],[139.614282833,35.716719639],[139.614276522,35.71677252],[139.614264349,35.716894464],[139.614243542,35.717104241],[139.614241741,35.717127148],[139.614220811,35.71734677799999],[139.614215988,35.717396375999996],[139.614108272,35.718703987999994],[139.614080548,35.71934313199999],[139.614109327,35.72037569999999],[139.61421827800004,35.722532833],[139.614343196,35.724963886],[139.614344603,35.725],[139.61437709,35.725834199000005],[139.614405787,35.726436235],[139.614444917,35.72709519400001],[139.614462588,35.72787346699999],[139.614487091,35.728537899],[139.614507522,35.72923555500001],[139.614512759,35.729876428999994],[139.614522723,35.730243198],[139.61452621500004,35.73039675599998],[139.614528517,35.730470705],[139.614527306,35.730611789],[139.614528616,35.73064483900001],[139.614544167,35.731185306],[139.61454775,35.73164309500001]],[[139.649652086,35.604476824],[139.649399618,35.60441144400001],[139.649025383,35.604501802],[139.647489142,35.60493179400001],[139.64735314900003,35.60496191200001],[139.646472129,35.605212277],[139.645993624,35.605341598],[139.645669317,35.60544410300001],[139.645343258,35.605532696],[139.645386007,35.605649489],[139.645424878,35.605766751000004],[139.645573591,35.60572506],[139.645697381,35.605691509],[139.646395399,35.605507546],[139.647154711,35.605304815000004],[139.647433469,35.60523038800001],[139.64794367300001,35.605098168],[139.649104593,35.60477452599999],[139.649516399,35.604660749000004],[139.64953074100004,35.60465573],[139.649652086,35.604476824]],[[139.647489142,35.60493179400001],[139.647433469,35.60523038800001],[139.647423098,35.605307478000014],[139.647407457,35.60543395]],[[139.647154711,35.605304815000004],[139.647268193,35.605321716999995],[139.647334567,35.605359496],[139.647407457,35.60543395]],[[139.6572995630002,35.60223006950039],[139.6572995630002,35.60223006950039]],[[139.673175083,35.599415167],[139.673129833,35.599471777999995],[139.672334889,35.59951713900001],[139.672086876,35.5995309],[139.671987889,35.599536916999995],[139.671583889,35.59955722200001],[139.67135747200004,35.599567111000006],[139.671268194,35.59957308300001],[139.671052944,35.59958825],[139.670805361,35.599605194000006],[139.670707972,35.599606528],[139.670534528,35.599609306000005],[139.67044725,35.599612694],[139.67030975,35.59961025],[139.669833861,35.599615111],[139.66964525,35.599622],[139.669166411,35.599648284]],[[139.677977333,35.58906322199999],[139.677837278,35.5890055],[139.677735667,35.588966083]],[[139.61362391,35.674101304000004],[139.61352659,35.674071155],[139.613457917,35.673863],[139.61342951,35.673719262999995],[139.613377071,35.673345726],[139.613297659,35.672004481],[139.613299051,35.671777287],[139.613279199,35.67142179599999],[139.613253933,35.67090401],[139.613219172,35.670597912],[139.61337133300003,35.670334472]],[[139.613342278,35.669819888999996],[139.61352562,35.670143222],[139.61354551900004,35.670321245],[139.613610588,35.67173242599999],[139.613621977,35.671955541],[139.613677323,35.672776221],[139.61369893,35.673332031000015],[139.613671156,35.673564301000006],[139.613561162,35.673672664]],[[139.61408428,35.67754780400001],[139.614339268,35.677446323]],[[139.613964126,35.67739420600001],[139.614420058,35.677222726000004],[139.614528136,35.677188679],[139.61461361,35.67716094899999]],[[139.615563693,35.68649985100001],[139.615634412,35.686486959],[139.615855215,35.686447365]],[[139.615922627,35.686929258000006],[139.616112859,35.68715753],[139.616274692,35.688271706],[139.616338704,35.688673269],[139.61643171600002,35.689218097],[139.616570444,35.690080777],[139.616666667,35.690814422],[139.616736216,35.691275301000005],[139.616772429,35.691579175],[139.616766318,35.69166666700001],[139.616702102,35.691917270000005],[139.616670909,35.691932281],[139.616666667,35.69193056],[139.616636545,35.69191834000001],[139.616516877,35.691720000000004],[139.616493803,35.69166666700001],[139.616466477,35.691603505],[139.616415619,35.691240912],[139.616252779,35.690125012000024],[139.616239722,35.689970722],[139.616114083,35.68918377800001],[139.616051335,35.688779567000005],[139.615808566,35.687182778],[139.615922627,35.686929258000006]],[[139.616570444,35.690080777],[139.616252779,35.690125012000024]],[[139.616338704,35.688673269],[139.616051335,35.688779567000005]],[[139.615238236,35.70797510100001],[139.614876018,35.708192771],[139.614695647,35.70830595899999]],[[139.615958815,35.70411643600001],[139.615995999,35.704006230999994],[139.616193711,35.703278872999995],[139.616237554,35.70312391000001],[139.616277083,35.703077083000004],[139.616399704,35.702994249]],[[139.615875933,35.704439313],[139.615717055,35.705009573],[139.615626222,35.70535068],[139.615650482,35.70542311500001],[139.61571504,35.70551171000001]],[[139.616122266,35.70444971100001],[139.615978373,35.705038638],[139.615882329,35.70538424099999],[139.615821302,35.705448447],[139.61571504,35.70551171000001]],[[139.614843988,35.710391752],[139.614718791,35.710240911],[139.614702305,35.710213405],[139.614690901,35.710183771000004],[139.61470533,35.71000729099999],[139.614767694,35.7093075],[139.614816962,35.70879222500001],[139.614858093,35.708333333000006],[139.614876018,35.708192771],[139.614991713,35.707583241],[139.615060396,35.707317149000005],[139.615159679,35.70690023499999],[139.61533562,35.706251304000006],[139.615458716,35.70600578700001],[139.615581136,35.705997981],[139.615684609,35.70604206699999],[139.615634594,35.706400644000006],[139.615291851,35.707689974999994],[139.61525874400002,35.707827621999996],[139.615238236,35.70797510100001],[139.615231419,35.708037271],[139.615216458,35.708198148],[139.615206807,35.708333333000006],[139.615142109,35.70892117699999],[139.615112823,35.70933581300001],[139.615059135,35.71002717599999],[139.615036611,35.71020786199999],[139.615020883,35.710233392],[139.614999954,35.71025340300001],[139.614843988,35.710391752]],[[139.613786287,35.719080147],[139.613944081,35.71907951],[139.614217634,35.719084976]],[[139.61418947400003,35.724456092],[139.614452451,35.724445998]],[[139.61418947400003,35.724456092],[139.614171071,35.72401051000001],[139.614153092,35.72366835100002],[139.614148459,35.72356423800001],[139.614165497,35.723499632],[139.614267854,35.72340186200001]],[[139.614452451,35.724445998],[139.614435504,35.724027544],[139.614407981,35.723654083],[139.614396179,35.723622445],[139.61437601100002,35.723588182],[139.614276167,35.723582241]],[[139.614226197,35.719349673],[139.614217634,35.719084976],[139.614228409,35.71900121200001],[139.614244745,35.718853067],[139.614336687,35.71803807],[139.614400205,35.71737461399999],[139.614376903,35.717272666],[139.614356508,35.71722380700001],[139.614241741,35.717127148]],[[139.61395737000004,35.71934720099999],[139.613944081,35.71907951],[139.61394691,35.718987506],[139.613947401,35.718843657],[139.613952325,35.718662226000006],[139.61396253,35.718492457],[139.613967632,35.71842671400001],[139.613999959,35.718045256],[139.61404576,35.717328534],[139.61406785,35.717289742],[139.614091724,35.717243794],[139.614122007,35.717200363],[139.614243542,35.717104241]],[[139.613947401,35.718843657],[139.614,35.71887635299999],[139.614026919,35.71889165499999],[139.614086588,35.71890824300001],[139.614125561,35.71890903700001],[139.614165507,35.718900665999996],[139.614201557,35.718887953],[139.614244745,35.718853067]],[[139.61471959,35.731849733999994],[139.614434484,35.731860192]],[[139.614140389,35.73104819400001],[139.614411905,35.730895333],[139.614664709,35.730700904],[139.614777969,35.73058777]],[[139.614529732,35.732328158],[139.614550753,35.732353119],[139.614564697,35.73242946],[139.614607099,35.733221453000006],[139.61460369,35.733333333],[139.614600091,35.733451456],[139.614604634,35.733510917000004],[139.61461760000003,35.733556146],[139.614641941,35.73365057299999],[139.614685498,35.733744463],[139.614864981,35.73394202300001],[139.614925177,35.73399281399999],[139.614985851,35.734055243],[139.615158654,35.734212305],[139.615581717,35.734572933],[139.616291813,35.735193536000004],[139.616666667,35.735510119],[139.616798928,35.73562182100001],[139.616961891,35.735762201],[139.617105329,35.73587785],[139.617164298,35.735916832],[139.617200482,35.735899699],[139.617216891,35.735873302],[139.617075844,35.735760252],[139.616887899,35.73559055799999],[139.616666667,35.735376034000005],[139.616302513,35.73502513],[139.616197255,35.734918505],[139.615945656,35.734690301],[139.615463321,35.734244831],[139.615463357,35.73422563300001],[139.615057608,35.73384471300001],[139.61496771,35.733757557000004],[139.614911508,35.73369368899999],[139.614845414,35.73360919600001],[139.614812964,35.733561289],[139.614752582,35.73346348900001],[139.614718958,35.733394296],[139.614678728,35.733385523],[139.614665822,35.733333333],[139.614657557,35.733141511],[139.614643646,35.732699006999994],[139.614616187,35.732069235],[139.614591326,35.731653247000004],[139.61454775,35.73164309500001],[139.614507908,35.731660352999995],[139.614521604,35.731947647000005],[139.614529732,35.732328158],[139.614513899,35.73235718000001],[139.614523859,35.732657671000005],[139.614526542,35.733174504999994],[139.614528099,35.733333333],[139.614537043,35.733837513]],[[139.61428372,35.72625421],[139.614334574,35.726131078],[139.614382247,35.725834861],[139.614365599,35.725483405],[139.614348972,35.72503125000001],[139.614347222,35.725],[139.614294824,35.723984398],[139.614278559,35.723645041000005],[139.614276167,35.723582241],[139.614269243,35.723439829],[139.614267854,35.72340186200001],[139.614267066,35.723380361000004],[139.614258808,35.723283295],[139.614240211,35.72293054199999],[139.614201776,35.72217287400001],[139.614183571,35.72184567],[139.614182103,35.721802914]],[[139.61438885300004,35.72979592600001],[139.614600771,35.729854407],[139.614647056,35.729866389]],[[139.614528456,35.72625531100001],[139.614455684,35.726112365999995],[139.614382247,35.725834861]],[[139.614649916,35.73014781999999],[139.614647056,35.729866389],[139.614626908,35.72953310300001],[139.614604556,35.729234583],[139.614591234,35.72853150900001],[139.6145792,35.728100169],[139.614556702,35.728069989],[139.614514043,35.72803967400001],[139.614464957,35.728030305999994],[139.61443467,35.728034564],[139.614397038,35.72805637799999],[139.614373089,35.728080641000005],[139.61436075100002,35.72809661899999],[139.614373706,35.72854342899999],[139.614391639,35.729243917],[139.614399262,35.72952777999999],[139.61438885300004,35.72979592600001],[139.614393667,35.730015761000004],[139.614393045,35.730155794000005],[139.614406833,35.730768861],[139.614411905,35.730895333],[139.614422643,35.731195764],[139.614423176,35.731392988],[139.614434484,35.731860192],[139.614430639,35.732073944],[139.614422697,35.733001256],[139.614428131,35.733243063],[139.614428131,35.733288785],[139.614428131,35.733332507],[139.614428139,35.733333333],[139.61442826,35.733346008],[139.614544807,35.733544652000006],[139.614583731,35.733619788],[139.614650762,35.733716568999995],[139.614770082,35.733839636000006],[139.614825247,35.733917766],[139.614882692,35.734019957],[139.614947318,35.73410351900001],[139.615035202,35.734196665],[139.61524801,35.734382949],[139.615392994,35.734517612],[139.615517629,35.734630448],[139.616009067,35.735056337],[139.616401704,35.735351786],[139.616666667,35.735571711],[139.616968172,35.735847114],[139.617084826,35.73595311300001],[139.61741182,35.736240401],[139.618225757,35.73694887600001],[139.618309319,35.737022657],[139.618613394,35.737291832],[139.61887221,35.737517021],[139.619694289,35.738187792999994],[139.620128044,35.73856799799999],[139.620366118,35.73880628800001],[139.620507072,35.738935841],[139.620530464,35.738957498000005],[139.620674227,35.73908760100001],[139.621316178,35.739647489999996],[139.621673195,35.73995282900001],[139.621754483,35.740021781],[139.621820778,35.74007576799999],[139.622192611,35.74040382399999],[139.622429553,35.740612871],[139.62268655,35.740832749000006],[139.622845152,35.74097886300001],[139.623165174,35.741226753],[139.623387228,35.74138003899999],[139.623557329,35.741487171],[139.62383386,35.741666667],[139.623852979,35.741679077],[139.62401126,35.741784112],[139.624623387,35.742172325000006],[139.62485656,35.74233336199999],[139.625,35.74242846899999],[139.625082851,35.74249084600001],[139.625467743,35.742774671999996],[139.625743161,35.742951401],[139.626138351,35.743212101],[139.626608267,35.74351732],[139.626683722,35.743545473000005],[139.626738314,35.74356125300001],[139.62679303800002,35.743566606],[139.626982101,35.743563692]],[[139.61436075100002,35.72809661899999],[139.614356611,35.727821192],[139.614327389,35.727102222],[139.614301095,35.726644725],[139.614290026,35.72640032599999],[139.61428372,35.72625421],[139.614248896,35.725846873],[139.614236325,35.72520605700001],[139.614221282,35.725],[139.61421831,35.72496122300001]],[[139.6145792,35.728100169],[139.614577256,35.727810418],[139.614540644,35.726641531],[139.614536663,35.72638692],[139.614528456,35.72625531100001],[139.614526557,35.725850219],[139.614512874,35.725667756],[139.614473224,35.72500000000001],[139.614473524,35.72494898099999]],[[139.614422643,35.731195764],[139.614468879,35.731226056000004],[139.614524228,35.731236210000006],[139.61459203,35.73123113300001],[139.614637692,35.73121703000001],[139.614671712,35.73118989899999]],[[139.614301095,35.726644725],[139.614342332,35.72660398399999],[139.614392476,35.726580856000005],[139.614432945,35.726576066],[139.614472761,35.726585113999995],[139.614510701,35.726605167],[139.614540644,35.726641531]],[[139.614393045,35.730155794000005],[139.614433869,35.730112151],[139.614466528,35.730095877000004],[139.614507353,35.730083302],[139.614557249,35.73008847999999],[139.614600794,35.730107712999995],[139.614631639,35.730130644],[139.614649916,35.73014781999999],[139.614670139,35.730357083],[139.614664709,35.730700904],[139.614661841,35.730917047],[139.614671712,35.73118989899999],[139.614685058,35.73139023900001],[139.61471959,35.731849733999994],[139.614758121,35.732126449],[139.614784699,35.73239693099999],[139.614805139,35.732806548999996],[139.614798569,35.733142526],[139.614790543,35.73323592100001],[139.614775603,35.73333333299999],[139.614766969,35.733364081],[139.614718958,35.733394296],[139.614682712,35.733472585],[139.614665296,35.73359714899999],[139.614659553,35.733630711],[139.614650762,35.733716568999995],[139.61465188600002,35.733797216],[139.614661694,35.734004332999994],[139.614670534,35.73408040099999]],[[139.614399262,35.72952777999999],[139.614435163,35.729554392],[139.614474328,35.729577013],[139.614530627,35.729583000000005],[139.614564897,35.729575682],[139.614597534,35.729557719],[139.614626908,35.72953310300001]],[[139.614423176,35.731392988],[139.614508827,35.73134974300001],[139.614567203,35.731342691],[139.614609363,35.731348861],[139.614685058,35.73139023900001]],[[139.615463357,35.73422563300001],[139.615497662,35.734216042],[139.615538208,35.734211302],[139.615575743,35.73422460799999],[139.61562166,35.73424641300001],[139.615646955,35.734263711],[139.61567143500002,35.73428234],[139.61606226,35.734644853],[139.616257619,35.734824890999995],[139.616662147,35.735207821],[139.616666667,35.73521206800001],[139.61701196,35.735536526],[139.61720825,35.73574997200001],[139.617410525,35.735946563],[139.617566889,35.73610963900002],[139.61832861,35.73676994],[139.618375056,35.736814667],[139.618748077,35.737123777],[139.619039964,35.73737937800001],[139.619289848,35.73758405499999],[139.61981219400002,35.738027833000004],[139.620296081,35.738464257000004],[139.620558969,35.738693034],[139.620752746,35.73885945499999],[139.621418365,35.739430017000004],[139.621745006,35.73971993],[139.621916502,35.739876464],[139.621982475,35.73992812400001],[139.62292206,35.740748687],[139.623167054,35.740950398],[139.623635775,35.74127286800001],[139.624045384,35.741536621],[139.624178999,35.741621563],[139.624200009,35.741633490000005],[139.624249624,35.741666667000004],[139.624302118,35.74170176900001],[139.624399238,35.741768863],[139.62460225,35.741893957],[139.62482303,35.742042843],[139.624877134,35.742076344],[139.624960066,35.74212440800001],[139.625,35.742148302000004],[139.625153907,35.74223426599999],[139.625416204,35.742382223],[139.62574946700002,35.74259919499999],[139.625840081,35.74265263400001],[139.626182636,35.742861143000006],[139.626625553,35.743151714999996],[139.626890243,35.743331707],[139.626927817,35.743369321],[139.626957644,35.743419233],[139.626982101,35.743563692]],[[139.614670534,35.73408040099999],[139.61470278100003,35.73404475600001],[139.614725261,35.734016896000014],[139.614746081,35.73400340300001],[139.614775963,35.73399426700001],[139.614812192,35.733996006],[139.614846136,35.734002925000006],[139.614882692,35.734019957]],[[139.616399704,35.702994249],[139.616478022,35.703121992],[139.616489104,35.703181729],[139.616214417,35.70412902199998]],[[139.61421831,35.72496122300001],[139.614250001,35.72496495],[139.614353088,35.724969116000004],[139.614419868,35.724964],[139.614442545,35.724959103],[139.614473524,35.72494898099999]],[[139.614607099,35.733221453000006],[139.614633806,35.733333333],[139.614694249,35.733586540000005],[139.614728138,35.733654806000004],[139.614746079,35.733684063],[139.614804915,35.733762195],[139.614867545,35.73384063],[139.614895356,35.733873631],[139.614920005,35.73389986],[139.615010638,35.733992279999995],[139.615075969,35.734068258],[139.615123296,35.734117491000006],[139.615179442,35.734170051999996],[139.615323252,35.73429885600001],[139.615446866,35.734407968],[139.615709828,35.734635063],[139.616093592,35.73497961899999],[139.616221177,35.735104448],[139.616401704,35.735351786]],[[139.614577256,35.727810418],[139.614544453,35.727811206],[139.614356611,35.727821192]],[[139.617200482,35.735899699],[139.618114469,35.736704853999996],[139.618254917,35.736828167],[139.618862028,35.737364333000016],[139.619637861,35.73803133300001],[139.619798119,35.73815621],[139.62008037,35.73840258900001],[139.620298889,35.73861727799999],[139.62030706,35.738624364],[139.620612639,35.738889361],[139.621214917,35.73940008300001],[139.621510328,35.739660956],[139.621787556,35.739908472],[139.621891611,35.739994778],[139.622755611,35.740747428],[139.623046057,35.74100105600001],[139.623336194,35.741214194],[139.623565806,35.741362111],[139.623798917,35.74150433300001],[139.624039429,35.741666667],[139.624132127,35.741725762],[139.624201139,35.741773694],[139.624261667,35.74181294400001],[139.624700946,35.74209730300001],[139.624905396,35.742229649],[139.625,35.742290275],[139.625512128,35.742618469],[139.62581125000003,35.742817917],[139.625977648,35.742918935000006],[139.626729731,35.743406736],[139.626982101,35.743563692],[139.627081056,35.743619167],[139.627240548,35.74372210600001],[139.627527508,35.74390785200001],[139.628140954,35.74431435799999],[139.62899625,35.744869028],[139.630991667,35.746160139000004],[139.631640921,35.74657686700001],[139.632356864,35.74703744],[139.63259321,35.747194619],[139.632787894,35.747322445],[139.632903579,35.747393429],[139.633195903,35.747559734000006],[139.63324032,35.74758208299999],[139.633275883,35.74760060300001],[139.633333333,35.74762848899999],[139.63371305,35.74783212500001],[139.634066054,35.74802436000001],[139.634181139,35.748089027999995],[139.634530198,35.748268932],[139.634672574,35.74834567199999],[139.635430303,35.748752413],[139.635593993,35.748841435],[139.635738782,35.748919849],[139.636390835,35.74927679999999],[139.636974909,35.749586735],[139.637055491,35.749629170999995],[139.637115392,35.749660562],[139.637433889,35.749831521999994],[139.637549578,35.749892365],[139.637639037,35.749939504000004],[139.637750629,35.75],[139.638444,35.750371928],[139.639457796,35.75091599899999],[139.640409056,35.751432611000006],[139.640630766,35.75155264100001],[139.640780944,35.751633944],[139.641666667,35.752106833000006],[139.641670361,35.75210880600001],[139.641758729,35.752158964],[139.642010333,35.752301778],[139.642034321,35.752314861],[139.643190667,35.752945528],[139.643311472,35.75300972200001],[139.643357506,35.753034482],[139.643561279,35.753144087],[139.644057815,35.75341116],[139.644099194,35.753433417],[139.645100551,35.753975894999996],[139.646411972,35.75467788899999],[139.646763338,35.754867817000004],[139.647050528,35.755023056],[139.647551068,35.75528032599999],[139.647631,35.755325944000006],[139.647748144,35.75538941500001],[139.647940778,35.755493611],[139.648296333,35.755683860999994],[139.648546194,35.755817556],[139.648866444,35.755988916999996],[139.64914995,35.756134677],[139.649286222,35.756205639],[139.649385528,35.756259222],[139.649774694,35.75646230600001],[139.649973083,35.75656583300001],[139.65,35.756581083],[139.650003778,35.756583222],[139.65004175,35.756604722],[139.650510572,35.756851186],[139.650610333,35.756903139],[139.650732188,35.756967969],[139.65095175,35.757083111],[139.651314145,35.75727525400001],[139.651633015,35.757439527],[139.652366818,35.75782442300001],[139.652983721,35.758159759],[139.653156615,35.758251963],[139.653255659,35.75830155200001],[139.653323991,35.75833333300001],[139.653360338,35.758351666],[139.654087954,35.758741138999994],[139.654152291,35.758773037],[139.654561674,35.758983848],[139.654768239,35.75909260600001],[139.655200988,35.759320354],[139.655256468,35.75934515199999],[139.655382528,35.759409424],[139.655847926,35.75963807899999],[139.656188583,35.759807556],[139.656825967,35.76011332400001],[139.657381331,35.760379536],[139.657531222,35.76044902799999],[139.657662302,35.760512289000005],[139.657808694,35.76059124999999],[139.658065013,35.76071862900001],[139.658333333,35.76084688899999],[139.658337333,35.76084883299999],[139.658397426,35.760878296],[139.658584651,35.76097072200001],[139.658677908,35.761013840000004],[139.658853381,35.761099516],[139.659050546,35.761195679],[139.659417056,35.76137863900001],[139.659797623,35.76155928000001],[139.659820131,35.761569964],[139.659873401,35.76159525800001],[139.660625345,35.76195549800001],[139.660933694,35.76210522200001],[139.661208333,35.762241499999995],[139.661505278,35.762388806],[139.662015538,35.762639054000005],[139.662095334,35.762677055],[139.662141861,35.762697111],[139.662280804,35.762764686],[139.662431228,35.762838486],[139.663229639,35.763221972],[139.663462946,35.763336651],[139.664445685,35.76381969900001],[139.664719639,35.763979639],[139.664914472,35.76410625],[139.665196722,35.764309444],[139.665623833,35.76460861100001],[139.666547582,35.76529837999999],[139.666666667,35.765388111],[139.666747892,35.76545755200001],[139.666812937,35.765513001],[139.666891884,35.765589344],[139.667078824,35.76577966100001],[139.667245913,35.765999322999996],[139.667747,35.766666666999996],[139.668323056,35.767420611],[139.668918583,35.768184610999995],[139.669743139,35.769278065],[139.669872547,35.76945280500001],[139.670062072,35.76970687099999],[139.670369024,35.770108955]],[[139.627240548,35.74372210600001],[139.627278344,35.743865125],[139.627294084,35.743921438],[139.627309741,35.743949079],[139.627339882,35.743978771],[139.627392199,35.744008412],[139.627417172,35.744025902000004],[139.627721444,35.74423036099999],[139.628308145,35.744586584],[139.62834363,35.744608691],[139.628526618,35.74472544100001],[139.628690734,35.744829323],[139.628830851,35.744927981000004],[139.629081568,35.745095707000004],[139.629176348,35.74516212499999],[139.62956677,35.745412029],[139.629791861,35.745552951],[139.630068503,35.745736788],[139.630775561,35.74617867999999],[139.631104816,35.74639317199999],[139.631496994,35.74664539500001],[139.632183958,35.747099298],[139.632232471,35.747128706],[139.632297155,35.747161155],[139.632389206,35.747201716999996],[139.632499915,35.747240252],[139.63259321,35.747194619]],[[139.627240548,35.74372210600001],[139.627509424,35.743758646],[139.627562171,35.74377195600001],[139.627727833,35.743865490000005],[139.627898129,35.743974706],[139.62819278,35.744175907000006],[139.628531123,35.744391605000004],[139.628964684,35.744690802],[139.629136045,35.744796068],[139.62931347,35.744904725],[139.629401713,35.744957043999996],[139.629530393,35.745035695],[139.629773985,35.74519372099999],[139.629821895,35.74522551100001],[139.62998473,35.745331728000004],[139.631033637,35.746019918],[139.63120251100003,35.746129744],[139.631291996,35.74619089600001],[139.631379038,35.746247309],[139.631504213,35.74632502400001],[139.63238231,35.74688204],[139.632522049,35.746972285],[139.632776333,35.747122852],[139.632995872,35.747251935],[139.633125241,35.747327379999994],[139.633169885,35.74737357000001],[139.633282113,35.747464974],[139.63324032,35.74758208299999]],[[139.628964684,35.744690802],[139.628690734,35.744829323],[139.628526306,35.744911835]],[[139.62998473,35.745331728000004],[139.629791861,35.745552951]],[[139.637433889,35.749831521999994],[139.637466232,35.749933941],[139.637515991,35.75],[139.63766526700002,35.75011951400001],[139.63773493,35.750165146],[139.638327694,35.750475561],[139.639301767,35.750996984],[139.639618678,35.75116915600001],[139.640031874,35.75137158],[139.640118866,35.751420442000004],[139.640174958,35.751449807],[139.640658391,35.751701775],[139.64129855600004,35.752046861],[139.641666667,35.752253444],[139.641670361,35.752255528],[139.641729722,35.75228800000001],[139.641810936,35.752334815000005],[139.641864596,35.752365748],[139.641938722,35.752408417],[139.642223553,35.752549996],[139.642353972,35.75261475],[139.642920417,35.752912194],[139.643316222,35.75313116699999],[139.643378719,35.75316219300001],[139.643612028,35.753286778],[139.643629083,35.75329586099999],[139.644129872,35.75357403000001],[139.644190528,35.753607722],[139.644876711,35.754008591],[139.645535197,35.75437130899999],[139.64580367,35.75451825599999],[139.646487247,35.754883949],[139.646531015,35.754899812],[139.646583918,35.75491332],[139.646722031,35.754937221]],[[139.637549578,35.749892365],[139.637676463,35.749862958],[139.637741149,35.74986092899999],[139.637777225,35.749864986000006],[139.637920281,35.74992380100001],[139.638067358,35.75],[139.638383049,35.750173464],[139.638580829,35.750287003],[139.638840052,35.75042490100001],[139.639088818,35.750557787999995],[139.639342844,35.750696108],[139.639763073,35.750916977],[139.64049950000003,35.751342222],[139.640967741,35.7516017],[139.641666667,35.75198802800001],[139.641811611,35.75206769399999],[139.64192915,35.752133085000004],[139.642130528,35.752234833],[139.642289278,35.752319222000004],[139.643403389,35.75291138899999],[139.643532667,35.752985943999995],[139.643689639,35.75307275000001],[139.644166194,35.753340083],[139.644253855,35.753390294],[139.645044583,35.753780027],[139.645074651,35.75379745499999],[139.645555081,35.75405475499999],[139.645843553,35.754211954000006],[139.646675226,35.754654616],[139.646702062,35.75467484400001],[139.646719271,35.754691988999994],[139.646816751,35.754803173]],[[139.639763073,35.750916977],[139.639618678,35.75116915600001]],[[139.640174958,35.751449807],[139.64049950000003,35.751342222]],[[139.6418254,35.752482137],[139.642052943,35.75256427299999],[139.642085054,35.752571493000005],[139.642123808,35.752572847],[139.642160837,35.752566743],[139.642186788,35.752560573000004],[139.642223553,35.752549996]],[[139.643378719,35.75316219300001],[139.643532667,35.752985943999995]],[[139.641810936,35.752334815000005],[139.64192915,35.752133085000004]],[[139.644129872,35.75357403000001],[139.644253855,35.753390294]],[[139.644876711,35.754008591],[139.64486437,35.753964208000006],[139.644868,35.753921600999995],[139.644878163,35.753887278],[139.64490988,35.753839306],[139.644938227,35.753818964000004],[139.644983601,35.75379862199999],[139.645044583,35.753780027]],[[139.646816751,35.754803173],[139.646763338,35.754867817000004],[139.646722031,35.754937221]],[[139.652597989,35.758719098],[139.652517296,35.758941522],[139.652513606,35.75896513799999],[139.652510209,35.758989911],[139.652500419,35.759065326],[139.652488935,35.759191994999995],[139.652486341,35.75920574],[139.652482526,35.75921843900001],[139.652475849,35.759234507],[139.652462524,35.759258176],[139.65241587,35.75933277899999],[139.652397697,35.75936183799999],[139.652382078,35.759387452],[139.65235654100002,35.759430339],[139.652331783,35.759473519],[139.652309299,35.759519912],[139.652288674,35.75956247100001],[139.652281259,35.75957877700001],[139.652263219,35.75961969000001],[139.652260061,35.75962799800001],[139.652251087,35.75965304],[139.652239503,35.759686519],[139.652222993,35.759736933999996],[139.652210109,35.759779122999994],[139.652202139,35.759813296],[139.652194718,35.759847555],[139.652186078,35.759890466],[139.652176733,35.759942075],[139.652174812,35.75995940000001],[139.652170492,35.760002742999994],[139.652168104,35.76003472800001],[139.652164052,35.76008900600001],[139.652163741,35.76009772],[139.652164038,35.760141319],[139.652164957,35.760176194],[139.65216633400001,35.760211057],[139.652168705,35.760254607],[139.652169588,35.76026329300001],[139.652171776,35.76028064300001],[139.652177715,35.760323976],[139.652184478,35.760367229],[139.652193622,35.76041900600001],[139.652195616,35.760427572000005],[139.652204227,35.76046174200001],[139.652218074,35.760512835],[139.65223281,35.760563753999996],[139.652251819,35.760616663],[139.652263136,35.760648161],[139.652289089,35.760713931000005],[139.652293814,35.76072477700001],[139.652323687,35.760789406],[139.652386264,35.76092249],[139.6524124,35.760965307],[139.652563938,35.761315302],[139.652855748,35.76185106500001],[139.652918031,35.76196341100001],[139.65276592,35.762002181],[139.652600582,35.76200876],[139.652546017,35.761867894],[139.652411073,35.761597843000004],[139.652285292,35.76134477],[139.652109142,35.761030153],[139.652009493,35.760870728],[139.652004664,35.760860967000006],[139.651997459,35.760846401],[139.651973248,35.760797457],[139.651949928,35.760748353],[139.651946229,35.760740113000004],[139.651933039,35.760706687],[139.651917134,35.760664752],[139.651901784,35.760622686],[139.651884162,35.760572030000006],[139.651881509,35.76056352700001],[139.651865731,35.760503439],[139.651855176,35.760460398000006],[139.651845205,35.760417272999995],[139.651839466,35.760391365],[139.651837699,35.760382711],[139.651831374,35.760339122],[139.65182568,35.760295475],[139.651820559,35.760251786],[139.65181522,35.760199312999994],[139.651814459,35.760181769],[139.651813484,35.760129102],[139.651813288,35.76008520999999],[139.651813694,35.76004132700001],[139.651814184,35.760015005],[139.651814534,35.760006236],[139.651818684,35.759962474],[139.651822406,35.75992749],[139.651826362,35.759892223],[139.651829047,35.75986829600001],[139.651833116,35.759839328000005],[139.651835378,35.759824866],[139.651844411,35.759781746],[139.651851112,35.759753098],[139.651858305,35.75972453199999],[139.65186599,35.759696055],[139.651878488,35.759653541],[139.651887461,35.75962534600001],[139.651896917,35.75959726999999],[139.651906867,35.75956932599999],[139.651917317,35.759541526999996],[139.651922752,35.75952769300001],[139.651928578,35.75951393799999],[139.651941043,35.759486642],[139.651953996,35.75945951600001],[139.65196742400002,35.759432565000004],[139.651981299,35.75940578400001],[139.65200303,35.75936599700001],[139.65207848200004,35.759248410999994],[139.652134432,35.759214477],[139.652195237,35.759193827],[139.652259842,35.759200022],[139.652378917,35.759253712],[139.652406786,35.759286752],[139.65241587,35.75933277899999]],[[139.65207848200004,35.759248410999994],[139.652151557,35.759134528999994],[139.652229247,35.75906019400001],[139.652281746,35.759033536],[139.652597989,35.758719098],[139.652626992,35.758694613],[139.652652327,35.758671898],[139.65267935,35.758644366],[139.652709751,35.75861339200001],[139.652742686,35.75858104100001],[139.652917491,35.75842548100001],[139.65304041,35.758333333],[139.653156615,35.758251963]],[[139.65276592,35.762002181],[139.652786989,35.762047933],[139.652809851,35.762097578],[139.653008239,35.762521179000004],[139.653051996,35.762608977],[139.653185151,35.762876147000014],[139.653394657,35.763296512],[139.653439433,35.76338635399999],[139.6535027,35.76351329599999],[139.653568486,35.763645294],[139.653586115,35.76368274699999],[139.653613754,35.76374713599999],[139.653618927,35.763760838],[139.65363635,35.76380483399999],[139.653656906,35.76385915400001],[139.653683913,35.763937958],[139.653700941,35.764002762],[139.653704335,35.764015410000006],[139.653706688,35.76402274699999],[139.653709406,35.764034945000006],[139.653728166,35.764133016],[139.65373027800004,35.764145301],[139.653741387,35.764256595],[139.653742572,35.764281393],[139.653743481,35.764306195],[139.653744235,35.764368229],[139.653743171,35.76439302899999],[139.65374313,35.764396982],[139.653742943,35.764414995],[139.65373792,35.764479038],[139.653735173,35.76451404800001],[139.653732706,35.764532641],[139.653728625,35.76456338900001],[139.653718794,35.76462278499999],[139.653699367,35.764710703],[139.653695852,35.764725497],[139.653694736,35.76473019600001],[139.653689351,35.764749554000005],[139.653659129,35.764845706],[139.653611351,35.764987732],[139.653574414,35.76509003],[139.653561923,35.765124624],[139.653538399,35.765189776],[139.653506348,35.765278542999994],[139.653381105,35.76562540900001],[139.653358098,35.765692616],[139.653354121,35.76570261100001],[139.653267604,35.765969036],[139.653128941,35.76646411800001],[139.653080245,35.766666666999996],[139.652969254,35.767128324000005]],[[139.662095334,35.762677055],[139.662184957,35.76266],[139.6622987,35.762660644000015],[139.662345303,35.762663219],[139.66241086300002,35.762670944],[139.663347685,35.76311638399999],[139.663822462,35.763353834],[139.664840076,35.763901457],[139.665133451,35.76411134400001],[139.665726895,35.764540903],[139.665788561,35.764586831],[139.666666667,35.765240835],[139.66668881000004,35.765257327],[139.666770521,35.765404251],[139.666812937,35.765513001]],[[139.662141861,35.762697111],[139.662184109,35.762808178],[139.662285804,35.762904211],[139.662359068,35.76296093999999],[139.663352859,35.763446048999995],[139.663485595,35.76351158400001],[139.664024272,35.763768541000005],[139.664118017,35.763810155],[139.664281703,35.763869439],[139.664385958,35.763925357000005],[139.664497049,35.763988204],[139.664613879,35.764071142],[139.664816077,35.76421723399999],[139.665200347,35.764494729],[139.665368783,35.764611917],[139.665558292,35.76473974200001],[139.665791258,35.76488859900001],[139.666431427,35.765361936],[139.666547434,35.765412127],[139.666666667,35.765439146],[139.666747892,35.76545755200001]],[[139.665788561,35.764586831],[139.665899887,35.764589111],[139.6659352,35.76459413700001],[139.665969443,35.76460588900001],[139.66620748700004,35.764779624999996],[139.666218556,35.76478822999999],[139.6664385,35.7649511],[139.666521079,35.7650165],[139.666575824,35.76505612099999],[139.666666667,35.765118789],[139.666954046,35.765345278],[139.667032491,35.765433957000006],[139.667090902,35.765547944],[139.667134959,35.765625215],[139.667211327,35.765775474],[139.667244138,35.765831312],[139.6675901,35.766293094],[139.667819154,35.766590523],[139.667877498,35.766666666999996],[139.667910823,35.766710159],[139.668146508,35.767014467]],[[139.665791258,35.76488859900001],[139.66581952,35.764989119],[139.66584054,35.76502623700001],[139.665867592,35.765063291],[139.665914919,35.765097096],[139.665951473,35.765123198],[139.666140373,35.765263522],[139.666413042,35.765464012],[139.666666667,35.765663017],[139.666774074,35.76572759399999],[139.666800479,35.765743469],[139.666916653,35.76580753799999],[139.667003821,35.76585280500001],[139.667556714,35.766557752],[139.667641062,35.766666666999996],[139.667691999,35.766732438],[139.667960688,35.76709866499999]],[[139.667211327,35.765775474],[139.66711586200003,35.76581350600001],[139.667003821,35.76585280500001]],[[139.666774074,35.76572759399999],[139.666846139,35.765737767000005],[139.66690708,35.76574468300001],[139.66695368,35.765740267000005],[139.667012306,35.765723921],[139.667050876,35.765702544999996],[139.667071388,35.765674897],[139.667086816,35.76563466],[139.667090902,35.765547944]],[[139.668298229,35.76723122200001],[139.668748556,35.76780875],[139.668864931,35.767949972],[139.669108754,35.76825946400001],[139.669444544,35.768635092],[139.669596574,35.768811354],[139.669808116,35.76908755000001],[139.669988132,35.769342658],[139.670240305,35.769674281],[139.67040851,35.76990063],[139.670438628,35.77012411100001],[139.670438642,35.77019871]],[[139.668118929,35.767302039],[139.668591996,35.767923954],[139.668822474,35.768209487000014],[139.668918789,35.76834020100001],[139.669205465,35.768729342000015],[139.669331093,35.768941642],[139.669500532,35.769221843],[139.669597904,35.769364818],[139.670052536,35.769952441],[139.670173253,35.770026622],[139.670253499,35.770062954000004],[139.670369024,35.770108955],[139.670438642,35.77019871],[139.67055746,35.770352556],[139.670758986,35.770611030999994],[139.671082406,35.771051722],[139.671225894,35.771230290999995],[139.671582069,35.771649989],[139.671724182,35.771809772],[139.671844381,35.77192732000001],[139.671979187,35.77206597499999],[139.67233121,35.772384849],[139.672427369,35.77246694600001],[139.672498844,35.77253437700001],[139.672561806,35.772587553000015],[139.672850591,35.77284009499999],[139.67312742,35.773061174],[139.673462059,35.773343181],[139.67367697100002,35.773533869],[139.674880273,35.77456018899999],[139.675,35.77466125299999],[139.675039034,35.77469357],[139.675207498,35.77483111099999],[139.675334537,35.774943416000006],[139.675403867,35.775000000000006],[139.675406291,35.775001978],[139.675497648,35.775081855],[139.675627226,35.77519515000001],[139.675898611,35.77542516700001],[139.676356104,35.775813654],[139.676617179,35.776034342],[139.676768972,35.776150167],[139.677010528,35.776327667000004],[139.677216944,35.776453917000005],[139.677552445,35.776593618999996],[139.677859974,35.77669612500001],[139.677893556,35.776705675],[139.678175582,35.776781712],[139.679195426,35.777053286],[139.679758319,35.77719136299999],[139.679997855,35.777249941],[139.680247704,35.777318776],[139.680350658,35.777347107],[139.68104486,35.777527159],[139.681699951,35.77770170099999],[139.681801225,35.777728794000005],[139.682005944,35.777779972],[139.682563278,35.777930083000015],[139.682784361,35.77799125000001],[139.683168694,35.77809755599999],[139.683275806,35.778126333],[139.683333333,35.778139056],[139.683437683,35.778162128],[139.683443889,35.778163500000005],[139.683545972,35.778189667],[139.683599833,35.77820350000001],[139.684202278,35.778356028],[139.684978972,35.778556028000004],[139.685110472,35.77859602800001],[139.685253062,35.778632589],[139.685891542,35.778794775],[139.686047199,35.77883411],[139.686244909,35.77888902],[139.686912931,35.779067354],[139.686970778,35.7790815],[139.687109684,35.779114570000004],[139.687856417,35.779308556],[139.688391528,35.779449139],[139.688778444,35.779551055999995],[139.689451749,35.779723851],[139.689521611,35.779741306],[139.68957173,35.779754851],[139.690128222,35.779894806],[139.690305306,35.779938944],[139.690397611,35.779964111000005],[139.69055025,35.780000222],[139.690668898,35.780030857999996],[139.690916917,35.78008472199999],[139.691143675,35.78012689200001],[139.691288491,35.780153823],[139.691567539,35.780198981],[139.691666667,35.780213341],[139.692136273,35.78028495900001],[139.692759614,35.780377845000004],[139.692815486,35.78038724],[139.692975786,35.780414194],[139.693125872,35.780438276],[139.693673351,35.780526125],[139.694438202,35.78064885399999],[139.69454575,35.780666110999995],[139.694697889,35.780688610999995],[139.695338408,35.780778159],[139.695409001,35.78078802800001],[139.696334694,35.780917444],[139.696466162,35.780939180999994],[139.696642929,35.780969943],[139.697199472,35.78105611099999],[139.698289056,35.78123288900001],[139.698439366,35.781261653],[139.698506917,35.781275444],[139.698608728,35.781303668],[139.698744898,35.78134231500001],[139.698959066,35.78141666],[139.699229884,35.78151673400001],[139.699703291,35.781696649],[139.69994292,35.781787889000015],[139.7,35.781809125],[139.700291235,35.781913443],[139.700381667,35.78194422199999],[139.70045909000004,35.78197757800002],[139.700552917,35.782017999999994],[139.7008446,35.78213120800001],[139.70098674,35.782192562000006],[139.701102519,35.782247407],[139.701180312,35.782287319000005],[139.70124466000001,35.782326448000006],[139.701327255,35.782378098],[139.701731992,35.782665611000006],[139.702517944,35.783263444],[139.702611917,35.78333333300001],[139.702798273,35.78346380800001],[139.702940056,35.78356971200001],[139.7030045,35.78361405599999],[139.703065748,35.783659883999995],[139.703300083,35.783835222],[139.703515461,35.783990368],[139.703767052,35.784169277000004],[139.703812669,35.784201524],[139.703893883,35.78425405099999],[139.704025943,35.784321549],[139.704209625,35.78440371999999],[139.705695459,35.785032997],[139.70580318,35.78507372200001],[139.705867714,35.78509806200001],[139.706086256,35.785154883],[139.706376455,35.785207940999996],[139.706676607,35.785254356],[139.706844306,35.785285916999996],[139.707042044,35.785320404],[139.707248228,35.78536278299999],[139.707518333,35.785412306],[139.70763025,35.785431222],[139.707981556,35.785490639],[139.708108917,35.785512167],[139.708333333,35.785557111],[139.708387999,35.785568633],[139.708418161,35.78557485999999],[139.708487902,35.785590491],[139.70852097400004,35.785597339],[139.70857114,35.785609065],[139.708896444,35.785677833],[139.709137776,35.785722467],[139.709311765,35.785755227],[139.709422032,35.785774242],[139.709551114,35.78579852],[139.710744419,35.78601586399999],[139.710786907,35.786023656],[139.710881028,35.786040917],[139.710990353,35.786061233999995],[139.71219271,35.78628256900001],[139.712324194,35.786308222],[139.712448197,35.786330886],[139.713151761,35.786461254],[139.713607986,35.786542225],[139.713698118,35.78655453],[139.713949778,35.786572896],[139.714113727,35.78657565900001],[139.714438234,35.78656713600001],[139.715168669,35.786532471],[139.715216544,35.786530506000005],[139.715711312,35.786504251],[139.71645677,35.786469788],[139.716549784,35.786465243],[139.716645426,35.786449204],[139.716666667,35.786444476999996],[139.716770667,35.78642133299999],[139.717044414,35.78634851899999],[139.717178056,35.786312972],[139.717237717,35.786291271],[139.717292833,35.786267333],[139.717382338,35.78622177999999],[139.717443726,35.786183137],[139.71756269400004,35.786099722],[139.717628703,35.786044509999996],[139.717681401,35.785997432],[139.717700833,35.785979761],[139.717725608,35.785956389000006],[139.717761151,35.78592154700001],[139.717833329,35.78584696],[139.717892,35.785781],[139.718004224,35.785656151],[139.718069333,35.78558180600001],[139.71813625,35.785508833],[139.718204083,35.785431194],[139.718289944,35.785331944000006],[139.718345917,35.78527105599999],[139.718398639,35.785213694],[139.718462861,35.78514055600001],[139.718510111,35.785091583],[139.718594444,35.785003306],[139.718700891,35.78488931099999],[139.71873747,35.784854337],[139.718765621,35.784824303],[139.718803448,35.784783824],[139.718822079,35.78476515599999],[139.718924661,35.78465056100001],[139.719170796,35.78438997300001],[139.719289056,35.784274722000006],[139.719434278,35.78414600000001],[139.719514234,35.784089164],[139.719563014,35.784060186],[139.719630813,35.78401911499999],[139.71971475,35.783975417],[139.719772083,35.783949167],[139.719905111,35.783888639],[139.719942901,35.783874968],[139.719984583,35.783859889],[139.720138972,35.78381613900001],[139.720337667,35.783772389],[139.72058869400004,35.783746556]],[[139.668918789,35.76834020100001],[139.668966342,35.768351788],[139.6690155,35.768352694],[139.669044779,35.768341799000005],[139.669066625,35.768326886],[139.669092668,35.768293799000006],[139.669108754,35.76825946400001]],[[139.676566482,35.776180012],[139.676731974,35.775927708]],[[139.679997855,35.777249941],[139.679975937,35.777203927],[139.67991459100003,35.777122046],[139.679881803,35.777097912],[139.679845841,35.777073778],[139.679779805,35.777049895999994],[139.67914521,35.77689998400001],[139.678010216,35.776605710000005],[139.677745805,35.77651740300001],[139.677507056,35.776437666999996],[139.67733270100004,35.77634768099999],[139.677287852,35.776324534],[139.677091175,35.776214804000006],[139.676731974,35.775927708],[139.676584357,35.77580523499999],[139.676034623,35.775333389],[139.6757419,35.775099319],[139.675697083,35.775066019],[139.675585181,35.775000000000006],[139.67556557,35.77498843],[139.675334537,35.774943416000006]],[[139.680247704,35.777318776],[139.680177679,35.777388302],[139.67989959,35.777350963],[139.679754225,35.777335512],[139.679039268,35.77715777200001],[139.677859605,35.776843605],[139.677522943,35.776722901000014],[139.677348147,35.77664625099999],[139.67717799,35.776571981000004],[139.677022224,35.77649456000001],[139.676894076,35.776418039000006],[139.676566482,35.776180012],[139.676321684,35.775986369],[139.675502368,35.775290418000004],[139.675465786,35.77525450800001],[139.675388668,35.775149574],[139.67534939500004,35.775],[139.675334537,35.774943416000006]],[[139.67717799,35.776571981000004],[139.677507056,35.776437666999996]],[[139.720516863,35.783664038999994],[139.72058869400004,35.783746556]],[[139.686149707,35.57294675400001],[139.686104845,35.572901728],[139.68632032700003,35.57274752],[139.686680498,35.57249871],[139.686853797,35.572372643],[139.687119907,35.57219460599999],[139.68772455,35.571807881000005],[139.688179703,35.571530841],[139.688510337,35.571311921],[139.689307968,35.570746922999994],[139.689469587,35.57062255200001],[139.690138589,35.57013873799999],[139.690188522,35.570177884],[139.690235252,35.57021669400001],[139.689672734,35.570698083],[139.689019145,35.57118976100001],[139.688288437,35.571678098],[139.687340894,35.572287627],[139.687153797,35.572404564],[139.686437128,35.572852489],[139.686192871,35.572988347],[139.686149707,35.57294675400001]],[[139.677735667,35.588966083],[139.677873667,35.588742167],[139.678205028,35.588204499999996],[139.678787278,35.587259667000005],[139.678823685,35.58720430500001],[139.678980688,35.586958444000004],[139.67907008700004,35.58679554100001],[139.679279407,35.58659131300001],[139.679349024,35.586616247000016],[139.67942359,35.586642618],[139.679344367,35.586903034],[139.679172863,35.58717012],[139.678990333,35.587449028],[139.67843680600004,35.58833569400001],[139.677977333,35.58906322199999],[139.677227028,35.590160056],[139.676897071,35.59067943400001],[139.676541502,35.591064835],[139.676463111,35.59102933300001],[139.676388298,35.590997246],[139.676482326,35.590760739000004],[139.676764194,35.590345166999995],[139.676964833,35.590057722],[139.677016718,35.589977663000006],[139.677735667,35.588966083]],[[139.614002822,35.72037195899999],[139.614029123,35.720724481],[139.614068959,35.720921019],[139.61408688600002,35.721091568],[139.614100709,35.72174603],[139.614100056,35.721785949],[139.614182103,35.721802914],[139.614274757,35.721768037],[139.614264456,35.72146808600001],[139.614250315,35.721204797],[139.614249041,35.721086289000006],[139.614252867,35.72094048500001],[139.614270713,35.720685798],[139.61426091,35.720368345],[139.614236142,35.719636208999994],[139.614226197,35.719349673],[139.614182198,35.71931066700001],[139.614152968,35.71929239200001],[139.614134282,35.71928367699999],[139.614097569,35.719275694],[139.614050251,35.71927702400001],[139.614001415,35.719302876],[139.61395737000004,35.71934720099999],[139.613972134,35.71967858800001],[139.614002822,35.72037195899999]]]}}]}
