{"type":"FeatureCollection","features":[{"type":"Feature","properties":{"id":"tokyo-prefectural-317","name":"東京都道317号環状六号線","aliases":["都道317号","東京都道317号","環状六号線","環六通り","環六","環6"],"type":"road","roadClass":"prefectural","routeNumber":"317","jurisdiction":"Tokyo","geometrySource":"osm","source":["OpenStreetMap"],"license":"ODbL 1.0","confidence":"high","note":"OSM reference geometry used to identify and validate the canonical road.","provenance":{"provider":"cache","path":"data/cache/osm/references/tokyo-prefectural-317-osm.geojson"}},"geometry":{"type":"MultiLineString","coordinates":[[[139.7409451,35.6169065],[139.7410931,35.6169103]],[[139.7070849,35.6347401],[139.7076269,35.6340306],[139.7081188,35.6333036],[139.7083964,35.6328925],[139.7084248,35.6328505],[139.7084718,35.6327843]],[[139.7462991,35.6204721],[139.7461849,35.6204209],[139.7460841,35.6203524],[139.7458543,35.6201122],[139.7456634,35.6199073],[139.7451331,35.6193216],[139.7449872,35.6191521],[139.7449172,35.6190708]],[[139.7462576,35.6205491],[139.7463606,35.6205975],[139.7464872,35.6206443],[139.7466074,35.6206858],[139.7468811,35.6207677]],[[139.6892569,35.6598865],[139.6902244,35.6587274],[139.6906277,35.6582514]],[[139.7509161,35.6218097],[139.750722,35.6218068]],[[139.7344841,35.6179825],[139.734399,35.6180205],[139.7343024,35.6180503],[139.7342401,35.6180617],[139.734181,35.6180705],[139.7341248,35.6180734],[139.7340341,35.6180702]],[[139.7325545,35.6178509],[139.7322037,35.6179372],[139.7321362,35.6179549],[139.7320744,35.6179701],[139.7311453,35.6182191],[139.7310808,35.6182365],[139.7309992,35.6182588],[139.7297845,35.6185841],[139.7297304,35.618603],[139.7296689,35.6186371],[139.7296387,35.6186567],[139.7295758,35.618736],[139.7295162,35.6188135],[139.7293367,35.619082],[139.7292732,35.6191741],[139.72924,35.6192271],[139.7291297,35.6194189],[139.7289756,35.6196665],[139.7288989,35.6197791]],[[139.7285234,35.6203074],[139.728282,35.6206213],[139.7282036,35.6207031],[139.7281292,35.6207642],[139.7280562,35.6208135],[139.7279831,35.6208525],[139.7279039,35.6208847],[139.7278254,35.6209083],[139.7277417,35.6209287],[139.7276574,35.6209387],[139.7275675,35.6209431],[139.7274703,35.6209377],[139.7273729,35.6209219],[139.7272685,35.6209026],[139.7271326,35.6208783],[139.7270269,35.620864],[139.7269223,35.6208544],[139.7268229,35.6208473],[139.7267226,35.6208462],[139.7266162,35.6208479],[139.7265109,35.6208529],[139.726403,35.6208633],[139.7262951,35.6208781],[139.7261886,35.6208973],[139.7260812,35.6209196],[139.7259852,35.6209446]],[[139.7244117,35.6258707],[139.7244312,35.6258778],[139.7244645,35.6258875],[139.7244939,35.6258934],[139.7245279,35.6258962]],[[139.7245279,35.6258962],[139.7246931,35.6258776]],[[139.6891239,35.6513461],[139.6887131,35.6517379],[139.6884587,35.6519834]],[[139.6909471,35.6569855],[139.6909694,35.657076],[139.6909843,35.6571698],[139.6909921,35.6572598],[139.6909904,35.6573552],[139.6909837676424,35.65742845070501]],[[139.6909837676424,35.65742845070501],[139.6909814,35.6574546],[139.6909646,35.6575453],[139.6909376,35.6576442],[139.6908991,35.6577417],[139.6908579,35.6578272],[139.6908134,35.6579033],[139.6907643,35.6579761],[139.6906989,35.6580619],[139.6906343,35.6581385],[139.6905631,35.6582212]],[[139.6905631,35.6582212],[139.689276,35.6597533]],[[139.6906277,35.6582514],[139.690762,35.658092],[139.6908289,35.6580042],[139.6908818,35.6579239],[139.6909262,35.6578453],[139.6909679,35.65776],[139.6910048,35.6576603],[139.6910341,35.6575513],[139.6910516,35.6574605],[139.6910618,35.6573578],[139.69106209617829,35.657328685675836]],[[139.69106209617829,35.657328685675836],[139.6910628,35.6572595],[139.6910571,35.6571649],[139.6910435,35.6570737],[139.6910189,35.6569764]],[[139.6910189,35.6569764],[139.6909836,35.6568742],[139.6909409,35.6567764],[139.6906774,35.6562207],[139.6906254,35.6561078],[139.6903355,35.6554715],[139.6903053,35.6554071],[139.6902769,35.655339]],[[139.6879423,35.6693006],[139.6879499,35.6690059],[139.6879683,35.6684871],[139.6879735,35.6683867]],[[139.6878029,35.6687645],[139.6877593,35.6697645]],[[139.6876463,35.6736238],[139.6876711,35.6741819],[139.6876889,35.6747057],[139.6877197,35.6753563],[139.6877274,35.6756025],[139.6877406,35.676093],[139.687766,35.6768057],[139.6878028,35.6771338],[139.6878185,35.6772136],[139.6878909,35.6775053],[139.6879408,35.6776744],[139.6880647,35.6779781],[139.6882338,35.6784271],[139.6883544,35.6787758],[139.6884294,35.6790132],[139.6884695,35.6791992],[139.6885055,35.6794086],[139.6885614,35.6797835],[139.6885772,35.6799093],[139.6886839,35.6805462],[139.688727,35.6808916],[139.6887388,35.681162],[139.6887382,35.6812893],[139.688711,35.681429],[139.6886867,35.6815649],[139.6886554,35.6816905],[139.6886069,35.6818013],[139.6885659,35.681879],[139.688533,35.6819429],[139.6884699,35.6820262],[139.6883786,35.6821374],[139.6883567,35.6821582],[139.6882515,35.6822733]],[[139.6879305,35.6696864],[139.6879423,35.6693006]],[[139.6911903,35.6572971],[139.6911685,35.6572438],[139.691268,35.6570414],[139.6912661,35.6570172],[139.6912471,35.6569983]],[[139.7383542,35.6169261],[139.7379171,35.6169496],[139.7378233,35.6169493],[139.7377308,35.6169414],[139.7376389,35.6169267],[139.7375559,35.6169069],[139.7374836,35.6168804],[139.7374064,35.6168451],[139.7373494,35.616808],[139.7372776,35.6167566],[139.7372198,35.6167027],[139.7371768,35.6166477],[139.7369077,35.616234],[139.7368609,35.6161688],[139.7368248,35.616131],[139.7367798,35.6161004],[139.7367268,35.6160774],[139.736659,35.616062],[139.7365823,35.6160616],[139.7365003,35.616071],[139.7360719,35.6161558],[139.7359488,35.6161907],[139.7358297,35.6162355],[139.7357334,35.6162886],[139.7356387,35.6163516],[139.7355637,35.6164145],[139.7354981,35.616484],[139.7354379,35.6165595],[139.7353889,35.6166311],[139.7347202,35.617745],[139.7346941,35.6177836],[139.734656,35.6178333],[139.7345753,35.6179177],[139.7344841,35.6179825]],[[139.6902493,35.6552762],[139.6902166,35.655203],[139.6897862,35.6542893],[139.6897551,35.6542203],[139.689722,35.6541443]],[[139.6895948,35.6523154],[139.6895341,35.6528464],[139.6895287,35.6529415],[139.6895216,35.6530683]],[[139.7381679,35.6236849],[139.7381182,35.6235671],[139.73808480574922,35.62351479139038]],[[139.73808480574922,35.62351479139038],[139.7380444,35.6234515],[139.7379707,35.6233425],[139.73789826180933,35.623254964748575]],[[139.73789826180933,35.623254964748575],[139.7378661,35.6232161]],[[139.7378661,35.6232161],[139.7377807,35.6231419],[139.73769,35.6230781],[139.7375975,35.6230186],[139.7375244,35.6229783],[139.7374459,35.6229408],[139.7372873,35.6228788],[139.737216,35.6228594],[139.7371412,35.62284],[139.7370076,35.6228149]],[[139.7359655,35.6228926],[139.7361068,35.6229273],[139.7364759,35.6229066],[139.7367602,35.6229001],[139.7369552,35.6229058],[139.7370691,35.6229223],[139.7371283,35.6229346],[139.7371905,35.6229507],[139.7372845,35.6229836],[139.7373881,35.6230311],[139.7374963,35.6230951],[139.7375601,35.6231449],[139.737631,35.6232117],[139.7376815,35.6232761]],[[139.7376815,35.6232761],[139.7377599,35.6234188],[139.7377756,35.6234547]],[[139.7377756,35.6234547],[139.7378419,35.6237011],[139.7378883,35.6238139],[139.7379356,35.6239047]],[[139.7376815,35.6232761],[139.7377616,35.6232996],[139.7378049,35.6233067],[139.7378447,35.6232984],[139.7378782,35.6232792],[139.73789826180933,35.623254964748575]],[[139.73789826180933,35.623254964748575],[139.737933,35.623213],[139.7379411,35.623183],[139.7379323,35.6231431]],[[139.7377756,35.6234547],[139.7378104,35.6234935],[139.7378476,35.6235193],[139.7378935,35.6235311],[139.7379421,35.6235368],[139.737982,35.6235372],[139.7380187,35.6235348],[139.7380456,35.62353],[139.7380826,35.6235161],[139.73808480574922,35.62351479139038]],[[139.73808480574922,35.62351479139038],[139.7381153,35.6234967]],[[139.7370076,35.6228149],[139.7369308,35.6228064],[139.7368629,35.6228007],[139.7367192,35.6228002],[139.7365695,35.6228091],[139.7364295,35.6228173],[139.7359655,35.6228926]],[[139.72444,35.6270979],[139.7243894,35.6270186],[139.7243545,35.6269479],[139.7242891,35.6267394],[139.7242541,35.6265941]],[[139.7237843,35.6255018],[139.7238147,35.6255399],[139.7238479,35.6255705],[139.7238816,35.6255955],[139.7244117,35.6258707]],[[139.7235296,35.6257299],[139.7234542,35.6258054],[139.723328,35.6259339]],[[139.7087631,35.7532836],[139.7087392,35.752972],[139.7086931,35.7523697],[139.7086894,35.7522635],[139.7086791,35.7521642],[139.7086719,35.7520116],[139.708668,35.7519279],[139.7086449,35.7514364],[139.7086312,35.7512175],[139.7085989,35.7506999],[139.7085466,35.7496505],[139.7085451,35.7496051],[139.7084886,35.7495333],[139.7084882,35.7494235],[139.7084811,35.7490424],[139.7084703,35.7485477],[139.7084634,35.7483274],[139.7084282,35.747336]],[[139.6819478,35.6916854],[139.681907,35.6914572],[139.6818258,35.6910776],[139.6817864,35.6908623],[139.6817629,35.6906368],[139.6817714,35.6903094],[139.6817938,35.6901219],[139.681837,35.689908],[139.6819101,35.6896572],[139.682007,35.6894275],[139.6821153,35.6892475],[139.6822745,35.6890159],[139.6823717,35.6889014],[139.6824729,35.6887926],[139.6825635,35.688696],[139.6828256,35.6884349],[139.6833684,35.6878796],[139.6836301,35.687629],[139.683906,35.6873605],[139.6839948,35.68727],[139.6844734,35.686811],[139.6847481,35.6865396],[139.6848172,35.6864782],[139.6849467,35.6863367],[139.6855129,35.6856122],[139.6857813,35.6852617],[139.6861833,35.6847411],[139.6863084,35.6845941],[139.6864005,35.6844909]],[[139.682039,35.6921925],[139.6820073,35.6920288]],[[139.6818195,35.6920036],[139.6818519,35.692166]],[[139.682786,35.6969688],[139.6828055,35.6970743],[139.6828162,35.6972075],[139.6828352,35.6973857],[139.6828391,35.6974555],[139.6828737,35.6979685],[139.6829718,35.6990945],[139.6829808,35.6992001],[139.6829849,35.6994411],[139.6830041,35.699751],[139.6830096,35.6999052],[139.6830095,35.7001073],[139.6829979,35.7002196],[139.6829731,35.7004284],[139.6829138,35.7007005],[139.6828315,35.7009298],[139.6827804,35.7010452]],[[139.7233923,35.6247144],[139.723383,35.6247002],[139.7231518,35.6243191],[139.7231198,35.6242664],[139.7230873,35.6242113],[139.7230507,35.6241501],[139.7228528,35.6238392],[139.722833,35.6238122],[139.7226309,35.6235867],[139.7225311,35.6234734],[139.7224484,35.6233808],[139.7223491,35.623303]],[[139.7222718,35.6233417],[139.7223774,35.6234152],[139.7224486,35.623481],[139.7225835,35.6236342],[139.7228296,35.6239259],[139.722975,35.6241845],[139.7230069,35.6242378]],[[139.7222718,35.6233417],[139.7223491,35.623303]],[[139.7223491,35.623303],[139.7224442,35.6232476],[139.7228656,35.6229934],[139.7230413,35.6228902],[139.723414,35.6226609],[139.7234922,35.6226128],[139.7235728,35.622566],[139.7242966,35.6221322],[139.7245133,35.6219902],[139.7245823,35.6219399],[139.7246227,35.6219106],[139.7247044,35.621853],[139.7247895,35.6217838],[139.7249817,35.6216127],[139.7251655,35.6214634]],[[139.6860356,35.7135224],[139.6861455,35.7134786]],[[139.7260127,35.6210131],[139.7261221,35.6209852],[139.7262289,35.6209617],[139.726329,35.6209451],[139.7264325,35.6209302],[139.7265288,35.6209215],[139.7266239,35.6209156],[139.7267118,35.6209145],[139.7268058,35.6209151],[139.7269039,35.6209195],[139.7269965,35.6209282],[139.7270974,35.6209414],[139.7271891,35.6209578],[139.727413,35.6210029],[139.7275026,35.621014],[139.7275881,35.6210163],[139.727682,35.621011],[139.7277706,35.6209971],[139.7278614,35.6209735],[139.7279549,35.6209445],[139.7280396,35.6209109],[139.728115,35.6208718],[139.7281769,35.6208325],[139.7282425,35.6207822],[139.7283035,35.6207192],[139.7285944,35.6203409]],[[139.7339746,35.618134],[139.7340443,35.6181377],[139.7341287,35.6181371],[139.7342116,35.6181332],[139.7343177,35.6181226],[139.7344233,35.6180904]],[[139.7344233,35.6180904],[139.7345072,35.6180519],[139.7345739,35.6180119],[139.7346236,35.6179713],[139.7346822,35.6179175],[139.7347282,35.6178649],[139.7347614,35.6178132],[139.7347867,35.6177739],[139.7354492,35.6166787],[139.7355028,35.6165996],[139.7355643,35.61652],[139.7356245,35.6164549],[139.735697,35.6163953],[139.7357856,35.6163347],[139.735859,35.6162927],[139.7359753,35.6162463],[139.7361023,35.6162124],[139.7363438,35.6161672],[139.7365276,35.6161326],[139.7365905,35.6161233],[139.7366427,35.6161227],[139.7366881,35.6161324],[139.7367336,35.6161501],[139.736769,35.6161759],[139.7367963,35.6162062],[139.7368368,35.616263],[139.7371111,35.6166825],[139.73716,35.6167449],[139.7372222,35.6168047],[139.7372912,35.6168526],[139.7373684,35.6168975],[139.7374528,35.6169378],[139.7375475,35.6169675],[139.7376355,35.6169895],[139.7377239,35.6170037],[139.7378205,35.6170127],[139.7379319,35.6170118],[139.7383581,35.6169862]],[[139.6902287,35.6555015],[139.6902518,35.6556578],[139.6904197,35.6560223],[139.6908041,35.6568166],[139.6908461,35.6569308],[139.6908644,35.6569862],[139.6908801,35.6570406],[139.6908948,35.6571018],[139.6909055,35.657163],[139.6909104,35.6572235],[139.6909112,35.6572829],[139.6909,35.6574884],[139.6909262,35.6575011]],[[139.6968085,35.650807],[139.6969811,35.6506537]],[[139.6913367,35.6570044],[139.6913736,35.6569269],[139.6914765,35.65663]],[[139.7008811,35.6423538],[139.7007786,35.6424791],[139.7006998,35.6425785],[139.7005842,35.6427124],[139.7003838,35.642945],[139.7001915,35.6431711],[139.7000256,35.6433686],[139.6999399,35.64347],[139.6998529,35.6435595],[139.6997523,35.6436596],[139.6996993,35.6437094],[139.6994855,35.6438943],[139.6993047,35.644054],[139.6991017,35.644283]],[[139.7018093,35.6414848],[139.7021893,35.6410333],[139.7026141,35.6405178]],[[139.7017388,35.6414502],[139.7008869,35.642471]],[[139.7008557,35.6431744],[139.7010496,35.643696],[139.701062,35.6437252]],[[139.7012102,35.6437923],[139.7011588,35.6436741]],[[139.7011588,35.6436741],[139.701151,35.6436529],[139.7008547,35.6429134],[139.7008221,35.642886],[139.7007756,35.6428442]],[[139.701062,35.6437252],[139.7011118,35.6438433]],[[139.7011118,35.6438433],[139.7011478,35.643934],[139.7012005,35.6440703],[139.7012478,35.6441779]],[[139.6908869,35.6497085],[139.690141,35.6504137],[139.6900239,35.650524],[139.6899694,35.6505813],[139.6899189,35.6506397],[139.6898727,35.6507011],[139.6898333,35.6507646],[139.6897958,35.6508282],[139.6897638,35.6508939],[139.6897364,35.65096],[139.68971592884205,35.65101602632699]],[[139.68971592884205,35.65101602632699],[139.6897117,35.6510276],[139.68969946583226,35.65107036019795]],[[139.68969946583226,35.65107036019795],[139.6896911,35.6510996],[139.6896751,35.6511733],[139.6896651,35.6512393],[139.6896559,35.6513326],[139.6896467,35.651445],[139.6895948,35.6523154]],[[139.699551,35.6439315],[139.6991017,35.644283]],[[139.6906696,35.6500179],[139.6908269,35.6498691]],[[139.6938849,35.6478601],[139.6940247,35.6477733],[139.6945977,35.6474364],[139.6946806,35.6473877],[139.6947961,35.6473183],[139.6954721,35.6469118],[139.6960956,35.6465315],[139.6962053,35.6464665],[139.6971165,35.6459286],[139.6971414,35.6459136],[139.6973617,35.6457805],[139.6975015,35.6456836],[139.697663,35.6455619],[139.6979444,35.6453345],[139.6985006,35.6448811],[139.6989624,35.6444785],[139.6991511,35.6443281]],[[139.6827045,35.7063592],[139.6828175,35.7066193],[139.6828492,35.7066878],[139.682891,35.706775],[139.6832204,35.7074569],[139.6832469,35.7075191],[139.6834555,35.7079955],[139.6836816,35.7084751],[139.6837032,35.7085225],[139.6838423,35.7088196],[139.6839702,35.709094],[139.684085,35.7093431],[139.6843578,35.7099561],[139.6844448,35.7101496],[139.6845262,35.7103307]],[[139.6827585,35.7059137],[139.6827363,35.7057475],[139.6826602,35.7050747],[139.6825311,35.7040414],[139.6824739,35.7035021],[139.6824387,35.7031827],[139.6824304,35.7031071],[139.6823994,35.7026549],[139.6824078,35.702454],[139.6824584,35.7021797],[139.6825986,35.7017848],[139.6827295,35.7015186],[139.6828663,35.7011911],[139.6829179,35.7010654]],[[139.7285944,35.6203409],[139.7289007,35.6199096],[139.7289696,35.6198145]],[[139.7255662,35.6211033],[139.725397,35.6211935],[139.7253024,35.6212504],[139.7252142,35.6213122],[139.7247363,35.6216745],[139.7246958,35.6217052],[139.7246296,35.6217574],[139.7246136,35.62177],[139.7245366,35.6218287],[139.7244471,35.621896],[139.7243476,35.6219635],[139.7241971,35.6220604],[139.7237093,35.6223481],[139.7235404,35.6224461],[139.7234912,35.6224743],[139.7234112,35.6225218],[139.7231792,35.6226558],[139.7223736,35.6231119],[139.7223191,35.6231403],[139.7222027,35.6232175]],[[139.73815,35.6231581],[139.7381069,35.6231977],[139.7380803,35.6232109],[139.7380458,35.6232141],[139.7380262,35.6232098],[139.7379323,35.6231431]],[[139.7379323,35.6231431],[139.7378603,35.6230927],[139.7378193,35.6230656]],[[139.7478518,35.6210605],[139.7482415,35.6211798],[139.7483831,35.6212225],[139.7486965,35.6213169],[139.7488014,35.6213483],[139.748895,35.6213767],[139.7490056,35.6214103],[139.749619,35.621598],[139.7506279,35.6218938],[139.7506949,35.6219135],[139.7508706,35.6219476]],[[139.7469259,35.620671],[139.7466235,35.6205866],[139.7464584,35.6205353],[139.7462991,35.6204721]],[[139.7468811,35.6207677],[139.7478518,35.6210605]],[[139.7478941,35.6209643],[139.7469259,35.620671]],[[139.4107716,35.4623004],[139.4107924,35.4622784],[139.4120823,35.4616657],[139.4132786,35.4611154],[139.4141181,35.4607121],[139.4141835,35.4606813]],[[139.6860356,35.7135224],[139.6860689,35.7135923],[139.6862831,35.7140418]],[[139.6872179,35.7160035],[139.687301,35.7161894],[139.6873068,35.7161869]],[[139.6873068,35.7161869],[139.6876226,35.7169571],[139.6877938,35.7172807],[139.6879535,35.7175909],[139.6881248,35.7178658],[139.6882121,35.7180069],[139.6885491,35.7183786],[139.6890271,35.7188994],[139.6890526,35.7189272],[139.6891074,35.7189869],[139.6892529,35.7191422],[139.6893456,35.7192399],[139.6896611,35.7195724],[139.6899338,35.7198584],[139.6902949,35.7202319],[139.6904338,35.7203758],[139.6906343,35.7205817],[139.6911561,35.7211315],[139.6913773,35.7213608],[139.6914348,35.7214203],[139.6914742,35.7214612],[139.69148,35.7214672],[139.6915247,35.7215135],[139.6916307,35.7216251],[139.6923973,35.7224072],[139.6925092,35.7225402]],[[139.6863921,35.7140201],[139.6861801,35.7135582],[139.6861455,35.7134786]],[[139.6873841,35.7161613],[139.6873015,35.7159805]],[[139.6873015,35.7159805],[139.6870276,35.7153629],[139.6863921,35.7140201]],[[139.6862831,35.7140418],[139.6868755,35.7152335],[139.6872179,35.7160035]],[[139.7210264,35.6237914],[139.7208938,35.6238498],[139.7207613,35.6239112],[139.7205389,35.6240049],[139.7200631,35.6242368],[139.7197675,35.6243771],[139.7196848,35.6244168],[139.7192252,35.6246231]],[[139.6828863,35.7063702],[139.6827944,35.7061171]],[[139.6826315,35.7061273],[139.6827045,35.7063592]],[[139.6888334,35.652655],[139.6888154,35.6527024],[139.6888036,35.6527353]],[[139.7013663,35.6449606],[139.701397,35.6454039]],[[139.701507,35.6452983],[139.7014916,35.6450455]],[[139.7012992,35.6440066],[139.7012298,35.6438375],[139.7012102,35.6437923]],[[139.701397,35.6454039],[139.701417,35.6456126],[139.7014399,35.6458615],[139.7014666,35.6459669],[139.7015029,35.6460721],[139.7015699,35.6461749],[139.7016489,35.6462749],[139.7017303,35.6463573],[139.7018149,35.6464329],[139.7019365,35.6465074],[139.7020186,35.6465471],[139.7021042,35.6465834],[139.7021922,35.6466132]],[[139.7012478,35.6441779],[139.7012959,35.6443075],[139.7013141,35.644385],[139.7013189,35.6444054],[139.7013397,35.6445636],[139.7013663,35.6449606]],[[139.7014916,35.6450455],[139.7014714,35.6447353],[139.7014594,35.6445515],[139.7014328,35.6443896],[139.7013826,35.6442259],[139.7013381,35.6441133],[139.7012992,35.6440066]],[[139.6996149,35.6439736],[139.6997084,35.6438962],[139.6997992,35.6438167],[139.6998879,35.643735],[139.699974,35.6436522],[139.7000561,35.6435694],[139.7001354,35.6434844],[139.7003036,35.6432905],[139.7005774,35.6429608]],[[139.6906052,35.6498767],[139.6904204,35.6500524]],[[139.7234657,35.6250057],[139.7234892,35.6250429],[139.7235834,35.6251889],[139.7236599,35.625307],[139.7237843,35.6255018]],[[139.7081613,35.7466585],[139.7081844,35.7473441]],[[139.7081844,35.7473441],[139.7082075,35.7480012],[139.7082207,35.7483508],[139.7082596,35.7494413],[139.7082623,35.7495168],[139.7082677,35.7496142],[139.7083565,35.7512249],[139.7083625,35.7513342],[139.7083878,35.7517926],[139.7083967,35.752036],[139.7084063,35.7521918],[139.7084428,35.7527466]],[[139.7084282,35.747336],[139.7084071,35.7466697]],[[139.7084071,35.7466697],[139.7083902,35.7462097]],[[139.7081432,35.7461906],[139.7081452,35.74625]],[[139.7081452,35.74625],[139.7081613,35.7466585]],[[139.7083902,35.7462097],[139.7083881,35.7461481]],[[139.7083881,35.7461481],[139.7083699,35.7456947],[139.7083572,35.7453401],[139.7083381,35.7448707],[139.7083112,35.74403],[139.708302,35.7437427],[139.7082366,35.7433181],[139.7082267,35.7432597]],[[139.7049522,35.7392009],[139.7051438,35.739435],[139.7052044,35.7395059],[139.7052653,35.7395758],[139.7054921,35.7398518],[139.7058851,35.7403074],[139.7061541,35.7406391],[139.7064287,35.7409824],[139.7064871,35.7410602],[139.7066007,35.7411939],[139.7066582,35.7412645]],[[139.707928,35.7429938],[139.7079818,35.7432873],[139.7080318,35.7435241],[139.7080763,35.7440043]],[[139.7082267,35.7432597],[139.7082089,35.7431583],[139.7081476,35.7429164],[139.7081395,35.7428876],[139.708004,35.7425785],[139.7079843,35.7425457],[139.7079001,35.742376],[139.7078005,35.7422117],[139.707376,35.7416792],[139.7070134,35.7412809],[139.7069472,35.7412082],[139.7068602,35.7410978],[139.706801,35.7410267],[139.7066784,35.7408794],[139.7060686,35.7401462],[139.7058981,35.7399411],[139.7057196,35.7397455],[139.7055493,35.7395419],[139.7054788,35.7394578],[139.7053962,35.7394116]],[[139.7069521,35.741345],[139.7067072,35.7410653]],[[139.7053962,35.7394116],[139.7051673,35.7391432],[139.7049016,35.7388767],[139.7045782,35.7386099],[139.704377,35.7384269],[139.7042841,35.7383421]],[[139.7082267,35.7432597],[139.7081204,35.7430185],[139.7079945,35.7427472],[139.7077743,35.7423826],[139.7075185,35.7420074],[139.707214,35.7416615],[139.7069521,35.741345]],[[139.7049522,35.7392009],[139.7051796,35.7394145],[139.7052519,35.7394826],[139.7053198,35.7395466],[139.7065959,35.7411231]],[[139.7065959,35.7411231],[139.7068796,35.7414636]],[[139.6960063,35.7270378],[139.696248,35.7273581],[139.6966477,35.7279465],[139.6967137,35.7280437],[139.6968411,35.7282518],[139.6968951,35.72834],[139.6972176,35.7288736],[139.6974229,35.7293043],[139.6976266,35.729704],[139.6978738,35.7302032],[139.6981189,35.7307119],[139.6982643,35.7310048],[139.6984452,35.7313621]],[[139.6948841,35.7252765],[139.6949894,35.7254396],[139.6951548,35.7256955],[139.6954059,35.7261188],[139.6957466,35.7266673],[139.6960063,35.7270378]],[[139.6949384,35.7250107],[139.6948311,35.7248455],[139.694745,35.7247166],[139.6945864,35.724479],[139.6944047,35.7242594],[139.6942713,35.7241286],[139.6941998,35.724058],[139.6939855,35.7238519],[139.6934167,35.7232731],[139.6930951,35.7229475],[139.6928197,35.7226612],[139.6928138,35.7226552],[139.6926791,35.7225193]],[[139.6961697,35.7269728],[139.696048,35.7267922],[139.6953924,35.725729],[139.6953558,35.7256638],[139.6950795,35.7252316],[139.6949384,35.7250107]],[[139.689784,35.6506889],[139.689694,35.6508019],[139.6896373,35.6508733],[139.6895924,35.6509182],[139.6895538,35.6509518],[139.6894893,35.6509964]],[[139.6894893,35.6509964],[139.6894411,35.6510268],[139.6893763,35.6510674],[139.6893384,35.6510996],[139.6891239,35.6513461]],[[139.6883631,35.6823476],[139.6884709,35.6822357],[139.6885734,35.6821257],[139.688669,35.6820059],[139.6887471,35.6818856],[139.6888007,35.6817766],[139.6888502,35.6816496],[139.6888858,35.6815285],[139.6889051,35.6814125],[139.6889135,35.6812946],[139.6888988,35.6811082],[139.6888782,35.6808365],[139.6888153,35.6803612],[139.6887896,35.6801512],[139.6887268,35.6797693],[139.688659,35.6791662],[139.6886232,35.6789833],[139.6885139,35.6786381],[139.6882513,35.6779407],[139.6881437,35.677644],[139.6880872,35.6774857],[139.6880387,35.6773089],[139.6879997,35.6771154],[139.6879945,35.6770785],[139.6879683,35.6767984],[139.6879558,35.6764463],[139.6879422,35.6760349],[139.6878997,35.6752399],[139.6878743,35.6746328],[139.6878628,35.6741669],[139.6878465,35.6737701],[139.6878397,35.673612]],[[139.6992714,35.7331187],[139.6993105,35.7332055]],[[139.6878757,35.6667517],[139.6878348,35.6676967],[139.6878327,35.6677681]],[[139.7233108,35.6247593],[139.7234657,35.6250057]],[[139.6882512,35.6522309],[139.6881399,35.6524224]],[[139.6881865,35.6825536],[139.6883631,35.6823476]],[[139.6882515,35.6822733],[139.6880448,35.6824731]],[[139.7383946,35.6246898],[139.7383724,35.6245186],[139.7383149,35.6242693],[139.7382264,35.6238959],[139.7381679,35.6236849]],[[139.7018097,35.6474583],[139.7018809,35.6474128],[139.7019428,35.647363],[139.7019912,35.6473047],[139.7020921,35.6471642],[139.7020972,35.6471571],[139.7023413,35.6468153]],[[139.6957371,35.6517627],[139.6957783,35.6517238],[139.6966322,35.6509656],[139.6966759,35.6509268],[139.6967777,35.6508364],[139.6968085,35.650807]],[[139.6955274,35.6519463],[139.6957001,35.6517957],[139.6957371,35.6517627]],[[139.7449172,35.6190708],[139.7448321,35.6189764],[139.7444313,35.6185318],[139.744133,35.6182071],[139.7441002,35.6181711],[139.7440648,35.6181322],[139.7440028,35.6180578],[139.7439406,35.6180028],[139.7437685,35.6178615],[139.7435686,35.6177278],[139.7434381,35.617641],[139.7429975,35.6173764],[139.7429587,35.6173507],[139.74259,35.6171293],[139.742298,35.6170059],[139.7420905,35.6169312],[139.7418869,35.6168844],[139.7416406,35.616856],[139.7416081,35.6168539],[139.7414941,35.6168466]],[[139.6995205,35.7331702],[139.6994785,35.7330741]],[[139.6879735,35.6683867],[139.6879894,35.6679226],[139.6879915,35.6678519],[139.6879949,35.6677589],[139.687997,35.6676836],[139.6880078,35.6673267],[139.6880217,35.666733],[139.6880254,35.6663686],[139.6880043,35.6659819],[139.6879885,35.6656285],[139.6879594,35.6650301],[139.6879489,35.6649351],[139.6879403,35.6647227],[139.6879224,35.6644382],[139.6878991,35.6641655],[139.6878625,35.6637103],[139.6878201,35.6631366],[139.68781,35.6630013],[139.6877919,35.6628595],[139.687737,35.6625281],[139.6877154,35.6623747],[139.6877115,35.6623249]],[[139.6878327,35.6677681],[139.6878266,35.6678605]],[[139.6987478,35.7316023],[139.6985559,35.7312326],[139.698413,35.730946],[139.6982564,35.7306228],[139.6980416,35.7301864],[139.6978134,35.7297116],[139.6975811,35.7292486],[139.6973917,35.7289007],[139.6973805,35.7288786],[139.6973048,35.7287232],[139.6972007,35.7285439],[139.6970052,35.7282248],[139.6969012,35.7280551],[139.6968178,35.7279357],[139.6966434,35.7276857],[139.6966256,35.7276586],[139.6961697,35.7269728]],[[139.6993105,35.7332055],[139.6993658,35.7333169],[139.699478,35.7335429],[139.6995972,35.7337835],[139.69976,35.7341201]],[[139.6984452,35.7313621],[139.698497,35.7314672],[139.6987077,35.7318939],[139.6991115,35.7327635],[139.6992207,35.7330061],[139.6992714,35.7331187]],[[139.6994785,35.7330741],[139.6994265,35.7329688],[139.6993254,35.7327642],[139.6988574,35.7318187],[139.6987478,35.7316023]],[[139.7070849,35.6347401],[139.7075755,35.6339639],[139.7083271,35.6328387]],[[139.6914646,35.6492216],[139.6913431,35.6493131]],[[139.6891239,35.6513461],[139.6893742,35.6511507],[139.6894243,35.6511289],[139.6894838,35.6511032],[139.6895665,35.6510788],[139.6896155,35.6510725],[139.68969946583226,35.65107036019795]],[[139.68969946583226,35.65107036019795],[139.6897136,35.65107],[139.6898053,35.6510729]],[[139.7026141,35.6405178],[139.7030598,35.6399809],[139.703374,35.6395951],[139.7035023,35.6394399],[139.7037008,35.6391936],[139.7039452,35.6388809],[139.7043351,35.6383693],[139.7046225,35.6380025],[139.7046679,35.6379445],[139.7050504,35.6374563],[139.7051357,35.637349]],[[139.7096999,35.6306975],[139.709612,35.6308168],[139.7095112,35.63096]],[[139.7414771,35.6169301],[139.7416177,35.616938],[139.741875,35.6169687],[139.7420679,35.61701],[139.7422524,35.6170746],[139.7425341,35.6171904],[139.7428485,35.6173771],[139.7429444,35.6174333],[139.7434231,35.6177221],[139.7435248,35.6177892],[139.7436949,35.6179028],[139.7438328,35.6180212],[139.7438875,35.6180682],[139.743953,35.6181405],[139.7440072,35.6182034],[139.7443331,35.6185625],[139.7447545,35.6190269],[139.7448361,35.61912]],[[139.702527,35.6404832],[139.7021141,35.6409944],[139.7017388,35.6414502]],[[139.709788,35.6307424],[139.7104226,35.6299049],[139.7104492,35.6298678],[139.7106457,35.6296052],[139.7107832,35.6294353],[139.7109031,35.629298],[139.7109392,35.6292653],[139.7110535,35.6291542],[139.711152,35.6290675],[139.7111934,35.6290311],[139.7113037,35.628945],[139.7114824,35.6288257],[139.7115501,35.6287852],[139.7116744,35.6287108],[139.7118894,35.6285889],[139.7125794,35.6282315],[139.7130942,35.6279577],[139.7136921,35.6276446],[139.7138453,35.627562],[139.7140083,35.6274705]],[[139.7069605,35.6347498],[139.7069089,35.6348274],[139.7068707,35.6348847],[139.7065549,35.6353592],[139.706157,35.6359241],[139.7060925,35.6360156],[139.7059677,35.636184],[139.7057807,35.6364215],[139.705587,35.6366568],[139.7051974,35.6371203],[139.7051326,35.6372],[139.7050827,35.6372627],[139.7050513,35.6372994]],[[139.6898053,35.6510729],[139.6898446,35.6509611],[139.6898662,35.6509172],[139.6898988,35.6508535],[139.6899325,35.6507944],[139.6899735,35.6507332],[139.6900225,35.6506704],[139.6900726,35.6506122],[139.6901187,35.6505627],[139.6901789,35.6505016],[139.6902332,35.6504495],[139.6906267,35.6500583],[139.6906696,35.6500179]],[[139.7243022,35.6264674],[139.724436,35.62628]],[[139.7239536,35.6265174],[139.7240306,35.6265561],[139.724068,35.6265728]],[[139.7238036,35.6267232],[139.723773,35.6267729],[139.7237605,35.6268153],[139.7237583,35.626843],[139.7237625,35.6268708],[139.7237713,35.6268913],[139.7237827,35.6269076]],[[139.7029315,35.7371391],[139.7028842,35.7370957]],[[139.7066582,35.7412645],[139.7067282,35.7413515],[139.7068027,35.7414411],[139.7071102,35.741811],[139.7073395,35.7420868],[139.7075036,35.7422842],[139.7077011,35.7425814],[139.7077157,35.7426034],[139.7077805,35.7427008],[139.707928,35.7429938]],[[139.7256392,35.6257481],[139.7257573,35.6257371],[139.7266007,35.6256647],[139.7267169,35.6256541],[139.7268336,35.6256441],[139.7272192,35.625611],[139.7276473,35.625574],[139.727766,35.6255637],[139.7288305,35.6254851],[139.7289312,35.625477],[139.7289806,35.6254633],[139.7293323,35.6253616],[139.7294758,35.6253204],[139.7295218,35.6253084],[139.7298384,35.6252258],[139.7300621,35.6251674],[139.730217,35.6251249],[139.7309477,35.6249239],[139.7313258,35.6248213],[139.7314501,35.6247758],[139.7315001,35.6247573],[139.7315949,35.6247241],[139.7317058,35.6246731],[139.7317904,35.6246243],[139.7318607,35.6245761],[139.7319304,35.6245157],[139.7320441,35.6244034],[139.7325297,35.6239236],[139.7326524,35.6238142],[139.7327312,35.6237621],[139.7328057,35.623724],[139.7329649,35.6236501],[139.7330494,35.6236198],[139.7337649,35.6234218],[139.734657,35.6231807],[139.7350292,35.6230945],[139.7351663,35.6230622],[139.7353049,35.6230295],[139.735344,35.6230192],[139.7354734,35.6229904],[139.7357458,35.6229316],[139.735886,35.6229049],[139.7359655,35.6228926]],[[139.7239275,35.6265535],[139.7239031,35.6265872],[139.7238036,35.6267232]],[[139.6926791,35.7225193],[139.6925497,35.7223855],[139.6922654,35.72208],[139.6920793,35.7218757],[139.6919155,35.7217002],[139.6918747,35.7216555],[139.6916148,35.7213809],[139.6915455,35.7213083],[139.6915129,35.7212749],[139.6914645,35.7212254],[139.6909285,35.720662],[139.6907462,35.7204735],[139.6904198,35.7201345],[139.6899931,35.7196914],[139.689785,35.7194747],[139.6894745,35.7191527],[139.6893821,35.7190569],[139.6892268,35.7189057],[139.6891455,35.7188217],[139.6890386,35.7187113],[139.6886702,35.7183365]],[[139.6925092,35.7225402],[139.6926299,35.7226744],[139.6935624,35.7236233],[139.6941314,35.7242299],[139.6943252,35.7244574],[139.6945469,35.7247663],[139.6946305,35.7248875],[139.6948396,35.7252047],[139.6948841,35.7252765]],[[139.6827804,35.7010452],[139.6827277,35.7011681],[139.6825825,35.7015242],[139.6824642,35.7017669],[139.6823811,35.7019627],[139.6823249,35.7021383],[139.6822895,35.7022841],[139.6822608,35.7024652],[139.6822415,35.7026409],[139.6822468,35.7031882],[139.6822472,35.7032351],[139.6822849,35.7035623],[139.6823345,35.7039322],[139.6823651,35.7041603],[139.6824147,35.7045305],[139.6824867,35.7050676],[139.6825321,35.7054568],[139.6825899,35.7059143],[139.6826107,35.706023],[139.6826235,35.7060941]],[[139.6829717,35.6970707],[139.6829547,35.6969462],[139.6829274,35.6967989],[139.6827575,35.6958825],[139.682631,35.6951509],[139.6826035,35.6949803],[139.6825881,35.6948619],[139.6825773,35.6947834],[139.6824836,35.6943265],[139.6823982,35.6939084],[139.6823819,35.69383],[139.6822676,35.6932562],[139.6822587,35.6932113],[139.6822347,35.6931025],[139.6821727,35.6927809],[139.6821548,35.69271],[139.6821292,35.6925858],[139.6820466,35.6922257],[139.682039,35.6921925]],[[139.6895216,35.6530683],[139.6895154,35.6531834],[139.6894962,35.6535404],[139.6894961,35.6536387],[139.6895008,35.6537407],[139.6895119,35.6538429],[139.689531,35.6539429],[139.6895592,35.6540492],[139.6895924,35.654149],[139.6896346,35.6542494],[139.6899184,35.654847],[139.6900696,35.6551581],[139.6901016,35.6552241],[139.6901357,35.655295]],[[139.6862406,35.6843982],[139.6861452,35.684506],[139.6860228,35.6846515],[139.6856053,35.685194],[139.685472,35.6853645],[139.6853293,35.6855504],[139.6848195,35.6862135],[139.6846758,35.6863978],[139.6843483,35.6867364],[139.683903,35.6872009],[139.6837158,35.687372],[139.6833261,35.6877642],[139.6826874,35.6883735]],[[139.6892569,35.6598865],[139.6897231,35.6594286],[139.6902136,35.6588463],[139.6905353,35.6584607],[139.6908789,35.6580435],[139.6909046,35.6580057],[139.6909292,35.657973],[139.6909755,35.6578992]],[[139.689722,35.6541443],[139.6896929,35.6540639],[139.6896692,35.6539863],[139.6896482,35.653913],[139.6896328,35.6538461],[139.6896223,35.6537832],[139.6896146,35.6537051],[139.6896132,35.6536366],[139.6896152,35.653548],[139.6896308,35.6532329],[139.689633,35.6531884],[139.6896378,35.6530928],[139.6896912,35.6521853],[139.6897309,35.6514893],[139.6897435,35.6513749],[139.6897551,35.6512864],[139.6897693,35.6512017],[139.6897747,35.6511816],[139.6897893,35.6511231],[139.6898053,35.6510729]],[[139.6938291,35.6478002],[139.6937048,35.6478761],[139.693112,35.6482303],[139.6921885,35.6487751],[139.6919675,35.6489152]],[[139.689276,35.6597533],[139.6889944,35.6600974],[139.6888949,35.6602179],[139.6888278,35.6602991],[139.6885956,35.6605825],[139.6883887,35.660836],[139.6883116,35.6609286],[139.6878294,35.6615076],[139.6877618,35.6615846],[139.687695,35.6616626],[139.6876412,35.6617325],[139.6875934,35.6618045],[139.6875553,35.6618716],[139.6875271,35.6619391],[139.6875036,35.6620123],[139.6874873,35.6620849]],[[139.6909262,35.6575011],[139.6908782,35.6575933],[139.6908604,35.6576319],[139.6908403,35.6576834],[139.6908188,35.6577305],[139.6908124,35.6577429],[139.6907811,35.6578018],[139.6907434,35.6578687]],[[139.6907434,35.6578687],[139.6906998,35.6579333],[139.6906828,35.6579556],[139.6906491,35.6579999],[139.6905873,35.6580771],[139.6901666,35.6585713],[139.6899311,35.6588577],[139.6895392,35.6593267],[139.689276,35.6597533]],[[139.6909755,35.6578992],[139.6910018,35.6578481],[139.6910248,35.6577993],[139.6910552,35.6577238],[139.6910785,35.6576536],[139.6910951,35.6575942],[139.6911771,35.6573343],[139.6911903,35.6572971]],[[139.7024136,35.6466637],[139.7023531,35.6465668]],[[139.7023531,35.6465668],[139.7022763,35.6465454],[139.7022045,35.6465231],[139.702088,35.6464779],[139.7020026,35.6464328],[139.7018492,35.6463309],[139.7017728,35.6462668],[139.7017068,35.6461986],[139.7016785,35.6461567],[139.701654,35.6461205],[139.701609,35.6460398],[139.7015829,35.6459659],[139.7015653,35.6458892],[139.7015347,35.6456212],[139.701507,35.6452983]],[[139.6877149,35.6621242],[139.6877228,35.6620905],[139.6877481,35.6619966],[139.6877913,35.6618791],[139.6878535,35.6617689],[139.6879504,35.6616399],[139.6881211,35.6614354],[139.688381,35.6611531],[139.688473,35.6610366],[139.6885166,35.6609736],[139.6885545,35.6609115],[139.6886292,35.6607769],[139.6886675,35.6607048],[139.6887007,35.660644],[139.6887353,35.6605853],[139.6887775,35.660518],[139.6888211,35.6604528],[139.688905,35.6603416],[139.6889692,35.6602586],[139.6892569,35.6598865]],[[139.6874873,35.6620849],[139.6874766,35.6621563],[139.6874701,35.6622263],[139.6874699,35.6622832],[139.687476,35.6623372]],[[139.7085142,35.6327235],[139.7085724,35.6326374],[139.7092436,35.6316284],[139.7095022,35.6311419]],[[139.7050513,35.6372994],[139.7049631,35.637409],[139.704613,35.6378586],[139.7045809,35.6378998],[139.7042481,35.6383271],[139.7040077,35.6386376],[139.7038525,35.6388376],[139.7036105,35.6391504],[139.7032817,35.6395549],[139.7029736,35.6399348],[139.7029129,35.6400093],[139.702527,35.6404832]],[[139.7051357,35.637349],[139.7052191,35.6372474],[139.7056821,35.6366933],[139.7058738,35.6364602],[139.70606,35.6362205],[139.7061933,35.636043],[139.7062482,35.6359647],[139.7066491,35.6353932],[139.7069188,35.634989],[139.7069625,35.6349236],[139.7070849,35.6347401]],[[139.7082498,35.6326759],[139.7082012,35.6327502],[139.7079043,35.633188],[139.7074256,35.6339023],[139.7073324,35.634054],[139.7070382,35.6346303]],[[139.7023413,35.6468153],[139.7023697,35.6467715],[139.7023896,35.6467335],[139.7024136,35.6466637]],[[139.7024979,35.6465795],[139.7024136,35.6466637]],[[139.7021922,35.6466132],[139.7022252,35.6466229],[139.7022456,35.6466288],[139.702309,35.6466444],[139.7024136,35.6466637]],[[139.6932132,35.6540937],[139.6933863,35.6538876]],[[139.7259852,35.6209446],[139.7258583,35.6209821],[139.7257434,35.6210257],[139.7256776,35.6210535],[139.7255662,35.6211033]],[[139.7256284,35.6211659],[139.7257191,35.6211204],[139.7258,35.6210837],[139.725907,35.6210462],[139.7260127,35.6210131]],[[139.6878266,35.6678605],[139.6878255,35.6679366],[139.6878196,35.6681325],[139.6878115,35.6683552],[139.6878034,35.6685738],[139.6878029,35.6687645]],[[139.7122606,35.628244],[139.7118915,35.6284428],[139.7117443,35.6285297],[139.7115299,35.6286636],[139.7114758,35.6286989],[139.7114613,35.6287083],[139.7113317,35.6287924],[139.7111348,35.6289346],[139.7110867,35.6289747],[139.7109539,35.6290854],[139.7108388,35.6291992],[139.7106995,35.6293577],[139.7105323,35.629557],[139.7104494,35.6296703],[139.710349,35.6298075],[139.7103409,35.6298185],[139.7101025,35.6301436],[139.7097929,35.6305701],[139.7096999,35.6306975]],[[139.7414941,35.6168466],[139.741308,35.6168354]],[[139.741308,35.6168354],[139.74128,35.6168338],[139.741102,35.6168287]],[[139.7412917,35.6169168],[139.7414771,35.6169301]],[[139.7410931,35.6169103],[139.741266,35.6169153],[139.7412917,35.6169168]],[[139.7378193,35.6230656],[139.7376409,35.622948],[139.7375622,35.6229078],[139.7374804,35.6228688],[139.7373988,35.6228377],[139.7373127,35.6228077],[139.737232,35.6227829],[139.7371498,35.622763],[139.7370688,35.6227469],[139.7369878,35.6227358],[139.7368442,35.6227275],[139.7366991,35.6227255],[139.7364155,35.6227484],[139.7360993,35.6228251],[139.7359655,35.6228926]],[[139.6847107,35.7103647],[139.6846197,35.7101829],[139.684598,35.71014],[139.6845536,35.7100523],[139.6844294,35.7097912],[139.6841811,35.7092689],[139.6840453,35.7089738],[139.6838448,35.7084944],[139.6838268,35.7084504],[139.6835555,35.7079285],[139.683412,35.7075999],[139.6831386,35.7069292],[139.683048,35.7067326],[139.6830074,35.7066459]],[[139.6873068,35.7161869],[139.6873841,35.7161613]],[[139.7239991,35.6264516],[139.7239536,35.6265174]],[[139.7243674,35.6259287],[139.7243552,35.6259457],[139.724171,35.6262081]],[[139.7240994,35.6263101],[139.7240392,35.6263957]],[[139.7240392,35.6263957],[139.7239991,35.6264516]],[[139.7084718,35.6327843],[139.7085142,35.6327235]],[[139.6908269,35.6498691],[139.6909309,35.6497693],[139.6912881,35.6494653],[139.6915285,35.6492972],[139.6922244,35.648852],[139.6931649,35.6482888],[139.6937602,35.6479347],[139.6938849,35.6478601]],[[139.7082937,35.6326116],[139.7082498,35.6326759]],[[139.6818519,35.692166],[139.6819026,35.6924369],[139.6820101,35.6930144],[139.6820494,35.6932084],[139.6820549,35.6932364],[139.6823126,35.6945493],[139.6823622,35.6948024],[139.6824055,35.6950116],[139.6824107,35.69505],[139.6825078,35.6955166],[139.6825956,35.6959486],[139.6826759,35.6963755],[139.6827581,35.6968176],[139.682786,35.6969688]],[[139.6829179,35.7010654],[139.6829553,35.7009524],[139.6830267,35.7007177],[139.6830869,35.7004263],[139.6831215,35.6999879],[139.6831212,35.6997528],[139.6830882,35.6990718],[139.6830603,35.6983953],[139.6830303,35.6979383],[139.6829911,35.6973773],[139.6829787,35.6971997],[139.6829717,35.6970707]],[[139.6827944,35.7061171],[139.6827832,35.7060815]],[[139.6829133,35.7064279],[139.6828863,35.7063702]],[[139.6827832,35.7060815],[139.6827733,35.706012],[139.6827585,35.7059137]],[[139.6830074,35.7066459],[139.6829722,35.7065746],[139.6829133,35.7064279]],[[139.6991017,35.644283],[139.6989117,35.6444332],[139.6984471,35.6448305],[139.6980441,35.6451606],[139.6978841,35.6452895],[139.6976051,35.6455211],[139.6974688,35.6456233],[139.697355,35.6457025],[139.6972586,35.6457633],[139.6970969,35.6458653],[139.6970678,35.6458837],[139.6960486,35.6464786],[139.6954207,35.6468552],[139.6947446,35.6472544],[139.694623,35.6473262],[139.6945422,35.6473745],[139.6942988,35.6475199]],[[139.6991511,35.6443281],[139.6996149,35.6439736]],[[139.6919675,35.6489152],[139.6916073,35.649088],[139.6914965,35.6491453],[139.6914293,35.6491844],[139.6913499,35.6492298],[139.6912731,35.6492795],[139.6911974,35.6493361],[139.6911244,35.6493971],[139.6909635,35.6495382],[139.6907203,35.649769],[139.6906251,35.6498577],[139.6906052,35.6498767]],[[139.6913431,35.6493131],[139.691221,35.649411],[139.691029,35.6495756],[139.6908869,35.6497085]],[[139.7005774,35.6429608],[139.7009554,35.6425021]],[[139.7008869,35.642471],[139.700505,35.6429229]],[[139.7009554,35.6425021],[139.7018093,35.6414848]],[[139.6969811,35.6506537],[139.6971223,35.6505268],[139.6973239,35.6503382],[139.6982091,35.649544],[139.6983042,35.6494619],[139.698365,35.6494132],[139.6984609,35.6493401],[139.6986946,35.6491648],[139.6989078,35.6490195],[139.6991768,35.6488435],[139.699302,35.6487735],[139.6994298,35.6487079],[139.6995622,35.6486485],[139.6997026,35.6485957],[139.6999477,35.6485146],[139.7000773,35.64847],[139.7001989,35.648421],[139.7003049,35.6483706],[139.7004189,35.6483114],[139.7005366,35.6482419],[139.7005907,35.6482079],[139.7010242,35.647927],[139.7016487,35.6475544],[139.7018097,35.6474583]],[[139.7067072,35.7410653],[139.7055926,35.739657],[139.7055149,35.7395586],[139.7054487,35.7394748],[139.7053962,35.7394116]],[[139.7068796,35.7414636],[139.7075422,35.7422759],[139.7078148,35.7426672],[139.7078868,35.7428159],[139.707928,35.7429938]],[[139.7085075,35.632573],[139.7091305,35.6316601],[139.7095022,35.6311419]],[[139.7084438,35.6325439],[139.7082685,35.6328103]],[[139.7083271,35.6328387],[139.7085075,35.632573]],[[139.7082685,35.6328103],[139.7075068,35.633935],[139.7070382,35.6346303]],[[139.7095112,35.63096],[139.7092694,35.6312243],[139.7089149,35.6317042],[139.7083979,35.6324586],[139.7083443,35.6325367],[139.7082937,35.6326116]],[[139.700505,35.6429229],[139.7002037,35.6432851],[139.7000549,35.6434579],[139.6999779,35.6435415],[139.6998982,35.643623],[139.6998161,35.6437031],[139.69973,35.6437811],[139.6996418,35.6438574],[139.699551,35.6439315]],[[139.6991511,35.6443281],[139.6992661,35.6442615],[139.6995604,35.6440953],[139.6996565,35.644025],[139.699865,35.643853],[139.6999959,35.6437381],[139.700084,35.6436437],[139.7001998,35.6435164],[139.7002982,35.6434],[139.700532,35.6431262],[139.7006924,35.6429442],[139.7007756,35.6428442]],[[139.6888036,35.6527353],[139.6887962,35.6527744],[139.6887966,35.6528242],[139.6888064,35.6528614],[139.6888273,35.652893],[139.6888572,35.652918],[139.688897,35.6529351],[139.6889437,35.652948],[139.6893009,35.6530224],[139.6894041,35.6530439],[139.6895216,35.6530683]],[[139.6914765,35.65663],[139.6913151,35.6568595]],[[139.6912471,35.6569983],[139.6911732,35.6569633],[139.6911395,35.6569486],[139.6911096,35.6569295],[139.6910859,35.6569069],[139.6910677,35.6568786],[139.6909159,35.6565716],[139.6907848,35.6562917],[139.690596,35.6558362],[139.6903975,35.655453],[139.6903413,35.6553999],[139.6902769,35.655339]],[[139.6914765,35.65663],[139.6918144,35.6559699],[139.6918539,35.6558953],[139.6919263,35.6557897],[139.6923901,35.6551621],[139.6926122,35.65486],[139.6926816,35.6547749]],[[139.6912471,35.6569983],[139.6911231,35.6572333],[139.6910798,35.6573034],[139.69106209617829,35.657328685675836]],[[139.69106209617829,35.657328685675836],[139.6910338,35.6573691],[139.6909837676424,35.65742845070501]],[[139.6909837676424,35.65742845070501],[139.690964,35.6574519],[139.6909262,35.6575011]],[[139.6931352,35.6541907],[139.6931006,35.6542367],[139.6928254,35.6545995]],[[139.7024979,35.6465795],[139.7024264,35.6465764],[139.7023531,35.6465668]],[[139.6933863,35.6538876],[139.6934203,35.6538495],[139.6934479,35.6538186],[139.6934912,35.6537796],[139.6939638,35.6533535],[139.6942178,35.6531247],[139.6945838,35.6527929],[139.6949669,35.652453],[139.6950384,35.6523861],[139.6955274,35.6519463]],[[139.6919675,35.6489152],[139.6914646,35.6492216]],[[139.7070382,35.6346303],[139.7069605,35.6347498]],[[139.7095112,35.63096],[139.70906,35.6316296],[139.7084438,35.6325439]],[[139.7095022,35.6311419],[139.7096522,35.6309325],[139.709788,35.6307424]],[[139.7192252,35.6246231],[139.7187757,35.6248248],[139.7185217,35.6249363],[139.7184067,35.6249896]],[[139.7181909,35.6251047],[139.7180564,35.6251741],[139.7175551,35.6254327],[139.7166632,35.6259304],[139.716251,35.6261562],[139.7162133,35.6261768],[139.7161481,35.6262141],[139.7157709,35.6264172],[139.71534,35.626647],[139.7152653,35.6266861],[139.715187,35.6267274],[139.7149993,35.6268218],[139.7148531,35.6268993],[139.7144079,35.6271334],[139.7140265,35.6273364]],[[139.7202416,35.6243112],[139.720821,35.6240514],[139.7209613,35.6239865]],[[139.718497,35.6251034],[139.7186088,35.6250486],[139.7190229,35.6248612],[139.719671,35.6245696],[139.7197907,35.6245165],[139.7198434,35.6244931],[139.7202416,35.6243112]],[[139.7169875,35.6259226],[139.7172085,35.6257985],[139.7176355,35.6255432],[139.7181452,35.6252808],[139.7182771,35.6252154]],[[139.7009,35.6426979],[139.7013772,35.6421141],[139.7018786,35.6415237],[139.7020032,35.6413771],[139.7022766,35.6410353]],[[139.6942988,35.6475199],[139.6939721,35.6477147],[139.6938291,35.6478002]],[[139.7409546,35.6168279],[139.7407569,35.6168312],[139.7402248,35.6168483],[139.7394198,35.6168658],[139.7389761,35.616884],[139.738812,35.6168942],[139.7384411,35.6169205],[139.7383542,35.6169261]],[[139.7383581,35.6169862],[139.7384451,35.6169819],[139.7389631,35.6169474],[139.7394309,35.6169309],[139.7400755,35.6169167],[139.7407594,35.6169066],[139.7409451,35.6169065]],[[139.7340341,35.6180702],[139.7338378,35.6180335],[139.7330473,35.6178857],[139.7329267,35.6178645]],[[139.7325793,35.6179284],[139.7327097,35.6179181],[139.7328362,35.6179245],[139.7338094,35.6181039],[139.7339746,35.618134]],[[139.7230398,35.6262358],[139.7229254,35.6263112]],[[139.7232004,35.6260653],[139.7231682,35.6260996],[139.7231394,35.6261313],[139.7230398,35.6262358]],[[139.687476,35.6623372],[139.6874913,35.6624408],[139.6875201,35.6626014],[139.6875881,35.6629839],[139.6876149,35.6631398],[139.6876377,35.6633077],[139.6876518,35.6635104],[139.6876953,35.6640833],[139.6877643,35.6649377],[139.6877724,35.665034],[139.6877936,35.6652361],[139.6878038,35.6654759],[139.6878289,35.665733],[139.6878491,35.6659819]],[[139.6877115,35.6623249],[139.6877092,35.6622276],[139.6877149,35.6621242]],[[139.6931352,35.6541907],[139.6932132,35.6540937]],[[139.7209613,35.6239865],[139.7210977,35.6239239],[139.7212233,35.6238651],[139.7218317,35.6235657],[139.7220954,35.6234391],[139.7221616,35.6234071],[139.7222718,35.6233417]],[[139.7230069,35.6242378],[139.7230421,35.624294],[139.7230788,35.6243472],[139.7233009,35.6247406],[139.7233108,35.6247593]],[[139.7235547,35.62498],[139.7233923,35.6247144]],[[139.7245112,35.6258106],[139.7244577,35.6258018],[139.7244141,35.6257871],[139.7243772,35.6257702],[139.7239655,35.6255636],[139.7239204,35.6255325],[139.7238864,35.6254971],[139.7238542,35.6254568],[139.7238173,35.6254001],[139.7236632,35.6251552],[139.7235721,35.6250086],[139.7235547,35.62498]],[[139.7246931,35.6258776],[139.7247412,35.625872],[139.7248615,35.6258582],[139.7255391,35.625793],[139.7256392,35.6257481]],[[139.7245112,35.6258106],[139.7244117,35.6258707]],[[139.7245373,35.6259773],[139.7245279,35.6258962]],[[139.7245279,35.6258962],[139.7245112,35.6258106]],[[139.7256392,35.6257481],[139.7255283,35.6257268],[139.7248501,35.6257838],[139.7247294,35.6257939],[139.7245764,35.6258089],[139.7245112,35.6258106]],[[139.7245255,35.6261513],[139.7245826,35.6260275],[139.7246227,35.6259609],[139.72466,35.6259124],[139.7246931,35.6258776]],[[139.7245373,35.6259773],[139.7245248,35.6259609],[139.7245039,35.6259405],[139.7244829,35.6259299],[139.7244685,35.625924],[139.7244553,35.6259199],[139.7244389,35.6259157],[139.7244158,35.6259138],[139.7243937,35.625916],[139.7243823,35.6259194],[139.7243674,35.6259287]],[[139.7245255,35.6261513],[139.7245395,35.6260896],[139.7245442,35.6260438],[139.7245422,35.6260133],[139.7245373,35.6259773]],[[139.7244117,35.6258707],[139.7243674,35.6259287]],[[139.7242541,35.6265941],[139.7242505,35.6265769],[139.7242517,35.626556],[139.7242573,35.6265369],[139.7242703,35.6265139],[139.7243022,35.6264674]],[[139.7237843,35.6255018],[139.7237443,35.6255308],[139.7236897,35.6255741],[139.7235296,35.6257299]],[[139.7222027,35.6232175],[139.722121,35.6232657],[139.7220368,35.6233139],[139.7218576,35.6233997],[139.7211471,35.6237353],[139.7210264,35.6237914]],[[139.6845262,35.7103307],[139.6846005,35.7104781],[139.6851347,35.7116491],[139.685164,35.7117054],[139.685624,35.7126934],[139.685675,35.712802],[139.6857124,35.7128826],[139.6860356,35.7135224]],[[139.6861455,35.7134786],[139.6858492,35.7128157],[139.685807,35.7127282],[139.6855041,35.7120734],[139.6853835,35.7117777],[139.6851496,35.7112351],[139.6847886,35.7105188],[139.6847107,35.7103647]],[[139.6902769,35.655339],[139.6902493,35.6552762]],[[139.6901357,35.655295],[139.690166,35.6553606]],[[139.6902287,35.6555015],[139.6903139,35.6556759],[139.6904004,35.655848],[139.6904531,35.6559463],[139.6905085,35.6560467],[139.6905591,35.6561433],[139.6906057,35.6562356],[139.6908644,35.6567848],[139.6909087,35.6568845],[139.6909471,35.6569855]],[[139.690166,35.6553606],[139.690197,35.655429],[139.6902287,35.6555015]],[[139.7448361,35.61912],[139.7449064,35.6192],[139.7450391,35.6193433],[139.7455846,35.6199524],[139.745778,35.6201777],[139.7459072,35.6203194],[139.7460254,35.6204191],[139.7461326,35.6204906],[139.7462576,35.6205491]],[[139.724436,35.62628],[139.7245255,35.6261513]],[[139.7007756,35.6428442],[139.7009,35.6426979]],[[139.7007756,35.6428442],[139.7007719,35.6429472],[139.7008557,35.6431744]],[[139.7508706,35.6219476],[139.7509932,35.6219618]],[[139.724171,35.6262081],[139.7240994,35.6263101]],[[139.6913151,35.6568595],[139.6912957,35.6568991],[139.6912471,35.6569983]],[[139.6911903,35.6572971],[139.6912601,35.6571574],[139.6913367,35.6570044]],[[139.6826235,35.7060941],[139.6826315,35.7061273]],[[139.6884587,35.6519834],[139.6882907,35.652164],[139.6882512,35.6522309]],[[139.7289696,35.6198145],[139.7290439,35.6196976],[139.7292905,35.6192979],[139.7293146,35.6192575],[139.7293472,35.6192053],[139.7296017,35.6188356],[139.7296257,35.6188023],[139.7296444,35.6187721],[139.7296812,35.6187254],[139.7296987,35.6187139],[139.7297227,35.618698],[139.7297735,35.6186672],[139.7298387,35.61864],[139.7299509,35.6186066],[139.7309124,35.6183528],[139.7310283,35.618322],[139.7311088,35.6183012],[139.7320462,35.6180576],[139.7321054,35.6180423],[139.7322338,35.6180147],[139.7325793,35.6179284]],[[139.7288989,35.6197791],[139.7285234,35.6203074]],[[139.7329267,35.6178645],[139.7327817,35.6178391],[139.7326718,35.6178328],[139.7325545,35.6178509]],[[139.724068,35.6265728],[139.724112,35.6265923],[139.7241479,35.6266041],[139.7241814,35.6266057],[139.7242156,35.6266019],[139.7242541,35.6265941]],[[139.7239536,35.6265174],[139.7239275,35.6265535]],[[139.7251655,35.6214634],[139.7252927,35.6213643],[139.7253808,35.6213006],[139.7254687,35.6212439],[139.7255422,35.6212054],[139.7255853,35.6211857]],[[139.7255853,35.6211857],[139.7255981,35.6211798],[139.7256284,35.6211659]],[[139.750722,35.6218068],[139.7490505,35.6213131],[139.7489408,35.6212798],[139.748844,35.6212505],[139.7487387,35.6212191],[139.7478941,35.6209643]],[[139.7383901,35.6247796],[139.7383946,35.6246898]],[[139.7140265,35.6273364],[139.7138956,35.627406]],[[139.7138956,35.627406],[139.7137516,35.6274807],[139.7134799,35.62763],[139.7128863,35.627928],[139.7122606,35.628244]],[[139.7140083,35.6274705],[139.7141127,35.627413],[139.7148807,35.6270221],[139.7152606,35.6268234],[139.7153429,35.6267784],[139.7154146,35.626742],[139.7158472,35.6265154],[139.7161602,35.6263556],[139.7162316,35.6263154],[139.7167627,35.6260428],[139.7168752,35.6259782],[139.7169875,35.6259226]],[[139.6898053,35.6510729],[139.6897337,35.6510238],[139.68971592884205,35.65101602632699]],[[139.68971592884205,35.65101602632699],[139.6896418,35.6509836],[139.6895887,35.6509774],[139.6895463,35.6509813],[139.6894893,35.6509964]],[[139.7184067,35.6249896],[139.7181909,35.6251047]],[[139.7182771,35.6252154],[139.718497,35.6251034]],[[139.7509932,35.6219618],[139.7510769,35.6219667]],[[139.6886702,35.7183365],[139.6884647,35.7181122],[139.6883911,35.7180264],[139.6883238,35.7179437],[139.6882204,35.7178011],[139.6881499,35.7176888],[139.6880173,35.7174317],[139.6877899,35.7169593],[139.6875266,35.7164687],[139.6873923,35.7161789],[139.6873841,35.7161613]],[[139.741102,35.6168287],[139.7409546,35.6168279]],[[139.6878491,35.6659819],[139.6878723,35.6663683],[139.6878757,35.6667517]],[[139.6878397,35.673612],[139.6878316,35.673288],[139.6878115,35.67293],[139.6877926,35.6726458],[139.687788,35.6723742],[139.6877835,35.6723063],[139.6877665,35.6720511],[139.6877633,35.6717807],[139.6877537,35.6715458],[139.6877879,35.6711992],[139.6878287,35.6708741],[139.6879122,35.6701041],[139.6879217,35.6697999],[139.6879229,35.6697762],[139.6879305,35.6696864]],[[139.6877593,35.6697645],[139.6877579,35.669803],[139.6877567,35.6698242],[139.6877399,35.6700993],[139.6876663,35.6707468],[139.6876435,35.670955],[139.6875818,35.6715831],[139.6875852,35.6718748],[139.6876035,35.6722211],[139.6876196,35.6726551],[139.6876234,35.6727374],[139.6876288,35.673007],[139.6876463,35.6736238]],[[139.7042841,35.7383421],[139.7041906,35.7382559],[139.703877,35.7379667],[139.7037359,35.7378383],[139.70367,35.7377814],[139.7029315,35.7371391]],[[139.7028842,35.7370957],[139.7027974,35.7370189],[139.7025206,35.7367799],[139.7022887,35.7365708],[139.7021953,35.7364866],[139.7018914,35.7362049],[139.701625,35.735965],[139.7015403,35.7358964],[139.7010377,35.7354494],[139.7008535,35.7352876],[139.7008319,35.7352666],[139.7008137,35.7352488],[139.7006772,35.7351151],[139.7005982,35.7350352],[139.7004843,35.7348994],[139.7002791,35.7346318],[139.7002192,35.734543],[139.7000814,35.7342785],[139.6996055,35.7333778],[139.6995653,35.7332796],[139.6995205,35.7331702]],[[139.7027267,35.7372126],[139.7030405,35.7375056],[139.7031946,35.7376511],[139.7035018,35.7379091],[139.7037191,35.7380926],[139.7040404,35.7383709],[139.70417,35.7384832],[139.7042338,35.7385405],[139.7049522,35.7392009]],[[139.7025929,35.73709],[139.7026384,35.7371325],[139.7027267,35.7372126]],[[139.6926816,35.6547749],[139.6927432,35.6547007]],[[139.6927432,35.6547007],[139.6928254,35.6545995]],[[139.6864005,35.6844909],[139.6864812,35.6844012],[139.6868823,35.6839491],[139.6880439,35.6827045],[139.6880722,35.6826738],[139.6881865,35.6825536]],[[139.6880448,35.6824731],[139.6879316,35.6825901],[139.6877633,35.6827718],[139.6867135,35.6838634],[139.686459,35.6841501],[139.686322,35.6842984],[139.6862406,35.6843982]],[[139.6826874,35.6883735],[139.6823739,35.6886748],[139.6823104,35.6887452],[139.6822129,35.6888448],[139.6821136,35.6889596],[139.6819793,35.6891407],[139.6818636,35.6893482],[139.681765,35.689552],[139.6816836,35.6897621],[139.6816224,35.689997],[139.6815879,35.6902314],[139.681579,35.6904713],[139.6815897,35.69068],[139.6816086,35.6908135],[139.6816339,35.6910005],[139.6816649,35.6911751],[139.6817082,35.6914104],[139.6817629,35.6916841]],[[139.6820073,35.6920288],[139.6819478,35.6916854]],[[139.6817629,35.6916841],[139.6818195,35.6920036]],[[139.723328,35.6259339],[139.7232004,35.6260653]],[[139.702527,35.6404832],[139.7020871,35.6409157],[139.7020351,35.6409759],[139.7016738,35.6414146],[139.7012721,35.6418864],[139.7008811,35.6423538]],[[139.7022766,35.6410353],[139.7026141,35.6405178]],[[139.7080763,35.7440043],[139.7080997,35.7448616],[139.7081094,35.7451594],[139.7081273,35.7457059],[139.7081432,35.7461906]],[[139.69976,35.7341201],[139.699914,35.7344346],[139.7000115,35.7346017]],[[139.7000115,35.7346017],[139.7001647,35.7348238],[139.7002494,35.7349377],[139.7004278,35.7351468],[139.7006123,35.7353316],[139.7006503,35.7353674],[139.7007116,35.7354252],[139.7007459,35.735457],[139.7008562,35.7355573],[139.7012469,35.7358978],[139.7014572,35.7360892],[139.7019069,35.736484],[139.7020425,35.7366024],[139.7021371,35.7366849],[139.702359,35.7368786],[139.7024611,35.7369686],[139.7025929,35.73709]]]}}]}
